{
  "type": "FeatureCollection",
  "features": [
    {
      "type": "Feature",
      "properties": {
        "name": "chennai_ambulance_flood_routes 1"
      },
      "geometry": {
        "type": "Point",
        "coordinates": [
          80.2813700979991,
          13.054472490003041
        ]
      }
    },
    {
      "type": "Feature",
      "properties": {
        "name": "chennai_ambulance_flood_routes 2"
      },
      "geometry": {
        "type": "Point",
        "coordinates": [
          80.19787436543022,
          13.037353968344526
        ]
      }
    },
    {
      "type": "Feature",
      "properties": {
        "name": "chennai_ambulance_flood_routes 3"
      },
      "geometry": {
        "type": "Point",
        "coordinates": [
          80.23985072947377,
          13.040103840553995
        ]
      }
    }
  ]
}