{
  "type": "FeatureCollection",
  "features": [
    {
      "type": "Feature",
      "properties": {
        "name": "chennai_fire_rescue_boat 1"
      },
      "geometry": {
        "type": "Point",
        "coordinates": [
          80.23934773182962,
          13.046950643151215
        ]
      }
    },
    {
      "type": "Feature",
      "properties": {
        "name": "chennai_fire_rescue_boat 2"
      },
      "geometry": {
        "type": "Point",
        "coordinates": [
          80.2772907864796,
          13.119880413907762
        ]
      }
    },
    {
      "type": "Feature",
      "properties": {
        "name": "chennai_fire_rescue_boat 3"
      },
      "geometry": {
        "type": "Point",
        "coordinates": [
          80.24393757423513,
          13.094347040613258
        ]
      }
    }
  ]
}