{
  "type": "FeatureCollection",
  "features": [
    {
      "type": "Feature",
      "properties": {
        "name": "Chennai Floods 2020 Cyclone Nivar — Hotspots KML",
        "source": "https://data.opencity.in/dataset/chennai-floods-2020-data",
        "note": "Missing gap — now added (KML->GeoJSON stub, replace with real download)"
      },
      "geometry": {
        "type": "Polygon",
        "coordinates": [
          [
            [
              80.18,
              12.98
            ],
            [
              80.28,
              12.98
            ],
            [
              80.28,
              13.08
            ],
            [
              80.18,
              13.08
            ],
            [
              80.18,
              12.98
            ]
          ]
        ]
      }
    },
    {
      "type": "Feature",
      "properties": {
        "name": "Chennai Floods 2020 Cyclone Nivar — Hotspots KML (2)",
        "source": "https://data.opencity.in/dataset/chennai-floods-2020-data",
        "note": "Missing gap — now added (KML->GeoJSON stub, replace with real download)"
      },
      "geometry": {
        "type": "Point",
        "coordinates": [
          80.22,
          13.03
        ]
      }
    }
  ]
}