{"type":"FeatureCollection","crs":{"type":"name","properties":{"name":"urn:ogc:def:crs:OGC:1.3:CRS84"}},"features":[{"type":"Feature","properties":{},"geometry":{"type":"Point","coordinates":[80.207447,12.998905]}},{"type":"Feature","properties":{},"geometry":{"type":"Point","coordinates":[80.207522,12.99926]}},{"type":"Feature","properties":{},"geometry":{"type":"Point","coordinates":[80.208781,13.002546]}},{"type":"Feature","properties":{},"geometry":{"type":"Point","coordinates":[80.207727,12.99995]}},{"type":"Feature","properties":{},"geometry":{"type":"Point","coordinates":[80.204198,12.978396]}},{"type":"Feature","properties":{},"geometry":{"type":"Point","coordinates":[80.210743,12.973235]}},{"type":"Feature","properties":{},"geometry":{"type":"Point","coordinates":[80.215175,12.961376]}},{"type":"Feature","properties":{},"geometry":{"type":"Point","coordinates":[80.21356,12.957362]}},{"type":"Feature","properties":{},"geometry":{"type":"Point","coordinates":[80.219466,12.972561]}},{"type":"Feature","properties":{},"geometry":{"type":"Point","coordinates":[80.219505,12.972705]}},{"type":"Feature","properties":{},"geometry":{"type":"Point","coordinates":[80.218661,12.973793]}},{"type":"Feature","properties":{},"geometry":{"type":"Point","coordinates":[80.220723,12.97548]}},{"type":"Feature","properties":{},"geometry":{"type":"Point","coordinates":[80.220769,12.975557]}},{"type":"Feature","properties":{},"geometry":{"type":"Point","coordinates":[80.22119,12.976109]}},{"type":"Feature","properties":{},"geometry":{"type":"Point","coordinates":[80.221266,12.976173]}},{"type":"Feature","properties":{},"geometry":{"type":"Point","coordinates":[80.22123,12.976226]}},{"type":"Feature","properties":{},"geometry":{"type":"Point","coordinates":[80.221239,12.977532]}},{"type":"Feature","properties":{},"geometry":{"type":"Point","coordinates":[80.221259,12.977498]}},{"type":"Feature","properties":{},"geometry":{"type":"Point","coordinates":[80.221211,12.978268]}},{"type":"Feature","properties":{},"geometry":{"type":"Point","coordinates":[80.2212,12.978653]}},{"type":"Feature","properties":{},"geometry":{"type":"Point","coordinates":[80.221068,12.979961]}},{"type":"Feature","properties":{},"geometry":{"type":"Point","coordinates":[80.221008,12.9803]}},{"type":"Feature","properties":{},"geometry":{"type":"Point","coordinates":[80.220967,12.980834]}},{"type":"Feature","properties":{},"geometry":{"type":"Point","coordinates":[80.22101,12.980949]}},{"type":"Feature","properties":{},"geometry":{"type":"Point","coordinates":[80.221054,12.981026]}},{"type":"Feature","properties":{},"geometry":{"type":"Point","coordinates":[80.221083,12.981133]}},{"type":"Feature","properties":{},"geometry":{"type":"Point","coordinates":[80.220419,12.974385]}},{"type":"Feature","properties":{},"geometry":{"type":"Point","coordinates":[80.215452,12.963667]}},{"type":"Feature","properties":{},"geometry":{"type":"Point","coordinates":[80.215174,12.963745]}},{"type":"Feature","properties":{},"geometry":{"type":"Point","coordinates":[80.19612,12.964679]}},{"type":"Feature","properties":{},"geometry":{"type":"Point","coordinates":[80.195986,12.964642]}},{"type":"Feature","properties":{},"geometry":{"type":"Point","coordinates":[80.195914,12.964647]}},{"type":"Feature","properties":{},"geometry":{"type":"Point","coordinates":[80.192335,12.965152]}},{"type":"Feature","properties":{},"geometry":{"type":"Point","coordinates":[80.192087,12.965219]}},{"type":"Feature","properties":{},"geometry":{"type":"Point","coordinates":[80.249189,12.996777]}},{"type":"Feature","properties":{},"geometry":{"type":"Point","coordinates":[80.249207,12.996704]}},{"type":"Feature","properties":{},"geometry":{"type":"Point","coordinates":[80.240109,13.006888]}},{"type":"Feature","properties":{},"geometry":{"type":"Point","coordinates":[80.243216,12.979667]}},{"type":"Feature","properties":{},"geometry":{"type":"Point","coordinates":[80.238901,12.978328]}},{"type":"Feature","properties":{},"geometry":{"type":"Point","coordinates":[80.239727,12.978203]}},{"type":"Feature","properties":{},"geometry":{"type":"Point","coordinates":[80.241081,12.97802]}},{"type":"Feature","properties":{},"geometry":{"type":"Point","coordinates":[80.241428,12.978078]}},{"type":"Feature","properties":{},"geometry":{"type":"Point","coordinates":[80.241873,12.978206]}},{"type":"Feature","properties":{},"geometry":{"type":"Point","coordinates":[80.242519,12.978404]}},{"type":"Feature","properties":{},"geometry":{"type":"Point","coordinates":[80.243048,12.978538]}},{"type":"Feature","properties":{},"geometry":{"type":"Point","coordinates":[80.243175,12.978389]}},{"type":"Feature","properties":{},"geometry":{"type":"Point","coordinates":[80.243138,12.978811]}},{"type":"Feature","properties":{},"geometry":{"type":"Point","coordinates":[80.240986,12.978359]}},{"type":"Feature","properties":{},"geometry":{"type":"Point","coordinates":[80.244062,12.975108]}},{"type":"Feature","properties":{},"geometry":{"type":"Point","coordinates":[80.244145,12.974859]}},{"type":"Feature","properties":{},"geometry":{"type":"Point","coordinates":[80.244202,12.97464]}},{"type":"Feature","properties":{},"geometry":{"type":"Point","coordinates":[80.233904,12.935751]}},{"type":"Feature","properties":{},"geometry":{"type":"Point","coordinates":[80.229357,12.913984]}},{"type":"Feature","properties":{},"geometry":{"type":"Point","coordinates":[80.195847,12.911432]}},{"type":"Feature","properties":{},"geometry":{"type":"Point","coordinates":[80.195902,12.911374]}},{"type":"Feature","properties":{},"geometry":{"type":"Point","coordinates":[80.197761,12.927073]}},{"type":"Feature","properties":{},"geometry":{"type":"Point","coordinates":[80.198212,12.92774]}},{"type":"Feature","properties":{},"geometry":{"type":"Point","coordinates":[80.204326,12.935891]}},{"type":"Feature","properties":{},"geometry":{"type":"Point","coordinates":[80.205716,12.940489]}},{"type":"Feature","properties":{},"geometry":{"type":"Point","coordinates":[80.205993,12.94122]}},{"type":"Feature","properties":{},"geometry":{"type":"Point","coordinates":[80.210986,12.95129]}},{"type":"Feature","properties":{},"geometry":{"type":"Point","coordinates":[80.219695,12.973317]}},{"type":"Feature","properties":{},"geometry":{"type":"Point","coordinates":[80.219896,12.976146]}},{"type":"Feature","properties":{},"geometry":{"type":"Point","coordinates":[80.219307,12.976312]}},{"type":"Feature","properties":{},"geometry":{"type":"Point","coordinates":[80.2191,12.977994]}},{"type":"Feature","properties":{},"geometry":{"type":"Point","coordinates":[80.216173,12.997426]}},{"type":"Feature","properties":{},"geometry":{"type":"Point","coordinates":[80.212664,13.006702]}},{"type":"Feature","properties":{},"geometry":{"type":"Point","coordinates":[80.215023,13.009804]}},{"type":"Feature","properties":{},"geometry":{"type":"Point","coordinates":[80.201162,12.995582]}},{"type":"Feature","properties":{},"geometry":{"type":"Point","coordinates":[80.207091,12.997183]}},{"type":"Feature","properties":{},"geometry":{"type":"Point","coordinates":[80.207128,12.99741]}},{"type":"Feature","properties":{},"geometry":{"type":"Point","coordinates":[80.201843,12.948715]}},{"type":"Feature","properties":{},"geometry":{"type":"Point","coordinates":[80.202917,12.948716]}},{"type":"Feature","properties":{},"geometry":{"type":"Point","coordinates":[80.203527,12.948761]}},{"type":"Feature","properties":{},"geometry":{"type":"Point","coordinates":[80.191428,12.972553]}},{"type":"Feature","properties":{},"geometry":{"type":"Point","coordinates":[80.17684,12.985301]}},{"type":"Feature","properties":{},"geometry":{"type":"Point","coordinates":[80.185412,12.989225]}},{"type":"Feature","properties":{},"geometry":{"type":"Point","coordinates":[80.193502,12.976869]}},{"type":"Feature","properties":{},"geometry":{"type":"Point","coordinates":[80.193806,12.977708]}},{"type":"Feature","properties":{},"geometry":{"type":"Point","coordinates":[80.194604,12.979498]}},{"type":"Feature","properties":{},"geometry":{"type":"Point","coordinates":[80.195264,12.98093]}},{"type":"Feature","properties":{},"geometry":{"type":"Point","coordinates":[80.195899,12.981996]}},{"type":"Feature","properties":{},"geometry":{"type":"Point","coordinates":[80.244592,12.959342]}},{"type":"Feature","properties":{},"geometry":{"type":"Point","coordinates":[80.244479,12.959023]}},{"type":"Feature","properties":{},"geometry":{"type":"Point","coordinates":[80.244343,12.958756]}},{"type":"Feature","properties":{},"geometry":{"type":"Point","coordinates":[80.245974,12.962332]}},{"type":"Feature","properties":{},"geometry":{"type":"Point","coordinates":[80.209665,13.033265]}},{"type":"Feature","properties":{},"geometry":{"type":"Point","coordinates":[80.209705,13.033379]}},{"type":"Feature","properties":{},"geometry":{"type":"Point","coordinates":[80.209723,13.033479]}},{"type":"Feature","properties":{},"geometry":{"type":"Point","coordinates":[80.209676,13.033148]}},{"type":"Feature","properties":{},"geometry":{"type":"Point","coordinates":[80.209778,13.035249]}},{"type":"Feature","properties":{},"geometry":{"type":"Point","coordinates":[80.209928,13.035091]}},{"type":"Feature","properties":{},"geometry":{"type":"Point","coordinates":[80.212243,13.036666]}},{"type":"Feature","properties":{},"geometry":{"type":"Point","coordinates":[80.212251,13.036826]}},{"type":"Feature","properties":{},"geometry":{"type":"Point","coordinates":[80.212238,13.036891]}},{"type":"Feature","properties":{},"geometry":{"type":"Point","coordinates":[80.212255,13.037062]}},{"type":"Feature","properties":{},"geometry":{"type":"Point","coordinates":[80.212259,13.037377]}},{"type":"Feature","properties":{},"geometry":{"type":"Point","coordinates":[80.212255,13.037655]}},{"type":"Feature","properties":{},"geometry":{"type":"Point","coordinates":[80.212075,13.036904]}},{"type":"Feature","properties":{},"geometry":{"type":"Point","coordinates":[80.206956,13.03555]}},{"type":"Feature","properties":{},"geometry":{"type":"Point","coordinates":[80.205898,13.035632]}},{"type":"Feature","properties":{},"geometry":{"type":"Point","coordinates":[80.202748,13.036073]}},{"type":"Feature","properties":{},"geometry":{"type":"Point","coordinates":[80.199686,13.036634]}},{"type":"Feature","properties":{},"geometry":{"type":"Point","coordinates":[80.195299,13.03728]}},{"type":"Feature","properties":{},"geometry":{"type":"Point","coordinates":[80.204564,13.037298]}},{"type":"Feature","properties":{},"geometry":{"type":"Point","coordinates":[80.205101,13.040494]}},{"type":"Feature","properties":{},"geometry":{"type":"Point","coordinates":[80.208488,13.038513]}},{"type":"Feature","properties":{},"geometry":{"type":"Point","coordinates":[80.208733,13.040443]}},{"type":"Feature","properties":{},"geometry":{"type":"Point","coordinates":[80.208846,13.041346]}},{"type":"Feature","properties":{},"geometry":{"type":"Point","coordinates":[80.208965,13.041877]}},{"type":"Feature","properties":{},"geometry":{"type":"Point","coordinates":[80.209109,13.043134]}},{"type":"Feature","properties":{},"geometry":{"type":"Point","coordinates":[80.213183,13.037793]}},{"type":"Feature","properties":{},"geometry":{"type":"Point","coordinates":[80.213684,13.038419]}},{"type":"Feature","properties":{},"geometry":{"type":"Point","coordinates":[80.214129,13.03907]}},{"type":"Feature","properties":{},"geometry":{"type":"Point","coordinates":[80.214181,13.039393]}},{"type":"Feature","properties":{},"geometry":{"type":"Point","coordinates":[80.214671,13.039879]}},{"type":"Feature","properties":{},"geometry":{"type":"Point","coordinates":[80.215113,13.04053]}},{"type":"Feature","properties":{},"geometry":{"type":"Point","coordinates":[80.219828,13.043373]}},{"type":"Feature","properties":{},"geometry":{"type":"Point","coordinates":[80.221493,13.043043]}},{"type":"Feature","properties":{},"geometry":{"type":"Point","coordinates":[80.225402,13.042049]}},{"type":"Feature","properties":{},"geometry":{"type":"Point","coordinates":[80.22642,13.041797]}},{"type":"Feature","properties":{},"geometry":{"type":"Point","coordinates":[80.228831,13.041265]}},{"type":"Feature","properties":{},"geometry":{"type":"Point","coordinates":[80.224938,13.042243]}},{"type":"Feature","properties":{},"geometry":{"type":"Point","coordinates":[80.225789,13.045311]}},{"type":"Feature","properties":{},"geometry":{"type":"Point","coordinates":[80.226079,13.046206]}},{"type":"Feature","properties":{},"geometry":{"type":"Point","coordinates":[80.22621,13.046693]}},{"type":"Feature","properties":{},"geometry":{"type":"Point","coordinates":[80.226039,13.046747]}},{"type":"Feature","properties":{},"geometry":{"type":"Point","coordinates":[80.232969,13.047438]}},{"type":"Feature","properties":{},"geometry":{"type":"Point","coordinates":[80.233005,13.046916]}},{"type":"Feature","properties":{},"geometry":{"type":"Point","coordinates":[80.232476,13.043598]}},{"type":"Feature","properties":{},"geometry":{"type":"Point","coordinates":[80.232853,13.045288]}},{"type":"Feature","properties":{},"geometry":{"type":"Point","coordinates":[80.233219,13.048453]}},{"type":"Feature","properties":{},"geometry":{"type":"Point","coordinates":[80.233413,13.050055]}},{"type":"Feature","properties":{},"geometry":{"type":"Point","coordinates":[80.234255,13.053116]}},{"type":"Feature","properties":{},"geometry":{"type":"Point","coordinates":[80.240095,13.04525]}},{"type":"Feature","properties":{},"geometry":{"type":"Point","coordinates":[80.240289,13.044951]}},{"type":"Feature","properties":{},"geometry":{"type":"Point","coordinates":[80.239571,13.044637]}},{"type":"Feature","properties":{},"geometry":{"type":"Point","coordinates":[80.230462,13.035077]}},{"type":"Feature","properties":{},"geometry":{"type":"Point","coordinates":[80.2304,13.03451]}},{"type":"Feature","properties":{},"geometry":{"type":"Point","coordinates":[80.230113,13.035109]}},{"type":"Feature","properties":{},"geometry":{"type":"Point","coordinates":[80.236042,13.036956]}},{"type":"Feature","properties":{},"geometry":{"type":"Point","coordinates":[80.243185,13.039879]}},{"type":"Feature","properties":{},"geometry":{"type":"Point","coordinates":[80.235887,13.053554]}},{"type":"Feature","properties":{},"geometry":{"type":"Point","coordinates":[80.228367,13.054069]}},{"type":"Feature","properties":{},"geometry":{"type":"Point","coordinates":[80.225763,13.053743]}},{"type":"Feature","properties":{},"geometry":{"type":"Point","coordinates":[80.219986,13.050825]}},{"type":"Feature","properties":{},"geometry":{"type":"Point","coordinates":[80.219008,13.047478]}},{"type":"Feature","properties":{},"geometry":{"type":"Point","coordinates":[80.217646,13.044058]}},{"type":"Feature","properties":{},"geometry":{"type":"Point","coordinates":[80.218557,13.051842]}},{"type":"Feature","properties":{},"geometry":{"type":"Point","coordinates":[80.215795,13.050908]}},{"type":"Feature","properties":{},"geometry":{"type":"Point","coordinates":[80.213696,13.050136]}},{"type":"Feature","properties":{},"geometry":{"type":"Point","coordinates":[80.206621,13.16461]}},{"type":"Feature","properties":{},"geometry":{"type":"Point","coordinates":[80.208774,13.163277]}},{"type":"Feature","properties":{},"geometry":{"type":"Point","coordinates":[80.208777,13.162123]}},{"type":"Feature","properties":{},"geometry":{"type":"Point","coordinates":[80.208765,13.162466]}},{"type":"Feature","properties":{},"geometry":{"type":"Point","coordinates":[80.207906,13.160816]}},{"type":"Feature","properties":{},"geometry":{"type":"Point","coordinates":[80.208722,13.152824]}},{"type":"Feature","properties":{},"geometry":{"type":"Point","coordinates":[80.223201,13.144915]}},{"type":"Feature","properties":{},"geometry":{"type":"Point","coordinates":[80.254358,13.144056]}},{"type":"Feature","properties":{},"geometry":{"type":"Point","coordinates":[80.254424,13.14472]}},{"type":"Feature","properties":{},"geometry":{"type":"Point","coordinates":[80.257014,13.153921]}},{"type":"Feature","properties":{},"geometry":{"type":"Point","coordinates":[80.257437,13.153965]}},{"type":"Feature","properties":{},"geometry":{"type":"Point","coordinates":[80.261058,13.156096]}},{"type":"Feature","properties":{},"geometry":{"type":"Point","coordinates":[80.25757,13.153196]}},{"type":"Feature","properties":{},"geometry":{"type":"Point","coordinates":[80.257961,13.151473]}},{"type":"Feature","properties":{},"geometry":{"type":"Point","coordinates":[80.258157,13.148914]}},{"type":"Feature","properties":{},"geometry":{"type":"Point","coordinates":[80.258446,13.149992]}},{"type":"Feature","properties":{},"geometry":{"type":"Point","coordinates":[80.200792,13.130879]}},{"type":"Feature","properties":{},"geometry":{"type":"Point","coordinates":[80.194152,13.133257]}},{"type":"Feature","properties":{},"geometry":{"type":"Point","coordinates":[80.193823,13.129727]}},{"type":"Feature","properties":{},"geometry":{"type":"Point","coordinates":[80.218929,13.145361]}},{"type":"Feature","properties":{},"geometry":{"type":"Point","coordinates":[80.21778,13.146187]}},{"type":"Feature","properties":{},"geometry":{"type":"Point","coordinates":[80.185548,13.141982]}},{"type":"Feature","properties":{},"geometry":{"type":"Point","coordinates":[80.186153,13.140694]}},{"type":"Feature","properties":{},"geometry":{"type":"Point","coordinates":[80.170895,13.13213]}},{"type":"Feature","properties":{},"geometry":{"type":"Point","coordinates":[80.167438,13.122214]}},{"type":"Feature","properties":{},"geometry":{"type":"Point","coordinates":[80.16857,13.119504]}},{"type":"Feature","properties":{},"geometry":{"type":"Point","coordinates":[80.169028,13.117344]}},{"type":"Feature","properties":{},"geometry":{"type":"Point","coordinates":[80.201536,13.123383]}},{"type":"Feature","properties":{},"geometry":{"type":"Point","coordinates":[80.189014,13.015439]}},{"type":"Feature","properties":{},"geometry":{"type":"Point","coordinates":[80.181609,13.015954]}},{"type":"Feature","properties":{},"geometry":{"type":"Point","coordinates":[80.167684,13.100092]}},{"type":"Feature","properties":{},"geometry":{"type":"Point","coordinates":[80.170872,13.099617]}},{"type":"Feature","properties":{},"geometry":{"type":"Point","coordinates":[80.172048,13.099569]}},{"type":"Feature","properties":{},"geometry":{"type":"Point","coordinates":[80.214838,13.101985]}},{"type":"Feature","properties":{},"geometry":{"type":"Point","coordinates":[80.209373,13.102621]}},{"type":"Feature","properties":{},"geometry":{"type":"Point","coordinates":[80.209292,13.10561]}},{"type":"Feature","properties":{},"geometry":{"type":"Point","coordinates":[80.21084,13.105569]}},{"type":"Feature","properties":{},"geometry":{"type":"Point","coordinates":[80.207275,13.105853]}},{"type":"Feature","properties":{},"geometry":{"type":"Point","coordinates":[80.207191,13.105305]}},{"type":"Feature","properties":{},"geometry":{"type":"Point","coordinates":[80.207137,13.1056]}},{"type":"Feature","properties":{},"geometry":{"type":"Point","coordinates":[80.198548,13.11414]}}]}