{"type":"FeatureCollection","crs":{"type":"name","properties":{"name":"urn:ogc:def:crs:OGC:1.3:CRS84"}},"features":[{"type":"Feature","properties":{"styleurl":"#chennai_uchcs_style"},"geometry":{"type":"Point","coordinates":[80.2698,13.051661]}},{"type":"Feature","properties":{"styleurl":"#chennai_uchcs_style"},"geometry":{"type":"Point","coordinates":[80.230279,13.099145]}},{"type":"Feature","properties":{"styleurl":"#chennai_uchcs_style"},"geometry":{"type":"Point","coordinates":[80.260627,13.100857]}},{"type":"Feature","properties":{"styleurl":"#chennai_uchcs_style"},"geometry":{"type":"Point","coordinates":[80.255902,13.000138]}},{"type":"Feature","properties":{"styleurl":"#chennai_uchcs_style"},"geometry":{"type":"Point","coordinates":[80.206466,13.003219]}},{"type":"Feature","properties":{"styleurl":"#chennai_uchcs_style"},"geometry":{"type":"Point","coordinates":[80.16976,13.036848]}},{"type":"Feature","properties":{"styleurl":"#chennai_uchcs_style"},"geometry":{"type":"Point","coordinates":[80.178434,13.094805]}},{"type":"Feature","properties":{"styleurl":"#chennai_uchcs_style"},"geometry":{"type":"Point","coordinates":[80.230119,13.14805]}},{"type":"Feature","properties":{"styleurl":"#chennai_uchcs_style"},"geometry":{"type":"Point","coordinates":[80.309439,13.191296]}},{"type":"Feature","properties":{"styleurl":"#chennai_uchcs_style"},"geometry":{"type":"Point","coordinates":[80.2579,13.168584]}},{"type":"Feature","properties":{"styleurl":"#chennai_uchcs_style"},"geometry":{"type":"Point","coordinates":[80.274504,13.104394]}},{"type":"Feature","properties":{"styleurl":"#chennai_uchcs_style"},"geometry":{"type":"Point","coordinates":[80.287418,13.119296]}},{"type":"Feature","properties":{"styleurl":"#chennai_uchcs_style"},"geometry":{"type":"Point","coordinates":[80.219649,13.051757]}},{"type":"Feature","properties":{"styleurl":"#chennai_uchcs_style"},"geometry":{"type":"Point","coordinates":[80.23931,12.887591]}}]}