{"type":"FeatureCollection","crs":{"type":"name","properties":{"name":"urn:ogc:def:crs:OGC:1.3:CRS84"}},"features":[{"type":"Feature","properties":{"styleurl":"#chennai_uphcs_style"},"geometry":{"type":"Point","coordinates":[80.276257,13.046117]}},{"type":"Feature","properties":{"styleurl":"#chennai_uphcs_style"},"geometry":{"type":"Point","coordinates":[80.273113,13.050607]}},{"type":"Feature","properties":{"styleurl":"#chennai_uphcs_style"},"geometry":{"type":"Point","coordinates":[80.235518,13.049213]}},{"type":"Feature","properties":{"styleurl":"#chennai_uphcs_style"},"geometry":{"type":"Point","coordinates":[80.277804,13.051218]}},{"type":"Feature","properties":{"styleurl":"#chennai_uphcs_style"},"geometry":{"type":"Point","coordinates":[80.239242,13.057817]}},{"type":"Feature","properties":{"styleurl":"#chennai_uphcs_style"},"geometry":{"type":"Point","coordinates":[80.224806,13.076563]}},{"type":"Feature","properties":{"styleurl":"#chennai_uphcs_style"},"geometry":{"type":"Point","coordinates":[80.242944,13.073192]}},{"type":"Feature","properties":{"styleurl":"#chennai_uphcs_style"},"geometry":{"type":"Point","coordinates":[80.219932,13.06841]}},{"type":"Feature","properties":{"styleurl":"#chennai_uphcs_style"},"geometry":{"type":"Point","coordinates":[80.213676,13.066556]}},{"type":"Feature","properties":{"styleurl":"#chennai_uphcs_style"},"geometry":{"type":"Point","coordinates":[80.234525,13.080598]}},{"type":"Feature","properties":{"styleurl":"#chennai_uphcs_style"},"geometry":{"type":"Point","coordinates":[80.220555,13.079082]}},{"type":"Feature","properties":{"styleurl":"#chennai_uphcs_style"},"geometry":{"type":"Point","coordinates":[80.212152,13.078237]}},{"type":"Feature","properties":{"styleurl":"#chennai_uphcs_style"},"geometry":{"type":"Point","coordinates":[80.239758,13.085413]}},{"type":"Feature","properties":{"styleurl":"#chennai_uphcs_style"},"geometry":{"type":"Point","coordinates":[80.201196,13.099967]}},{"type":"Feature","properties":{"styleurl":"#chennai_uphcs_style"},"geometry":{"type":"Point","coordinates":[80.211513,13.108262]}},{"type":"Feature","properties":{"styleurl":"#chennai_uphcs_style"},"geometry":{"type":"Point","coordinates":[80.230718,13.100727]}},{"type":"Feature","properties":{"styleurl":"#chennai_uphcs_style"},"geometry":{"type":"Point","coordinates":[80.257228,13.094368]}},{"type":"Feature","properties":{"styleurl":"#chennai_uphcs_style"},"geometry":{"type":"Point","coordinates":[80.260627,13.100857]}},{"type":"Feature","properties":{"styleurl":"#chennai_uphcs_style"},"geometry":{"type":"Point","coordinates":[80.25288,13.104804]}},{"type":"Feature","properties":{"styleurl":"#chennai_uphcs_style"},"geometry":{"type":"Point","coordinates":[80.238376,13.101001]}},{"type":"Feature","properties":{"styleurl":"#chennai_uphcs_style"},"geometry":{"type":"Point","coordinates":[80.24353,13.120543]}},{"type":"Feature","properties":{"styleurl":"#chennai_uphcs_style"},"geometry":{"type":"Point","coordinates":[80.205377,13.120106]}},{"type":"Feature","properties":{"styleurl":"#chennai_uphcs_style"},"geometry":{"type":"Point","coordinates":[80.267559,13.095155]}},{"type":"Feature","properties":{"styleurl":"#chennai_uphcs_style"},"geometry":{"type":"Point","coordinates":[80.253354,13.092776]}},{"type":"Feature","properties":{"styleurl":"#chennai_uphcs_style"},"geometry":{"type":"Point","coordinates":[80.245131,13.095965]}},{"type":"Feature","properties":{"styleurl":"#chennai_uphcs_style"},"geometry":{"type":"Point","coordinates":[80.233724,13.121095]}},{"type":"Feature","properties":{"styleurl":"#chennai_uphcs_style"},"geometry":{"type":"Point","coordinates":[80.235422,13.114007]}},{"type":"Feature","properties":{"styleurl":"#chennai_uphcs_style"},"geometry":{"type":"Point","coordinates":[80.209252,13.053756]}},{"type":"Feature","properties":{"styleurl":"#chennai_uphcs_style"},"geometry":{"type":"Point","coordinates":[80.203802,13.056587]}},{"type":"Feature","properties":{"styleurl":"#chennai_uphcs_style"},"geometry":{"type":"Point","coordinates":[80.192936,13.05901]}},{"type":"Feature","properties":{"styleurl":"#chennai_uphcs_style"},"geometry":{"type":"Point","coordinates":[80.210488,12.875229]}},{"type":"Feature","properties":{"styleurl":"#chennai_uphcs_style"},"geometry":{"type":"Point","coordinates":[80.238636,12.931]}},{"type":"Feature","properties":{"styleurl":"#chennai_uphcs_style"},"geometry":{"type":"Point","coordinates":[80.255905,12.949863]}},{"type":"Feature","properties":{"styleurl":"#chennai_uphcs_style"},"geometry":{"type":"Point","coordinates":[80.253524,12.964573]}},{"type":"Feature","properties":{"styleurl":"#chennai_uphcs_style"},"geometry":{"type":"Point","coordinates":[80.200598,12.971334]}},{"type":"Feature","properties":{"styleurl":"#chennai_uphcs_style"},"geometry":{"type":"Point","coordinates":[80.203596,12.994157]}},{"type":"Feature","properties":{"styleurl":"#chennai_uphcs_style"},"geometry":{"type":"Point","coordinates":[80.203057,13.001745]}},{"type":"Feature","properties":{"styleurl":"#chennai_uphcs_style"},"geometry":{"type":"Point","coordinates":[80.166981,13.021229]}},{"type":"Feature","properties":{"styleurl":"#chennai_uphcs_style"},"geometry":{"type":"Point","coordinates":[80.186415,13.069193]}},{"type":"Feature","properties":{"styleurl":"#chennai_uphcs_style"},"geometry":{"type":"Point","coordinates":[80.166477,13.063111]}},{"type":"Feature","properties":{"styleurl":"#chennai_uphcs_style"},"geometry":{"type":"Point","coordinates":[80.169518,13.0844]}},{"type":"Feature","properties":{"styleurl":"#chennai_uphcs_style"},"geometry":{"type":"Point","coordinates":[80.189868,13.089562]}},{"type":"Feature","properties":{"styleurl":"#chennai_uphcs_style"},"geometry":{"type":"Point","coordinates":[80.182582,13.109723]}},{"type":"Feature","properties":{"styleurl":"#chennai_uphcs_style"},"geometry":{"type":"Point","coordinates":[80.15363,13.11767]}},{"type":"Feature","properties":{"styleurl":"#chennai_uphcs_style"},"geometry":{"type":"Point","coordinates":[80.160142,13.123358]}},{"type":"Feature","properties":{"styleurl":"#chennai_uphcs_style"},"geometry":{"type":"Point","coordinates":[80.153669,13.12973]}},{"type":"Feature","properties":{"styleurl":"#chennai_uphcs_style"},"geometry":{"type":"Point","coordinates":[80.211846,13.132254]}},{"type":"Feature","properties":{"styleurl":"#chennai_uphcs_style"},"geometry":{"type":"Point","coordinates":[80.230119,13.14805]}},{"type":"Feature","properties":{"styleurl":"#chennai_uphcs_style"},"geometry":{"type":"Point","coordinates":[80.2579,13.168584]}},{"type":"Feature","properties":{"styleurl":"#chennai_uphcs_style"},"geometry":{"type":"Point","coordinates":[80.302222,13.151658]}},{"type":"Feature","properties":{"styleurl":"#chennai_uphcs_style"},"geometry":{"type":"Point","coordinates":[80.295016,13.152639]}},{"type":"Feature","properties":{"styleurl":"#chennai_uphcs_style"},"geometry":{"type":"Point","coordinates":[80.301284,13.157497]}},{"type":"Feature","properties":{"styleurl":"#chennai_uphcs_style"},"geometry":{"type":"Point","coordinates":[80.256802,13.088588]}},{"type":"Feature","properties":{"styleurl":"#chennai_uphcs_style"},"geometry":{"type":"Point","coordinates":[80.23131,13.109176]}},{"type":"Feature","properties":{"styleurl":"#chennai_uphcs_style"},"geometry":{"type":"Point","coordinates":[80.274448,13.104277]}},{"type":"Feature","properties":{"styleurl":"#chennai_uphcs_style"},"geometry":{"type":"Point","coordinates":[80.293718,13.101549]}},{"type":"Feature","properties":{"styleurl":"#chennai_uphcs_style"},"geometry":{"type":"Point","coordinates":[80.262986,13.086032]}},{"type":"Feature","properties":{"styleurl":"#chennai_uphcs_style"},"geometry":{"type":"Point","coordinates":[80.286515,13.102002]}},{"type":"Feature","properties":{"styleurl":"#chennai_uphcs_style"},"geometry":{"type":"Point","coordinates":[80.28139,13.098548]}},{"type":"Feature","properties":{"styleurl":"#chennai_uphcs_style"},"geometry":{"type":"Point","coordinates":[80.285896,13.097001]}},{"type":"Feature","properties":{"styleurl":"#chennai_uphcs_style"},"geometry":{"type":"Point","coordinates":[80.293005,13.118134]}},{"type":"Feature","properties":{"styleurl":"#chennai_uphcs_style"},"geometry":{"type":"Point","coordinates":[80.28308,13.110283]}},{"type":"Feature","properties":{"styleurl":"#chennai_uphcs_style"},"geometry":{"type":"Point","coordinates":[80.25713,12.984835]}},{"type":"Feature","properties":{"styleurl":"#chennai_uphcs_style"},"geometry":{"type":"Point","coordinates":[80.236749,12.982964]}},{"type":"Feature","properties":{"styleurl":"#chennai_uphcs_style"},"geometry":{"type":"Point","coordinates":[80.229941,12.986304]}},{"type":"Feature","properties":{"styleurl":"#chennai_uphcs_style"},"geometry":{"type":"Point","coordinates":[80.212069,12.991551]}},{"type":"Feature","properties":{"styleurl":"#chennai_uphcs_style"},"geometry":{"type":"Point","coordinates":[80.205245,12.98909]}},{"type":"Feature","properties":{"styleurl":"#chennai_uphcs_style"},"geometry":{"type":"Point","coordinates":[80.264842,13.02395]}},{"type":"Feature","properties":{"styleurl":"#chennai_uphcs_style"},"geometry":{"type":"Point","coordinates":[80.240241,13.022995]}},{"type":"Feature","properties":{"styleurl":"#chennai_uphcs_style"},"geometry":{"type":"Point","coordinates":[80.226154,13.02995]}},{"type":"Feature","properties":{"styleurl":"#chennai_uphcs_style"},"geometry":{"type":"Point","coordinates":[80.202302,13.044045]}},{"type":"Feature","properties":{"styleurl":"#chennai_uphcs_style"},"geometry":{"type":"Point","coordinates":[80.1969,13.052855]}},{"type":"Feature","properties":{"styleurl":"#chennai_uphcs_style"},"geometry":{"type":"Point","coordinates":[80.191286,13.031658]}},{"type":"Feature","properties":{"styleurl":"#chennai_uphcs_style"},"geometry":{"type":"Point","coordinates":[80.214563,13.041116]}},{"type":"Feature","properties":{"styleurl":"#chennai_uphcs_style"},"geometry":{"type":"Point","coordinates":[80.217217,13.032255]}},{"type":"Feature","properties":{"styleurl":"#chennai_uphcs_style"},"geometry":{"type":"Point","coordinates":[80.219004,13.051185]}},{"type":"Feature","properties":{"styleurl":"#chennai_uphcs_style"},"geometry":{"type":"Point","coordinates":[80.202265,13.031889]}},{"type":"Feature","properties":{"styleurl":"#chennai_uphcs_style"},"geometry":{"type":"Point","coordinates":[80.224168,13.031043]}},{"type":"Feature","properties":{"styleurl":"#chennai_uphcs_style"},"geometry":{"type":"Point","coordinates":[80.233927,13.029392]}},{"type":"Feature","properties":{"styleurl":"#chennai_uphcs_style"},"geometry":{"type":"Point","coordinates":[80.219502,13.025052]}},{"type":"Feature","properties":{"styleurl":"#chennai_uphcs_style"},"geometry":{"type":"Point","coordinates":[80.319929,13.218101]}},{"type":"Feature","properties":{"styleurl":"#chennai_uphcs_style"},"geometry":{"type":"Point","coordinates":[80.30581,13.185883]}},{"type":"Feature","properties":{"styleurl":"#chennai_uphcs_style"},"geometry":{"type":"Point","coordinates":[80.302348,13.180226]}},{"type":"Feature","properties":{"styleurl":"#chennai_uphcs_style"},"geometry":{"type":"Point","coordinates":[80.243622,13.134929]}},{"type":"Feature","properties":{"styleurl":"#chennai_uphcs_style"},"geometry":{"type":"Point","coordinates":[80.258365,13.130689]}},{"type":"Feature","properties":{"styleurl":"#chennai_uphcs_style"},"geometry":{"type":"Point","coordinates":[80.25959,13.110744]}},{"type":"Feature","properties":{"styleurl":"#chennai_uphcs_style"},"geometry":{"type":"Point","coordinates":[80.287048,13.119515]}},{"type":"Feature","properties":{"styleurl":"#chennai_uphcs_style"},"geometry":{"type":"Point","coordinates":[80.275076,13.096197]}},{"type":"Feature","properties":{"styleurl":"#chennai_uphcs_style"},"geometry":{"type":"Point","coordinates":[80.267924,13.07125]}},{"type":"Feature","properties":{"styleurl":"#chennai_uphcs_style"},"geometry":{"type":"Point","coordinates":[80.206471,13.11908]}},{"type":"Feature","properties":{"styleurl":"#chennai_uphcs_style"},"geometry":{"type":"Point","coordinates":[80.265763,13.091055]}},{"type":"Feature","properties":{"styleurl":"#chennai_uphcs_style"},"geometry":{"type":"Point","coordinates":[80.1535,13.112624]}},{"type":"Feature","properties":{"styleurl":"#chennai_uphcs_style"},"geometry":{"type":"Point","coordinates":[80.159243,13.091369]}},{"type":"Feature","properties":{"styleurl":"#chennai_uphcs_style"},"geometry":{"type":"Point","coordinates":[80.186072,13.082449]}},{"type":"Feature","properties":{"styleurl":"#chennai_uphcs_style"},"geometry":{"type":"Point","coordinates":[80.205321,13.113404]}},{"type":"Feature","properties":{"styleurl":"#chennai_uphcs_style"},"geometry":{"type":"Point","coordinates":[80.230491,13.098274]}},{"type":"Feature","properties":{"styleurl":"#chennai_uphcs_style"},"geometry":{"type":"Point","coordinates":[80.252406,13.087774]}},{"type":"Feature","properties":{"styleurl":"#chennai_uphcs_style"},"geometry":{"type":"Point","coordinates":[80.229,13.063667]}},{"type":"Feature","properties":{"styleurl":"#chennai_uphcs_style"},"geometry":{"type":"Point","coordinates":[80.2762,13.063605]}},{"type":"Feature","properties":{"styleurl":"#chennai_uphcs_style"},"geometry":{"type":"Point","coordinates":[80.260261,13.05507]}},{"type":"Feature","properties":{"styleurl":"#chennai_uphcs_style"},"geometry":{"type":"Point","coordinates":[80.262252,13.051291]}},{"type":"Feature","properties":{"styleurl":"#chennai_uphcs_style"},"geometry":{"type":"Point","coordinates":[80.276183,13.029423]}},{"type":"Feature","properties":{"styleurl":"#chennai_uphcs_style"},"geometry":{"type":"Point","coordinates":[80.235775,13.039316]}},{"type":"Feature","properties":{"styleurl":"#chennai_uphcs_style"},"geometry":{"type":"Point","coordinates":[80.215894,13.027736]}},{"type":"Feature","properties":{"styleurl":"#chennai_uphcs_style"},"geometry":{"type":"Point","coordinates":[80.184072,13.055512]}},{"type":"Feature","properties":{"styleurl":"#chennai_uphcs_style"},"geometry":{"type":"Point","coordinates":[80.164171,13.030794]}},{"type":"Feature","properties":{"styleurl":"#chennai_uphcs_style"},"geometry":{"type":"Point","coordinates":[80.173908,13.035022]}},{"type":"Feature","properties":{"styleurl":"#chennai_uphcs_style"},"geometry":{"type":"Point","coordinates":[80.18953,12.987892]}},{"type":"Feature","properties":{"styleurl":"#chennai_uphcs_style"},"geometry":{"type":"Point","coordinates":[80.181604,12.974467]}},{"type":"Feature","properties":{"styleurl":"#chennai_uphcs_style"},"geometry":{"type":"Point","coordinates":[80.20578,13.017859]}},{"type":"Feature","properties":{"styleurl":"#chennai_uphcs_style"},"geometry":{"type":"Point","coordinates":[80.26359,13.001099]}},{"type":"Feature","properties":{"styleurl":"#chennai_uphcs_style"},"geometry":{"type":"Point","coordinates":[80.198423,12.963201]}},{"type":"Feature","properties":{"styleurl":"#chennai_uphcs_style"},"geometry":{"type":"Point","coordinates":[80.204132,12.933155]}},{"type":"Feature","properties":{"styleurl":"#chennai_uphcs_style"},"geometry":{"type":"Point","coordinates":[80.196558,12.912397]}},{"type":"Feature","properties":{"styleurl":"#chennai_uphcs_style"},"geometry":{"type":"Point","coordinates":[80.240929,12.948711]}},{"type":"Feature","properties":{"styleurl":"#chennai_uphcs_style"},"geometry":{"type":"Point","coordinates":[80.287166,13.122785]}},{"type":"Feature","properties":{"styleurl":"#chennai_uphcs_style"},"geometry":{"type":"Point","coordinates":[80.28186,13.112995]}},{"type":"Feature","properties":{"styleurl":"#chennai_uphcs_style"},"geometry":{"type":"Point","coordinates":[80.250774,13.116316]}},{"type":"Feature","properties":{"styleurl":"#chennai_uphcs_style"},"geometry":{"type":"Point","coordinates":[80.266077,13.118928]}},{"type":"Feature","properties":{"styleurl":"#chennai_uphcs_style"},"geometry":{"type":"Point","coordinates":[80.272849,13.11117]}},{"type":"Feature","properties":{"styleurl":"#chennai_uphcs_style"},"geometry":{"type":"Point","coordinates":[80.293121,13.128917]}},{"type":"Feature","properties":{"styleurl":"#chennai_uphcs_style"},"geometry":{"type":"Point","coordinates":[80.279951,13.127731]}},{"type":"Feature","properties":{"styleurl":"#chennai_uphcs_style"},"geometry":{"type":"Point","coordinates":[80.286273,13.132624]}},{"type":"Feature","properties":{"styleurl":"#chennai_uphcs_style"},"geometry":{"type":"Point","coordinates":[80.297087,13.138354]}},{"type":"Feature","properties":{"styleurl":"#chennai_uphcs_style"},"geometry":{"type":"Point","coordinates":[80.262217,13.12473]}},{"type":"Feature","properties":{"styleurl":"#chennai_uphcs_style"},"geometry":{"type":"Point","coordinates":[80.251661,13.122945]}},{"type":"Feature","properties":{"styleurl":"#chennai_uphcs_style"},"geometry":{"type":"Point","coordinates":[80.27813,13.137974]}},{"type":"Feature","properties":{"styleurl":"#chennai_uphcs_style"},"geometry":{"type":"Point","coordinates":[80.271,13.036432]}},{"type":"Feature","properties":{"styleurl":"#chennai_uphcs_style"},"geometry":{"type":"Point","coordinates":[80.22352,13.058007]}},{"type":"Feature","properties":{"styleurl":"#chennai_uphcs_style"},"geometry":{"type":"Point","coordinates":[80.252419,13.055482]}},{"type":"Feature","properties":{"styleurl":"#chennai_uphcs_style"},"geometry":{"type":"Point","coordinates":[80.261189,13.025786]}},{"type":"Feature","properties":{"styleurl":"#chennai_uphcs_style"},"geometry":{"type":"Point","coordinates":[80.257074,13.034576]}},{"type":"Feature","properties":{"styleurl":"#chennai_uphcs_style"},"geometry":{"type":"Point","coordinates":[80.250339,13.035503]}},{"type":"Feature","properties":{"styleurl":"#chennai_uphcs_style"},"geometry":{"type":"Point","coordinates":[80.26797,13.074973]}},{"type":"Feature","properties":{"styleurl":"#chennai_uphcs_style"},"geometry":{"type":"Point","coordinates":[80.245267,13.073086]}},{"type":"Feature","properties":{"styleurl":"#chennai_uphcs_style"},"geometry":{"type":"Point","coordinates":[80.214372,12.999411]}},{"type":"Feature","properties":{"styleurl":"#chennai_uphcs_style"},"geometry":{"type":"Point","coordinates":[80.203854,13.165116]}},{"type":"Feature","properties":{"styleurl":"#chennai_uphcs_style"},"geometry":{"type":"Point","coordinates":[80.276027,13.206205]}},{"type":"Feature","properties":{"styleurl":"#chennai_uphcs_style"},"geometry":{"type":"Point","coordinates":[80.228439,12.892143]}},{"type":"Feature","properties":{"styleurl":"#chennai_uphcs_style"},"geometry":{"type":"Point","coordinates":[80.232317,13.142476]}}]}