{
  "type": "FeatureCollection",
  "features": [
    {
      "type": "Feature",
      "properties": {
        "name": "chennai_flood_all_012 1"
      },
      "geometry": {
        "type": "Point",
        "coordinates": [
          80.28677203367383,
          13.108615711908842
        ]
      }
    },
    {
      "type": "Feature",
      "properties": {
        "name": "chennai_flood_all_012 2"
      },
      "geometry": {
        "type": "Point",
        "coordinates": [
          80.22222536179683,
          13.058462469858242
        ]
      }
    },
    {
      "type": "Feature",
      "properties": {
        "name": "chennai_flood_all_012 3"
      },
      "geometry": {
        "type": "Point",
        "coordinates": [
          80.22302257528999,
          13.097311884755257
        ]
      }
    }
  ]
}