{"type":"FeatureCollection","crs":{"type":"name","properties":{"name":"urn:ogc:def:crs:OGC:1.3:CRS84"}},"features":[{"type":"Feature","properties":{},"geometry":{"type":"Point","coordinates":[80.217778,12.9875]}},{"type":"Feature","properties":{},"geometry":{"type":"Point","coordinates":[80.218889,12.983611]}},{"type":"Feature","properties":{},"geometry":{"type":"Point","coordinates":[80.220556,12.983889]}},{"type":"Feature","properties":{},"geometry":{"type":"Point","coordinates":[80.223333,12.985833]}},{"type":"Feature","properties":{},"geometry":{"type":"Point","coordinates":[80.240833,12.985556]}},{"type":"Feature","properties":{},"geometry":{"type":"Point","coordinates":[80.260833,12.985556]}},{"type":"Feature","properties":{},"geometry":{"type":"Point","coordinates":[80.166944,13.020556]}},{"type":"Feature","properties":{},"geometry":{"type":"Point","coordinates":[80.155833,13.015833]}},{"type":"Feature","properties":{},"geometry":{"type":"Point","coordinates":[80.157778,13.017778]}},{"type":"Feature","properties":{},"geometry":{"type":"Point","coordinates":[80.160833,13.011111]}},{"type":"Feature","properties":{},"geometry":{"type":"Point","coordinates":[80.161389,13.011389]}},{"type":"Feature","properties":{},"geometry":{"type":"Point","coordinates":[80.173333,13.014167]}},{"type":"Feature","properties":{},"geometry":{"type":"Point","coordinates":[80.163056,13.011944]}},{"type":"Feature","properties":{},"geometry":{"type":"Point","coordinates":[80.191389,13.016667]}},{"type":"Feature","properties":{},"geometry":{"type":"Point","coordinates":[80.205,12.998889]}},{"type":"Feature","properties":{},"geometry":{"type":"Point","coordinates":[80.195833,12.986389]}},{"type":"Feature","properties":{},"geometry":{"type":"Point","coordinates":[80.200278,12.993611]}},{"type":"Feature","properties":{},"geometry":{"type":"Point","coordinates":[80.187222,12.984167]}},{"type":"Feature","properties":{},"geometry":{"type":"Point","coordinates":[80.153333,13.143889]}},{"type":"Feature","properties":{},"geometry":{"type":"Point","coordinates":[80.153333,13.136944]}},{"type":"Feature","properties":{},"geometry":{"type":"Point","coordinates":[80.173056,13.141389]}},{"type":"Feature","properties":{},"geometry":{"type":"Point","coordinates":[80.165833,13.127222]}},{"type":"Feature","properties":{},"geometry":{"type":"Point","coordinates":[80.168611,13.131111]}},{"type":"Feature","properties":{},"geometry":{"type":"Point","coordinates":[80.166944,13.126667]}},{"type":"Feature","properties":{},"geometry":{"type":"Point","coordinates":[80.19,13.143611]}},{"type":"Feature","properties":{},"geometry":{"type":"Point","coordinates":[80.169167,13.122222]}},{"type":"Feature","properties":{},"geometry":{"type":"Point","coordinates":[80.173333,13.125]}},{"type":"Feature","properties":{},"geometry":{"type":"Point","coordinates":[80.1725,13.120556]}},{"type":"Feature","properties":{},"geometry":{"type":"Point","coordinates":[80.169722,13.120833]}},{"type":"Feature","properties":{},"geometry":{"type":"Point","coordinates":[80.171111,13.118333]}},{"type":"Feature","properties":{},"geometry":{"type":"Point","coordinates":[80.178889,13.118611]}},{"type":"Feature","properties":{},"geometry":{"type":"Point","coordinates":[80.171111,13.123889]}},{"type":"Feature","properties":{},"geometry":{"type":"Point","coordinates":[80.195,13.124722]}},{"type":"Feature","properties":{},"geometry":{"type":"Point","coordinates":[80.189167,13.116667]}},{"type":"Feature","properties":{},"geometry":{"type":"Point","coordinates":[80.210833,13.125556]}},{"type":"Feature","properties":{},"geometry":{"type":"Point","coordinates":[80.189722,13.118056]}},{"type":"Feature","properties":{},"geometry":{"type":"Point","coordinates":[80.191667,13.124444]}},{"type":"Feature","properties":{},"geometry":{"type":"Point","coordinates":[80.185278,13.138889]}},{"type":"Feature","properties":{},"geometry":{"type":"Point","coordinates":[80.188611,13.124167]}},{"type":"Feature","properties":{},"geometry":{"type":"Point","coordinates":[80.173056,13.123611]}},{"type":"Feature","properties":{},"geometry":{"type":"Point","coordinates":[80.1925,13.107222]}},{"type":"Feature","properties":{},"geometry":{"type":"Point","coordinates":[80.192778,13.104722]}},{"type":"Feature","properties":{},"geometry":{"type":"Point","coordinates":[80.167222,13.115556]}},{"type":"Feature","properties":{},"geometry":{"type":"Point","coordinates":[80.151667,13.108611]}},{"type":"Feature","properties":{},"geometry":{"type":"Point","coordinates":[80.155833,13.111667]}},{"type":"Feature","properties":{},"geometry":{"type":"Point","coordinates":[80.157222,13.113889]}},{"type":"Feature","properties":{},"geometry":{"type":"Point","coordinates":[80.157778,13.102778]}},{"type":"Feature","properties":{},"geometry":{"type":"Point","coordinates":[80.159167,13.098056]}},{"type":"Feature","properties":{},"geometry":{"type":"Point","coordinates":[80.167778,13.106111]}},{"type":"Feature","properties":{},"geometry":{"type":"Point","coordinates":[80.16,13.098611]}},{"type":"Feature","properties":{},"geometry":{"type":"Point","coordinates":[80.183889,13.102778]}},{"type":"Feature","properties":{},"geometry":{"type":"Point","coordinates":[80.189444,13.105556]}},{"type":"Feature","properties":{},"geometry":{"type":"Point","coordinates":[80.191111,13.100833]}},{"type":"Feature","properties":{},"geometry":{"type":"Point","coordinates":[80.188056,13.099167]}},{"type":"Feature","properties":{},"geometry":{"type":"Point","coordinates":[80.140556,13.1325]}},{"type":"Feature","properties":{},"geometry":{"type":"Point","coordinates":[80.239444,13.037778]}},{"type":"Feature","properties":{},"geometry":{"type":"Point","coordinates":[80.2175,13.088889]}},{"type":"Feature","properties":{},"geometry":{"type":"Point","coordinates":[80.224722,13.088611]}},{"type":"Feature","properties":{},"geometry":{"type":"Point","coordinates":[80.256944,13.087222]}},{"type":"Feature","properties":{},"geometry":{"type":"Point","coordinates":[80.251389,13.081667]}},{"type":"Feature","properties":{},"geometry":{"type":"Point","coordinates":[80.207778,13.109444]}},{"type":"Feature","properties":{},"geometry":{"type":"Point","coordinates":[80.212222,13.111944]}},{"type":"Feature","properties":{},"geometry":{"type":"Point","coordinates":[80.210556,13.107778]}},{"type":"Feature","properties":{},"geometry":{"type":"Point","coordinates":[80.221389,13.114444]}},{"type":"Feature","properties":{},"geometry":{"type":"Point","coordinates":[80.245278,13.106389]}},{"type":"Feature","properties":{},"geometry":{"type":"Point","coordinates":[80.232222,13.107222]}},{"type":"Feature","properties":{},"geometry":{"type":"Point","coordinates":[80.1975,13.073611]}},{"type":"Feature","properties":{},"geometry":{"type":"Point","coordinates":[80.198333,13.0525]}},{"type":"Feature","properties":{},"geometry":{"type":"Point","coordinates":[80.214444,13.052778]}},{"type":"Feature","properties":{},"geometry":{"type":"Point","coordinates":[80.225278,13.033889]}},{"type":"Feature","properties":{},"geometry":{"type":"Point","coordinates":[80.218611,13.03]}},{"type":"Feature","properties":{},"geometry":{"type":"Point","coordinates":[80.225556,13.034444]}},{"type":"Feature","properties":{},"geometry":{"type":"Point","coordinates":[80.221111,13.031667]}},{"type":"Feature","properties":{},"geometry":{"type":"Point","coordinates":[80.216944,13.022222]}},{"type":"Feature","properties":{},"geometry":{"type":"Point","coordinates":[80.222222,13.024722]}},{"type":"Feature","properties":{},"geometry":{"type":"Point","coordinates":[80.206389,13.173889]}},{"type":"Feature","properties":{},"geometry":{"type":"Point","coordinates":[80.215278,13.175278]}},{"type":"Feature","properties":{},"geometry":{"type":"Point","coordinates":[80.186111,13.153056]}},{"type":"Feature","properties":{},"geometry":{"type":"Point","coordinates":[80.206111,13.140833]}},{"type":"Feature","properties":{},"geometry":{"type":"Point","coordinates":[80.204444,13.138889]}},{"type":"Feature","properties":{},"geometry":{"type":"Point","coordinates":[80.194167,13.145556]}},{"type":"Feature","properties":{},"geometry":{"type":"Point","coordinates":[80.189167,13.141389]}},{"type":"Feature","properties":{},"geometry":{"type":"Point","coordinates":[80.203889,13.1575]}},{"type":"Feature","properties":{},"geometry":{"type":"Point","coordinates":[80.204722,13.142778]}},{"type":"Feature","properties":{},"geometry":{"type":"Point","coordinates":[80.195,13.150278]}},{"type":"Feature","properties":{},"geometry":{"type":"Point","coordinates":[80.206944,13.145833]}},{"type":"Feature","properties":{},"geometry":{"type":"Point","coordinates":[80.233611,13.145]}},{"type":"Feature","properties":{},"geometry":{"type":"Point","coordinates":[80.239167,13.157778]}},{"type":"Feature","properties":{},"geometry":{"type":"Point","coordinates":[80.236667,13.146944]}},{"type":"Feature","properties":{},"geometry":{"type":"Point","coordinates":[80.231389,13.151944]}},{"type":"Feature","properties":{},"geometry":{"type":"Point","coordinates":[80.232778,13.1575]}},{"type":"Feature","properties":{},"geometry":{"type":"Point","coordinates":[80.236944,13.154167]}},{"type":"Feature","properties":{},"geometry":{"type":"Point","coordinates":[80.208889,13.141944]}},{"type":"Feature","properties":{},"geometry":{"type":"Point","coordinates":[80.2575,13.153333]}},{"type":"Feature","properties":{},"geometry":{"type":"Point","coordinates":[80.243056,13.153611]}},{"type":"Feature","properties":{},"geometry":{"type":"Point","coordinates":[80.241389,13.1575]}},{"type":"Feature","properties":{},"geometry":{"type":"Point","coordinates":[80.240833,13.173611]}},{"type":"Feature","properties":{},"geometry":{"type":"Point","coordinates":[80.236389,13.154167]}},{"type":"Feature","properties":{},"geometry":{"type":"Point","coordinates":[80.235833,13.159444]}},{"type":"Feature","properties":{},"geometry":{"type":"Point","coordinates":[80.241944,13.150833]}},{"type":"Feature","properties":{},"geometry":{"type":"Point","coordinates":[80.243889,13.15]}},{"type":"Feature","properties":{},"geometry":{"type":"Point","coordinates":[80.234167,13.155833]}},{"type":"Feature","properties":{},"geometry":{"type":"Point","coordinates":[80.251667,13.173333]}},{"type":"Feature","properties":{},"geometry":{"type":"Point","coordinates":[80.269722,13.163611]}},{"type":"Feature","properties":{},"geometry":{"type":"Point","coordinates":[80.234167,13.166111]}},{"type":"Feature","properties":{},"geometry":{"type":"Point","coordinates":[80.235,13.155278]}},{"type":"Feature","properties":{},"geometry":{"type":"Point","coordinates":[80.235556,13.154444]}},{"type":"Feature","properties":{},"geometry":{"type":"Point","coordinates":[80.239722,13.158333]}},{"type":"Feature","properties":{},"geometry":{"type":"Point","coordinates":[80.241111,13.156389]}},{"type":"Feature","properties":{},"geometry":{"type":"Point","coordinates":[80.242778,13.158611]}},{"type":"Feature","properties":{},"geometry":{"type":"Point","coordinates":[80.234722,13.159167]}},{"type":"Feature","properties":{},"geometry":{"type":"Point","coordinates":[80.245833,13.139444]}},{"type":"Feature","properties":{},"geometry":{"type":"Point","coordinates":[80.241944,13.141667]}},{"type":"Feature","properties":{},"geometry":{"type":"Point","coordinates":[80.206389,13.138333]}},{"type":"Feature","properties":{},"geometry":{"type":"Point","coordinates":[80.217222,13.133333]}},{"type":"Feature","properties":{},"geometry":{"type":"Point","coordinates":[80.235,13.141389]}},{"type":"Feature","properties":{},"geometry":{"type":"Point","coordinates":[80.227222,13.136667]}},{"type":"Feature","properties":{},"geometry":{"type":"Point","coordinates":[80.235556,13.134167]}},{"type":"Feature","properties":{},"geometry":{"type":"Point","coordinates":[80.28,13.209444]}},{"type":"Feature","properties":{},"geometry":{"type":"Point","coordinates":[80.275,13.194444]}},{"type":"Feature","properties":{},"geometry":{"type":"Point","coordinates":[80.262222,13.197222]}},{"type":"Feature","properties":{},"geometry":{"type":"Point","coordinates":[80.271944,13.197222]}},{"type":"Feature","properties":{},"geometry":{"type":"Point","coordinates":[80.269722,13.200278]}},{"type":"Feature","properties":{},"geometry":{"type":"Point","coordinates":[80.293333,13.185]}},{"type":"Feature","properties":{},"geometry":{"type":"Point","coordinates":[80.259444,13.203333]}},{"type":"Feature","properties":{},"geometry":{"type":"Point","coordinates":[80.268056,13.204444]}},{"type":"Feature","properties":{},"geometry":{"type":"Point","coordinates":[80.238056,13.184444]}},{"type":"Feature","properties":{},"geometry":{"type":"Point","coordinates":[80.223611,13.186944]}},{"type":"Feature","properties":{},"geometry":{"type":"Point","coordinates":[80.224167,13.182222]}},{"type":"Feature","properties":{},"geometry":{"type":"Point","coordinates":[80.235,13.184722]}},{"type":"Feature","properties":{},"geometry":{"type":"Point","coordinates":[80.241389,13.198889]}},{"type":"Feature","properties":{},"geometry":{"type":"Point","coordinates":[80.221667,13.181389]}},{"type":"Feature","properties":{},"geometry":{"type":"Point","coordinates":[80.238056,13.203611]}},{"type":"Feature","properties":{},"geometry":{"type":"Point","coordinates":[80.271667,13.171389]}},{"type":"Feature","properties":{},"geometry":{"type":"Point","coordinates":[80.251111,13.177222]}},{"type":"Feature","properties":{},"geometry":{"type":"Point","coordinates":[80.248333,13.172778]}},{"type":"Feature","properties":{},"geometry":{"type":"Point","coordinates":[80.233611,13.1675]}},{"type":"Feature","properties":{},"geometry":{"type":"Point","coordinates":[80.236111,13.172222]}},{"type":"Feature","properties":{},"geometry":{"type":"Point","coordinates":[80.241111,13.1775]}},{"type":"Feature","properties":{},"geometry":{"type":"Point","coordinates":[80.242222,13.170833]}},{"type":"Feature","properties":{},"geometry":{"type":"Point","coordinates":[80.245833,13.171111]}},{"type":"Feature","properties":{},"geometry":{"type":"Point","coordinates":[80.263333,13.166944]}},{"type":"Feature","properties":{},"geometry":{"type":"Point","coordinates":[80.263056,13.168889]}},{"type":"Feature","properties":{},"geometry":{"type":"Point","coordinates":[80.2725,13.172778]}},{"type":"Feature","properties":{},"geometry":{"type":"Point","coordinates":[80.202778,12.973611]}},{"type":"Feature","properties":{},"geometry":{"type":"Point","coordinates":[80.213611,12.978611]}},{"type":"Feature","properties":{},"geometry":{"type":"Point","coordinates":[80.207222,12.976111]}},{"type":"Feature","properties":{},"geometry":{"type":"Point","coordinates":[80.205556,12.974722]}},{"type":"Feature","properties":{},"geometry":{"type":"Point","coordinates":[80.207222,12.976944]}},{"type":"Feature","properties":{},"geometry":{"type":"Point","coordinates":[80.261944,12.969722]}},{"type":"Feature","properties":{},"geometry":{"type":"Point","coordinates":[80.246667,12.968611]}},{"type":"Feature","properties":{},"geometry":{"type":"Point","coordinates":[80.258333,12.963889]}},{"type":"Feature","properties":{},"geometry":{"type":"Point","coordinates":[80.244444,12.960556]}},{"type":"Feature","properties":{},"geometry":{"type":"Point","coordinates":[80.244167,12.965556]}},{"type":"Feature","properties":{},"geometry":{"type":"Point","coordinates":[80.243889,12.965556]}},{"type":"Feature","properties":{},"geometry":{"type":"Point","coordinates":[80.197222,12.975]}},{"type":"Feature","properties":{},"geometry":{"type":"Point","coordinates":[80.205278,12.973333]}},{"type":"Feature","properties":{},"geometry":{"type":"Point","coordinates":[80.209167,12.962222]}},{"type":"Feature","properties":{},"geometry":{"type":"Point","coordinates":[80.205,12.958333]}},{"type":"Feature","properties":{},"geometry":{"type":"Point","coordinates":[80.216389,12.939722]}},{"type":"Feature","properties":{},"geometry":{"type":"Point","coordinates":[80.216944,12.936111]}},{"type":"Feature","properties":{},"geometry":{"type":"Point","coordinates":[80.206944,12.936389]}},{"type":"Feature","properties":{},"geometry":{"type":"Point","coordinates":[80.2075,12.9425]}},{"type":"Feature","properties":{},"geometry":{"type":"Point","coordinates":[80.201667,12.9375]}},{"type":"Feature","properties":{},"geometry":{"type":"Point","coordinates":[80.211667,12.931389]}},{"type":"Feature","properties":{},"geometry":{"type":"Point","coordinates":[80.209167,12.935278]}},{"type":"Feature","properties":{},"geometry":{"type":"Point","coordinates":[80.201667,12.937222]}},{"type":"Feature","properties":{},"geometry":{"type":"Point","coordinates":[80.206944,12.938056]}},{"type":"Feature","properties":{},"geometry":{"type":"Point","coordinates":[80.208611,12.945556]}},{"type":"Feature","properties":{},"geometry":{"type":"Point","coordinates":[80.204444,12.928056]}},{"type":"Feature","properties":{},"geometry":{"type":"Point","coordinates":[80.2025,12.926944]}},{"type":"Feature","properties":{},"geometry":{"type":"Point","coordinates":[80.204722,12.919722]}},{"type":"Feature","properties":{},"geometry":{"type":"Point","coordinates":[80.201667,12.925556]}},{"type":"Feature","properties":{},"geometry":{"type":"Point","coordinates":[80.210833,12.923333]}},{"type":"Feature","properties":{},"geometry":{"type":"Point","coordinates":[80.205278,12.925833]}},{"type":"Feature","properties":{},"geometry":{"type":"Point","coordinates":[80.205833,12.921944]}},{"type":"Feature","properties":{},"geometry":{"type":"Point","coordinates":[80.291667,13.114444]}},{"type":"Feature","properties":{},"geometry":{"type":"Point","coordinates":[80.277778,13.099722]}},{"type":"Feature","properties":{},"geometry":{"type":"Point","coordinates":[80.29,13.097778]}},{"type":"Feature","properties":{},"geometry":{"type":"Point","coordinates":[80.288611,13.101111]}},{"type":"Feature","properties":{},"geometry":{"type":"Point","coordinates":[80.277222,13.091111]}},{"type":"Feature","properties":{},"geometry":{"type":"Point","coordinates":[80.280556,13.088611]}},{"type":"Feature","properties":{},"geometry":{"type":"Point","coordinates":[80.2775,13.088333]}},{"type":"Feature","properties":{},"geometry":{"type":"Point","coordinates":[80.2875,13.093056]}},{"type":"Feature","properties":{},"geometry":{"type":"Point","coordinates":[80.268889,13.083056]}},{"type":"Feature","properties":{},"geometry":{"type":"Point","coordinates":[80.253333,12.946111]}},{"type":"Feature","properties":{},"geometry":{"type":"Point","coordinates":[80.251944,12.954444]}},{"type":"Feature","properties":{},"geometry":{"type":"Point","coordinates":[80.2525,12.951111]}},{"type":"Feature","properties":{},"geometry":{"type":"Point","coordinates":[80.239444,12.954167]}},{"type":"Feature","properties":{},"geometry":{"type":"Point","coordinates":[80.241944,12.952778]}},{"type":"Feature","properties":{},"geometry":{"type":"Point","coordinates":[80.233611,12.942222]}},{"type":"Feature","properties":{},"geometry":{"type":"Point","coordinates":[80.236389,12.941111]}},{"type":"Feature","properties":{},"geometry":{"type":"Point","coordinates":[80.236667,12.933611]}},{"type":"Feature","properties":{},"geometry":{"type":"Point","coordinates":[80.243333,12.944722]}},{"type":"Feature","properties":{},"geometry":{"type":"Point","coordinates":[80.242222,12.942778]}},{"type":"Feature","properties":{},"geometry":{"type":"Point","coordinates":[80.247778,12.931944]}},{"type":"Feature","properties":{},"geometry":{"type":"Point","coordinates":[80.247222,12.916944]}},{"type":"Feature","properties":{},"geometry":{"type":"Point","coordinates":[80.248056,12.915]}},{"type":"Feature","properties":{},"geometry":{"type":"Point","coordinates":[80.249167,12.92]}},{"type":"Feature","properties":{},"geometry":{"type":"Point","coordinates":[80.250833,12.928889]}},{"type":"Feature","properties":{},"geometry":{"type":"Point","coordinates":[80.235556,12.911667]}},{"type":"Feature","properties":{},"geometry":{"type":"Point","coordinates":[80.235,12.91]}},{"type":"Feature","properties":{},"geometry":{"type":"Point","coordinates":[80.233889,12.905]}},{"type":"Feature","properties":{},"geometry":{"type":"Point","coordinates":[80.2425,12.893889]}},{"type":"Feature","properties":{},"geometry":{"type":"Point","coordinates":[80.223611,12.9025]}},{"type":"Feature","properties":{},"geometry":{"type":"Point","coordinates":[80.239167,12.923056]}},{"type":"Feature","properties":{},"geometry":{"type":"Point","coordinates":[80.233333,12.921111]}},{"type":"Feature","properties":{},"geometry":{"type":"Point","coordinates":[80.236111,12.916667]}},{"type":"Feature","properties":{},"geometry":{"type":"Point","coordinates":[80.236111,12.902222]}},{"type":"Feature","properties":{},"geometry":{"type":"Point","coordinates":[80.236111,12.924167]}},{"type":"Feature","properties":{},"geometry":{"type":"Point","coordinates":[80.232222,12.9125]}},{"type":"Feature","properties":{},"geometry":{"type":"Point","coordinates":[80.243611,12.893611]}},{"type":"Feature","properties":{},"geometry":{"type":"Point","coordinates":[80.235278,12.898333]}},{"type":"Feature","properties":{},"geometry":{"type":"Point","coordinates":[80.238056,12.919444]}},{"type":"Feature","properties":{},"geometry":{"type":"Point","coordinates":[80.233611,12.904167]}},{"type":"Feature","properties":{},"geometry":{"type":"Point","coordinates":[80.233333,12.906111]}},{"type":"Feature","properties":{},"geometry":{"type":"Point","coordinates":[80.235556,12.909444]}},{"type":"Feature","properties":{},"geometry":{"type":"Point","coordinates":[80.250833,12.891111]}},{"type":"Feature","properties":{},"geometry":{"type":"Point","coordinates":[80.235278,12.893333]}},{"type":"Feature","properties":{},"geometry":{"type":"Point","coordinates":[80.22,12.89]}},{"type":"Feature","properties":{},"geometry":{"type":"Point","coordinates":[80.223804,13.096744]}},{"type":"Feature","properties":{},"geometry":{"type":"Point","coordinates":[80.254722,12.908889]}},{"type":"Feature","properties":{},"geometry":{"type":"Point","coordinates":[80.234039,13.004775]}},{"type":"Feature","properties":{},"geometry":{"type":"Point","coordinates":[80.250556,12.8875]}},{"type":"Feature","properties":{},"geometry":{"type":"Point","coordinates":[80.233889,12.891667]}},{"type":"Feature","properties":{},"geometry":{"type":"Point","coordinates":[80.235278,12.885833]}},{"type":"Feature","properties":{},"geometry":{"type":"Point","coordinates":[80.253611,12.904444]}},{"type":"Feature","properties":{},"geometry":{"type":"Point","coordinates":[80.244167,12.889444]}},{"type":"Feature","properties":{},"geometry":{"type":"Point","coordinates":[80.246111,12.866667]}},{"type":"Feature","properties":{},"geometry":{"type":"Point","coordinates":[80.245278,12.871111]}},{"type":"Feature","properties":{},"geometry":{"type":"Point","coordinates":[80.249722,12.885]}},{"type":"Feature","properties":{},"geometry":{"type":"Point","coordinates":[80.236944,12.87]}},{"type":"Feature","properties":{},"geometry":{"type":"Point","coordinates":[80.2375,12.879722]}},{"type":"Feature","properties":{},"geometry":{"type":"Point","coordinates":[80.233333,12.867222]}},{"type":"Feature","properties":{},"geometry":{"type":"Point","coordinates":[80.237222,12.867222]}},{"type":"Feature","properties":{},"geometry":{"type":"Point","coordinates":[80.238611,12.864444]}},{"type":"Feature","properties":{},"geometry":{"type":"Point","coordinates":[80.238056,12.882222]}},{"type":"Feature","properties":{},"geometry":{"type":"Point","coordinates":[80.229167,12.87]}},{"type":"Feature","properties":{},"geometry":{"type":"Point","coordinates":[80.236944,12.861667]}},{"type":"Feature","properties":{},"geometry":{"type":"Point","coordinates":[80.223611,12.861944]}},{"type":"Feature","properties":{},"geometry":{"type":"Point","coordinates":[80.236944,12.861667]}},{"type":"Feature","properties":{},"geometry":{"type":"Point","coordinates":[80.250278,12.874444]}},{"type":"Feature","properties":{},"geometry":{"type":"Point","coordinates":[80.241389,13.060278]}},{"type":"Feature","properties":{},"geometry":{"type":"Point","coordinates":[80.2725,13.061389]}},{"type":"Feature","properties":{},"geometry":{"type":"Point","coordinates":[80.277778,13.053611]}},{"type":"Feature","properties":{},"geometry":{"type":"Point","coordinates":[80.249167,13.038333]}},{"type":"Feature","properties":{},"geometry":{"type":"Point","coordinates":[80.271111,13.031111]}},{"type":"Feature","properties":{},"geometry":{"type":"Point","coordinates":[80.269444,13.033611]}},{"type":"Feature","properties":{},"geometry":{"type":"Point","coordinates":[80.271389,13.037778]}},{"type":"Feature","properties":{},"geometry":{"type":"Point","coordinates":[80.274167,13.038611]}},{"type":"Feature","properties":{},"geometry":{"type":"Point","coordinates":[80.215556,13.124444]}},{"type":"Feature","properties":{},"geometry":{"type":"Point","coordinates":[80.218056,13.120833]}},{"type":"Feature","properties":{},"geometry":{"type":"Point","coordinates":[80.213611,13.127778]}},{"type":"Feature","properties":{},"geometry":{"type":"Point","coordinates":[80.222222,13.118889]}},{"type":"Feature","properties":{},"geometry":{"type":"Point","coordinates":[80.215556,13.124167]}},{"type":"Feature","properties":{},"geometry":{"type":"Point","coordinates":[80.211667,13.114444]}},{"type":"Feature","properties":{},"geometry":{"type":"Point","coordinates":[80.231667,13.115]}},{"type":"Feature","properties":{},"geometry":{"type":"Point","coordinates":[80.230833,13.111667]}},{"type":"Feature","properties":{},"geometry":{"type":"Point","coordinates":[80.244444,13.105556]}},{"type":"Feature","properties":{},"geometry":{"type":"Point","coordinates":[80.255556,13.094167]}},{"type":"Feature","properties":{},"geometry":{"type":"Point","coordinates":[80.263333,13.095833]}},{"type":"Feature","properties":{},"geometry":{"type":"Point","coordinates":[80.263889,13.093056]}},{"type":"Feature","properties":{},"geometry":{"type":"Point","coordinates":[80.321111,13.220833]}},{"type":"Feature","properties":{},"geometry":{"type":"Point","coordinates":[80.299722,13.161389]}},{"type":"Feature","properties":{},"geometry":{"type":"Point","coordinates":[80.2975,13.161111]}},{"type":"Feature","properties":{},"geometry":{"type":"Point","coordinates":[80.296389,13.153333]}},{"type":"Feature","properties":{},"geometry":{"type":"Point","coordinates":[80.313333,13.195556]}},{"type":"Feature","properties":{},"geometry":{"type":"Point","coordinates":[80.306944,13.184167]}},{"type":"Feature","properties":{},"geometry":{"type":"Point","coordinates":[80.305,13.176944]}},{"type":"Feature","properties":{},"geometry":{"type":"Point","coordinates":[80.301944,13.171111]}},{"type":"Feature","properties":{},"geometry":{"type":"Point","coordinates":[80.268611,13.161111]}},{"type":"Feature","properties":{},"geometry":{"type":"Point","coordinates":[80.251111,13.137778]}},{"type":"Feature","properties":{},"geometry":{"type":"Point","coordinates":[80.248333,13.126389]}},{"type":"Feature","properties":{},"geometry":{"type":"Point","coordinates":[80.243611,13.134167]}},{"type":"Feature","properties":{},"geometry":{"type":"Point","coordinates":[80.291667,13.132778]}},{"type":"Feature","properties":{},"geometry":{"type":"Point","coordinates":[80.261944,13.116389]}},{"type":"Feature","properties":{},"geometry":{"type":"Point","coordinates":[80.188889,13.063333]}},{"type":"Feature","properties":{},"geometry":{"type":"Point","coordinates":[80.181944,13.069444]}},{"type":"Feature","properties":{},"geometry":{"type":"Point","coordinates":[80.192222,13.070556]}},{"type":"Feature","properties":{},"geometry":{"type":"Point","coordinates":[80.184167,13.063056]}},{"type":"Feature","properties":{},"geometry":{"type":"Point","coordinates":[80.1825,13.061944]}},{"type":"Feature","properties":{},"geometry":{"type":"Point","coordinates":[80.165556,13.0525]}},{"type":"Feature","properties":{},"geometry":{"type":"Point","coordinates":[80.175,13.054167]}},{"type":"Feature","properties":{},"geometry":{"type":"Point","coordinates":[80.165556,13.041667]}},{"type":"Feature","properties":{},"geometry":{"type":"Point","coordinates":[80.181111,13.060278]}},{"type":"Feature","properties":{},"geometry":{"type":"Point","coordinates":[80.183056,13.055278]}},{"type":"Feature","properties":{},"geometry":{"type":"Point","coordinates":[80.181944,13.043333]}},{"type":"Feature","properties":{},"geometry":{"type":"Point","coordinates":[80.1775,13.048333]}},{"type":"Feature","properties":{},"geometry":{"type":"Point","coordinates":[80.178611,13.046944]}},{"type":"Feature","properties":{},"geometry":{"type":"Point","coordinates":[80.176944,13.049444]}},{"type":"Feature","properties":{},"geometry":{"type":"Point","coordinates":[80.154444,13.059167]}},{"type":"Feature","properties":{},"geometry":{"type":"Point","coordinates":[80.158056,13.056389]}},{"type":"Feature","properties":{},"geometry":{"type":"Point","coordinates":[80.159722,13.056944]}},{"type":"Feature","properties":{},"geometry":{"type":"Point","coordinates":[80.156389,13.057222]}},{"type":"Feature","properties":{},"geometry":{"type":"Point","coordinates":[80.156944,13.061944]}},{"type":"Feature","properties":{},"geometry":{"type":"Point","coordinates":[80.164722,13.038889]}},{"type":"Feature","properties":{},"geometry":{"type":"Point","coordinates":[80.171944,13.039444]}},{"type":"Feature","properties":{},"geometry":{"type":"Point","coordinates":[80.173889,13.039722]}},{"type":"Feature","properties":{},"geometry":{"type":"Point","coordinates":[80.172778,13.037778]}},{"type":"Feature","properties":{},"geometry":{"type":"Point","coordinates":[80.188889,13.045556]}},{"type":"Feature","properties":{},"geometry":{"type":"Point","coordinates":[80.1775,13.041389]}},{"type":"Feature","properties":{},"geometry":{"type":"Point","coordinates":[80.173611,13.035]}},{"type":"Feature","properties":{},"geometry":{"type":"Point","coordinates":[80.1825,13.031667]}}]}