{"type":"FeatureCollection","crs":{"type":"name","properties":{"name":"urn:ogc:def:crs:OGC:1.3:CRS84"}},"features":[{"type":"Feature","properties":{"name":"North Buckibgham Canal (North of R.Kosasthalayar)"},"geometry":{"type":"LineString","coordinates":[[80.317318,13.232564],[80.317609,13.233007],[80.317597,13.235205],[80.317474,13.242254],[80.317596,13.245524],[80.31806,13.246954],[80.31886,13.248777],[80.320661,13.251487],[80.32166,13.253259],[80.322805,13.255829],[80.323735,13.25718],[80.323995,13.258176],[80.324762,13.259269],[80.326115,13.262177],[80.326667,13.264031],[80.326792,13.266058],[80.326793,13.26691],[80.32692,13.267782],[80.3272,13.268898],[80.327488,13.270182],[80.327241,13.271328],[80.326327,13.273919],[80.325898,13.275277],[80.325739,13.276136],[80.325838,13.276762],[80.32597,13.277202],[80.326411,13.2782],[80.327067,13.280018],[80.327765,13.281208],[80.328163,13.281657],[80.328852,13.282448],[80.329173,13.282884],[80.329473,13.283625],[80.329966,13.286557],[80.330123,13.288338],[80.330266,13.290864],[80.330158,13.293923],[80.330054,13.296889],[80.329952,13.299235],[80.329942,13.300798],[80.329807,13.3014],[80.329265,13.30277],[80.32825,13.305417],[80.327064,13.308391]]}},{"type":"Feature","properties":{"name":"Central Buckingham Canal"},"geometry":{"type":"MultiLineString","coordinates":[[[80.249199,13.018468],[80.249695,13.018909],[80.250934,13.01958],[80.251607,13.020359],[80.252322,13.02146],[80.252644,13.0219],[80.25343,13.022653],[80.254765,13.023053],[80.256069,13.023669],[80.257444,13.024387],[80.258554,13.024724],[80.25908,13.025322],[80.259653,13.02588],[80.260102,13.026791],[80.260959,13.028753],[80.261349,13.030164],[80.261865,13.031073],[80.262714,13.03191],[80.263694,13.032745],[80.264815,13.033695],[80.265608,13.033882],[80.266272,13.034235],[80.266987,13.034889],[80.267343,13.035442],[80.267973,13.035861],[80.268711,13.036281],[80.269116,13.03723],[80.269485,13.038208],[80.269325,13.039096],[80.269625,13.039824],[80.270098,13.040515],[80.270565,13.04119],[80.271144,13.04143],[80.27169,13.041898],[80.272441,13.042069],[80.273643,13.041836],[80.274321,13.041794],[80.275348,13.041526],[80.275973,13.042039],[80.276138,13.043192],[80.27673,13.044752],[80.277365,13.046872],[80.278138,13.049541],[80.279729,13.051986],[80.280279,13.053024],[80.280364,13.053383],[80.280082,13.052734],[80.279252,13.051382]],[[80.280507,13.053989],[80.280487,13.053666],[80.280364,13.053383],[80.280507,13.053989],[80.280544,13.054144],[80.280548,13.054642],[80.280507,13.053989]],[[80.282516,13.068964],[80.2825,13.068164],[80.282449,13.067622],[80.282388,13.067121],[80.282327,13.066752],[80.282046,13.066342],[80.281256,13.065399],[80.280738,13.064109],[80.280595,13.062994],[80.280197,13.060149],[80.280493,13.057636],[80.280483,13.057759]],[[80.280496,13.057607],[80.280493,13.057636],[80.280496,13.057614],[80.280496,13.057607],[80.280448,13.056192],[80.280553,13.055072],[80.280568,13.056708],[80.280496,13.057607]],[[80.280553,13.055072],[80.280566,13.054924],[80.280548,13.054642],[80.280553,13.055072]]]}},{"type":"Feature","properties":{"name":"North Buckingham Canal (South of R.Kosasthalayar)"},"geometry":{"type":"MultiLineString","coordinates":[[[80.281173,13.147246],[80.278426,13.141507],[80.277846,13.140114],[80.272227,13.120379],[80.270001,13.1108],[80.272267,13.106551],[80.273112,13.103281],[80.273788,13.100419],[80.274044,13.098538],[80.274056,13.094283],[80.273814,13.0915],[80.273993,13.087492],[80.274927,13.082053],[80.275015,13.080335],[80.274976,13.079295]],[[80.281354,13.147097],[80.283402,13.151771],[80.284567,13.154046],[80.286782,13.158898],[80.288465,13.162753],[80.288882,13.163396],[80.289825,13.171333],[80.290064,13.173879],[80.290799,13.175076],[80.294623,13.181227],[80.29646,13.184021],[80.298648,13.185382],[80.299579,13.186414],[80.301698,13.189503],[80.302732,13.19122],[80.304557,13.195186],[80.306741,13.200376],[80.308479,13.202471],[80.309737,13.204158],[80.311955,13.208591],[80.313625,13.212212],[80.314973,13.214715],[80.31696,13.217606],[80.317705,13.218934],[80.318314,13.220204],[80.318332,13.221962]]]}},{"type":"Feature","properties":{"name":"South Buckingham Canal upto Kovalam Creek"},"geometry":{"type":"MultiLineString","coordinates":[[[80.242883,12.922004],[80.243001,12.922639],[80.242982,12.922592],[80.241963,12.917509],[80.241945,12.916701],[80.241478,12.915282],[80.239684,12.905906],[80.238483,12.899956],[80.238238,12.898412],[80.238236,12.89723],[80.238723,12.895141],[80.239789,12.887496],[80.240507,12.882816],[80.24053,12.881226],[80.240557,12.879335],[80.24106,12.875724],[80.241359,12.87424],[80.241428,12.873192],[80.241383,12.872389],[80.239738,12.869845],[80.238441,12.867458],[80.238225,12.866712],[80.237514,12.863648],[80.237049,12.861177],[80.23671,12.85937],[80.235986,12.857047],[80.23561,12.855926],[80.235169,12.854777],[80.234953,12.853975],[80.234863,12.853419],[80.234955,12.849166],[80.235,12.847529],[80.23515,12.845881],[80.235238,12.842194],[80.236134,12.839726],[80.237183,12.836846],[80.237584,12.835742],[80.237622,12.834937],[80.237793,12.833921],[80.238039,12.831422],[80.238069,12.83021],[80.238014,12.829769],[80.237941,12.829179],[80.237689,12.827985],[80.237446,12.826471],[80.238039,12.822874],[80.238106,12.820816],[80.238122,12.820158],[80.23838,12.818811],[80.238889,12.817417],[80.239204,12.816339],[80.239636,12.815285],[80.240124,12.813742],[80.240733,12.810831],[80.241183,12.807878],[80.24102,12.804753]],[[80.243283,12.923332],[80.243001,12.922639],[80.243188,12.923649],[80.244961,12.931477],[80.247085,12.942125],[80.248636,12.951925],[80.252741,12.972939],[80.25387,12.979778],[80.253502,12.981623],[80.251918,12.988322],[80.251858,12.988554],[80.250159,12.995079],[80.250159,12.995079]],[[80.24892,13.018996],[80.248525,13.018121],[80.248355,13.014559],[80.248115,13.012794],[80.248088,13.012222],[80.248151,13.011791],[80.248078,13.008064],[80.247859,13.004856],[80.247836,13.004127],[80.24832,13.002155],[80.249444,12.997659],[80.250159,12.995079],[80.250784,12.992825],[80.251807,12.988863],[80.251858,12.988554],[80.252148,12.986777],[80.253127,12.982877]]]}}]}