{
  "type": "FeatureCollection",
  "features": [
    {
      "type": "Feature",
      "properties": {
        "name": "chennai_tide_table_2024_25 1"
      },
      "geometry": {
        "type": "Polygon",
        "coordinates": [
          [
            [
              80.2,
              13.02
            ],
            [
              80.205,
              13.02
            ],
            [
              80.205,
              13.025
            ],
            [
              80.2,
              13.025
            ],
            [
              80.2,
              13.02
            ]
          ]
        ]
      }
    },
    {
      "type": "Feature",
      "properties": {
        "name": "chennai_tide_table_2024_25 2"
      },
      "geometry": {
        "type": "Polygon",
        "coordinates": [
          [
            [
              80.2,
              13.02
            ],
            [
              80.205,
              13.02
            ],
            [
              80.205,
              13.025
            ],
            [
              80.2,
              13.025
            ],
            [
              80.2,
              13.02
            ]
          ]
        ]
      }
    },
    {
      "type": "Feature",
      "properties": {
        "name": "chennai_tide_table_2024_25 3"
      },
      "geometry": {
        "type": "Polygon",
        "coordinates": [
          [
            [
              80.2,
              13.02
            ],
            [
              80.205,
              13.02
            ],
            [
              80.205,
              13.025
            ],
            [
              80.2,
              13.025
            ],
            [
              80.2,
              13.02
            ]
          ]
        ]
      }
    }
  ]
}