{
  "type": "FeatureCollection",
  "features": [
    {
      "type": "Feature",
      "properties": {
        "rate_mm_per_year": "-2.1",
        "period": "2019-2024",
        "sensor": "Sentinel-1 InSAR"
      },
      "geometry": {
        "type": "Point",
        "coordinates": [
          80.26509644474986,
          13.118777446177965
        ]
      }
    },
    {
      "type": "Feature",
      "properties": {
        "rate_mm_per_year": "-2.9",
        "period": "2019-2024",
        "sensor": "Sentinel-1 InSAR"
      },
      "geometry": {
        "type": "Point",
        "coordinates": [
          80.24853564288999,
          13.057897452844365
        ]
      }
    },
    {
      "type": "Feature",
      "properties": {
        "rate_mm_per_year": "-3.7",
        "period": "2019-2024",
        "sensor": "Sentinel-1 InSAR"
      },
      "geometry": {
        "type": "Point",
        "coordinates": [
          80.26678262235242,
          13.05560669848161
        ]
      }
    },
    {
      "type": "Feature",
      "properties": {
        "rate_mm_per_year": "-4.5",
        "period": "2019-2024",
        "sensor": "Sentinel-1 InSAR"
      },
      "geometry": {
        "type": "Point",
        "coordinates": [
          80.22107795519642,
          13.125107755111191
        ]
      }
    },
    {
      "type": "Feature",
      "properties": {
        "rate_mm_per_year": "-5.3",
        "period": "2019-2024",
        "sensor": "Sentinel-1 InSAR"
      },
      "geometry": {
        "type": "Point",
        "coordinates": [
          80.27826597314308,
          13.130947248663746
        ]
      }
    },
    {
      "type": "Feature",
      "properties": {
        "rate_mm_per_year": "-6.1",
        "period": "2019-2024",
        "sensor": "Sentinel-1 InSAR"
      },
      "geometry": {
        "type": "Point",
        "coordinates": [
          80.19584473835629,
          13.123240101606417
        ]
      }
    }
  ]
}