{
  "type": "FeatureCollection",
  "features": [
    {
      "type": "Feature",
      "properties": {
        "name": "chennai_economic_assets 1"
      },
      "geometry": {
        "type": "Point",
        "coordinates": [
          80.25113028978387,
          13.026266495681705
        ]
      }
    },
    {
      "type": "Feature",
      "properties": {
        "name": "chennai_economic_assets 2"
      },
      "geometry": {
        "type": "Point",
        "coordinates": [
          80.27898700995966,
          13.024955494376838
        ]
      }
    },
    {
      "type": "Feature",
      "properties": {
        "name": "chennai_economic_assets 3"
      },
      "geometry": {
        "type": "Point",
        "coordinates": [
          80.24689625138308,
          13.099601232279515
        ]
      }
    },
    {
      "type": "Feature",
      "properties": {
        "name": "chennai_economic_assets 4"
      },
      "geometry": {
        "type": "Point",
        "coordinates": [
          80.23725598257964,
          13.103336656094072
        ]
      }
    }
  ]
}