{
  "type": "FeatureCollection",
  "features": [
    {
      "type": "Feature",
      "properties": {
        "name": "Chennai Custom Ward + Rainfall + Cyclone Proximity — shivanijwork ML",
        "source": "https://github.com/shivanijwork/ChennaiFloodMappingML",
        "note": "Final gap audit — now added"
      },
      "geometry": {
        "type": "Polygon",
        "coordinates": [
          [
            [
              80.18,
              12.98
            ],
            [
              80.28,
              12.98
            ],
            [
              80.28,
              13.08
            ],
            [
              80.18,
              13.08
            ],
            [
              80.18,
              12.98
            ]
          ]
        ]
      }
    },
    {
      "type": "Feature",
      "properties": {
        "name": "Chennai Custom Ward + Rainfall + Cyclone Proximity — shivanijwork ML (2)",
        "source": "https://github.com/shivanijwork/ChennaiFloodMappingML",
        "note": "Final gap audit — now added"
      },
      "geometry": {
        "type": "Point",
        "coordinates": [
          80.22,
          13.03
        ]
      }
    }
  ]
}