{
  "type": "FeatureCollection",
  "features": [
    {
      "type": "Feature",
      "properties": {
        "name": "Inundation Points Depth Inches — GCC (OpenCity)",
        "source": "https://data.opencity.in/dataset/022dd080-e927-40d7-897d-adf3ee98ad69/resource/ceddf53f-03c0-4866-8ba8-5e84c8007a85",
        "note": "Missing gap — now added (KML->GeoJSON stub, replace with real download)"
      },
      "geometry": {
        "type": "Polygon",
        "coordinates": [
          [
            [
              80.18,
              12.98
            ],
            [
              80.28,
              12.98
            ],
            [
              80.28,
              13.08
            ],
            [
              80.18,
              13.08
            ],
            [
              80.18,
              12.98
            ]
          ]
        ]
      }
    },
    {
      "type": "Feature",
      "properties": {
        "name": "Inundation Points Depth Inches — GCC (OpenCity) (2)",
        "source": "https://data.opencity.in/dataset/022dd080-e927-40d7-897d-adf3ee98ad69/resource/ceddf53f-03c0-4866-8ba8-5e84c8007a85",
        "note": "Missing gap — now added (KML->GeoJSON stub, replace with real download)"
      },
      "geometry": {
        "type": "Point",
        "coordinates": [
          80.22,
          13.03
        ]
      }
    }
  ]
}