{"type":"FeatureCollection","crs":{"type":"name","properties":{"name":"urn:ogc:def:crs:OGC:1.3:CRS84"}},"features":[{"type":"Feature","properties":{"styleurl":"#chennai_neighbourhood_parks_style"},"geometry":{"type":"Point","coordinates":[80.221412,13.141421]}},{"type":"Feature","properties":{"styleurl":"#chennai_neighbourhood_parks_style"},"geometry":{"type":"Point","coordinates":[80.230329,13.12711]}},{"type":"Feature","properties":{"styleurl":"#chennai_neighbourhood_parks_style"},"geometry":{"type":"Point","coordinates":[80.251375,13.137733]}},{"type":"Feature","properties":{"styleurl":"#chennai_neighbourhood_parks_style"},"geometry":{"type":"Point","coordinates":[80.244624,13.144169]}},{"type":"Feature","properties":{"styleurl":"#chennai_neighbourhood_parks_style"},"geometry":{"type":"Point","coordinates":[80.248868,13.140287]}},{"type":"Feature","properties":{"styleurl":"#chennai_neighbourhood_parks_style"},"geometry":{"type":"Point","coordinates":[80.25299,13.137494]}},{"type":"Feature","properties":{"styleurl":"#chennai_neighbourhood_parks_style"},"geometry":{"type":"Point","coordinates":[80.253874,13.139311]}},{"type":"Feature","properties":{"styleurl":"#chennai_neighbourhood_parks_style"},"geometry":{"type":"Point","coordinates":[80.24306,13.130521]}},{"type":"Feature","properties":{"styleurl":"#chennai_neighbourhood_parks_style"},"geometry":{"type":"Point","coordinates":[80.248354,13.131488]}},{"type":"Feature","properties":{"styleurl":"#chennai_neighbourhood_parks_style"},"geometry":{"type":"Point","coordinates":[80.254695,13.120609]}},{"type":"Feature","properties":{"styleurl":"#chennai_neighbourhood_parks_style"},"geometry":{"type":"Point","coordinates":[80.253222,13.127093]}},{"type":"Feature","properties":{"styleurl":"#chennai_neighbourhood_parks_style"},"geometry":{"type":"Point","coordinates":[80.249071,13.122742]}},{"type":"Feature","properties":{"styleurl":"#chennai_neighbourhood_parks_style"},"geometry":{"type":"Point","coordinates":[80.313994,13.188095]}},{"type":"Feature","properties":{"styleurl":"#chennai_neighbourhood_parks_style"},"geometry":{"type":"Point","coordinates":[80.3124,13.1871]}},{"type":"Feature","properties":{"styleurl":"#chennai_neighbourhood_parks_style"},"geometry":{"type":"Point","coordinates":[80.305536,13.17242]}},{"type":"Feature","properties":{"styleurl":"#chennai_neighbourhood_parks_style"},"geometry":{"type":"Point","coordinates":[80.308009,13.181156]}},{"type":"Feature","properties":{"styleurl":"#chennai_neighbourhood_parks_style"},"geometry":{"type":"Point","coordinates":[80.312229,13.177973]}},{"type":"Feature","properties":{"styleurl":"#chennai_neighbourhood_parks_style"},"geometry":{"type":"Point","coordinates":[80.297026,13.166]}},{"type":"Feature","properties":{"styleurl":"#chennai_neighbourhood_parks_style"},"geometry":{"type":"Point","coordinates":[80.30128,13.155888]}},{"type":"Feature","properties":{"styleurl":"#chennai_neighbourhood_parks_style"},"geometry":{"type":"Point","coordinates":[80.27726,13.20676]}},{"type":"Feature","properties":{"styleurl":"#chennai_neighbourhood_parks_style"},"geometry":{"type":"Point","coordinates":[80.27741,13.20616]}},{"type":"Feature","properties":{"styleurl":"#chennai_neighbourhood_parks_style"},"geometry":{"type":"Point","coordinates":[80.278687,13.206011]}},{"type":"Feature","properties":{"styleurl":"#chennai_neighbourhood_parks_style"},"geometry":{"type":"Point","coordinates":[80.275752,13.205156]}},{"type":"Feature","properties":{"styleurl":"#chennai_neighbourhood_parks_style"},"geometry":{"type":"Point","coordinates":[80.276968,13.202042]}},{"type":"Feature","properties":{"styleurl":"#chennai_neighbourhood_parks_style"},"geometry":{"type":"Point","coordinates":[80.274884,13.199483]}},{"type":"Feature","properties":{"styleurl":"#chennai_neighbourhood_parks_style"},"geometry":{"type":"Point","coordinates":[80.275709,13.203569]}},{"type":"Feature","properties":{"styleurl":"#chennai_neighbourhood_parks_style"},"geometry":{"type":"Point","coordinates":[80.278024,13.202165]}},{"type":"Feature","properties":{"styleurl":"#chennai_neighbourhood_parks_style"},"geometry":{"type":"Point","coordinates":[80.278052,13.196249]}},{"type":"Feature","properties":{"styleurl":"#chennai_neighbourhood_parks_style"},"geometry":{"type":"Point","coordinates":[80.21788,13.17573]}},{"type":"Feature","properties":{"styleurl":"#chennai_neighbourhood_parks_style"},"geometry":{"type":"Point","coordinates":[80.221,13.17081]}},{"type":"Feature","properties":{"styleurl":"#chennai_neighbourhood_parks_style"},"geometry":{"type":"Point","coordinates":[80.258348,13.169409]}},{"type":"Feature","properties":{"styleurl":"#chennai_neighbourhood_parks_style"},"geometry":{"type":"Point","coordinates":[80.25549,13.17415]}},{"type":"Feature","properties":{"styleurl":"#chennai_neighbourhood_parks_style"},"geometry":{"type":"Point","coordinates":[80.255556,13.175343]}},{"type":"Feature","properties":{"styleurl":"#chennai_neighbourhood_parks_style"},"geometry":{"type":"Point","coordinates":[80.249178,13.167307]}},{"type":"Feature","properties":{"styleurl":"#chennai_neighbourhood_parks_style"},"geometry":{"type":"Point","coordinates":[80.242654,13.171229]}},{"type":"Feature","properties":{"styleurl":"#chennai_neighbourhood_parks_style"},"geometry":{"type":"Point","coordinates":[80.253017,13.172883]}},{"type":"Feature","properties":{"styleurl":"#chennai_neighbourhood_parks_style"},"geometry":{"type":"Point","coordinates":[80.26323,13.164272]}},{"type":"Feature","properties":{"styleurl":"#chennai_neighbourhood_parks_style"},"geometry":{"type":"Point","coordinates":[80.215234,13.170336]}},{"type":"Feature","properties":{"styleurl":"#chennai_neighbourhood_parks_style"},"geometry":{"type":"Point","coordinates":[80.215149,13.170731]}},{"type":"Feature","properties":{"styleurl":"#chennai_neighbourhood_parks_style"},"geometry":{"type":"Point","coordinates":[80.201016,13.171927]}},{"type":"Feature","properties":{"styleurl":"#chennai_neighbourhood_parks_style"},"geometry":{"type":"Point","coordinates":[80.215196,13.170719]}},{"type":"Feature","properties":{"styleurl":"#chennai_neighbourhood_parks_style"},"geometry":{"type":"Point","coordinates":[80.190792,13.147794]}},{"type":"Feature","properties":{"styleurl":"#chennai_neighbourhood_parks_style"},"geometry":{"type":"Point","coordinates":[80.209602,13.158274]}},{"type":"Feature","properties":{"styleurl":"#chennai_neighbourhood_parks_style"},"geometry":{"type":"Point","coordinates":[80.207515,13.159699]}},{"type":"Feature","properties":{"styleurl":"#chennai_neighbourhood_parks_style"},"geometry":{"type":"Point","coordinates":[80.187326,13.144264]}},{"type":"Feature","properties":{"styleurl":"#chennai_neighbourhood_parks_style"},"geometry":{"type":"Point","coordinates":[80.195332,13.139142]}},{"type":"Feature","properties":{"styleurl":"#chennai_neighbourhood_parks_style"},"geometry":{"type":"Point","coordinates":[80.191011,13.144682]}},{"type":"Feature","properties":{"styleurl":"#chennai_neighbourhood_parks_style"},"geometry":{"type":"Point","coordinates":[80.200528,13.149133]}},{"type":"Feature","properties":{"styleurl":"#chennai_neighbourhood_parks_style"},"geometry":{"type":"Point","coordinates":[80.199444,13.14327]}},{"type":"Feature","properties":{"styleurl":"#chennai_neighbourhood_parks_style"},"geometry":{"type":"Point","coordinates":[80.202207,13.145751]}},{"type":"Feature","properties":{"styleurl":"#chennai_neighbourhood_parks_style"},"geometry":{"type":"Point","coordinates":[80.199402,13.144275]}},{"type":"Feature","properties":{"styleurl":"#chennai_neighbourhood_parks_style"},"geometry":{"type":"Point","coordinates":[80.209833,13.136218]}},{"type":"Feature","properties":{"styleurl":"#chennai_neighbourhood_parks_style"},"geometry":{"type":"Point","coordinates":[80.248573,13.153742]}},{"type":"Feature","properties":{"styleurl":"#chennai_neighbourhood_parks_style"},"geometry":{"type":"Point","coordinates":[80.227304,13.157521]}},{"type":"Feature","properties":{"styleurl":"#chennai_neighbourhood_parks_style"},"geometry":{"type":"Point","coordinates":[80.232307,13.14443]}},{"type":"Feature","properties":{"styleurl":"#chennai_neighbourhood_parks_style"},"geometry":{"type":"Point","coordinates":[80.233138,13.144602]}},{"type":"Feature","properties":{"styleurl":"#chennai_neighbourhood_parks_style"},"geometry":{"type":"Point","coordinates":[80.239312,13.145496]}},{"type":"Feature","properties":{"styleurl":"#chennai_neighbourhood_parks_style"},"geometry":{"type":"Point","coordinates":[80.221382,13.157697]}},{"type":"Feature","properties":{"styleurl":"#chennai_neighbourhood_parks_style"},"geometry":{"type":"Point","coordinates":[80.21996,13.156556]}},{"type":"Feature","properties":{"styleurl":"#chennai_neighbourhood_parks_style"},"geometry":{"type":"Point","coordinates":[80.218587,13.15783]}},{"type":"Feature","properties":{"styleurl":"#chennai_neighbourhood_parks_style"},"geometry":{"type":"Point","coordinates":[80.238592,13.135631]}},{"type":"Feature","properties":{"styleurl":"#chennai_neighbourhood_parks_style"},"geometry":{"type":"Point","coordinates":[80.201451,13.12951]}},{"type":"Feature","properties":{"styleurl":"#chennai_neighbourhood_parks_style"},"geometry":{"type":"Point","coordinates":[80.202883,13.128815]}},{"type":"Feature","properties":{"styleurl":"#chennai_neighbourhood_parks_style"},"geometry":{"type":"Point","coordinates":[80.230244,13.127013]}},{"type":"Feature","properties":{"styleurl":"#chennai_neighbourhood_parks_style"},"geometry":{"type":"Point","coordinates":[80.22911,13.127298]}},{"type":"Feature","properties":{"styleurl":"#chennai_neighbourhood_parks_style"},"geometry":{"type":"Point","coordinates":[80.243921,13.109062]}},{"type":"Feature","properties":{"styleurl":"#chennai_neighbourhood_parks_style"},"geometry":{"type":"Point","coordinates":[80.253075,13.1053]}},{"type":"Feature","properties":{"styleurl":"#chennai_neighbourhood_parks_style"},"geometry":{"type":"Point","coordinates":[80.248545,13.110817]}},{"type":"Feature","properties":{"styleurl":"#chennai_neighbourhood_parks_style"},"geometry":{"type":"Point","coordinates":[80.243728,13.110426]}},{"type":"Feature","properties":{"styleurl":"#chennai_neighbourhood_parks_style"},"geometry":{"type":"Point","coordinates":[80.261948,13.100415]}},{"type":"Feature","properties":{"styleurl":"#chennai_neighbourhood_parks_style"},"geometry":{"type":"Point","coordinates":[80.258716,13.098437]}},{"type":"Feature","properties":{"styleurl":"#chennai_neighbourhood_parks_style"},"geometry":{"type":"Point","coordinates":[80.244838,13.087397]}},{"type":"Feature","properties":{"styleurl":"#chennai_neighbourhood_parks_style"},"geometry":{"type":"Point","coordinates":[80.252866,13.096227]}},{"type":"Feature","properties":{"styleurl":"#chennai_neighbourhood_parks_style"},"geometry":{"type":"Point","coordinates":[80.262575,13.096964]}},{"type":"Feature","properties":{"styleurl":"#chennai_neighbourhood_parks_style"},"geometry":{"type":"Point","coordinates":[80.260502,13.096982]}},{"type":"Feature","properties":{"styleurl":"#chennai_neighbourhood_parks_style"},"geometry":{"type":"Point","coordinates":[80.259781,13.098524]}},{"type":"Feature","properties":{"styleurl":"#chennai_neighbourhood_parks_style"},"geometry":{"type":"Point","coordinates":[80.273576,13.103163]}},{"type":"Feature","properties":{"styleurl":"#chennai_neighbourhood_parks_style"},"geometry":{"type":"Point","coordinates":[80.1525,13.1315]}},{"type":"Feature","properties":{"styleurl":"#chennai_neighbourhood_parks_style"},"geometry":{"type":"Point","coordinates":[80.147128,13.123291]}},{"type":"Feature","properties":{"styleurl":"#chennai_neighbourhood_parks_style"},"geometry":{"type":"Point","coordinates":[80.153793,13.133232]}},{"type":"Feature","properties":{"styleurl":"#chennai_neighbourhood_parks_style"},"geometry":{"type":"Point","coordinates":[80.145328,13.127269]}},{"type":"Feature","properties":{"styleurl":"#chennai_neighbourhood_parks_style"},"geometry":{"type":"Point","coordinates":[80.157508,13.1284]}},{"type":"Feature","properties":{"styleurl":"#chennai_neighbourhood_parks_style"},"geometry":{"type":"Point","coordinates":[80.150472,13.119665]}},{"type":"Feature","properties":{"styleurl":"#chennai_neighbourhood_parks_style"},"geometry":{"type":"Point","coordinates":[80.146168,13.116818]}},{"type":"Feature","properties":{"styleurl":"#chennai_neighbourhood_parks_style"},"geometry":{"type":"Point","coordinates":[80.146232,13.121755]}},{"type":"Feature","properties":{"styleurl":"#chennai_neighbourhood_parks_style"},"geometry":{"type":"Point","coordinates":[80.177275,13.134563]}},{"type":"Feature","properties":{"styleurl":"#chennai_neighbourhood_parks_style"},"geometry":{"type":"Point","coordinates":[80.190395,13.114168]}},{"type":"Feature","properties":{"styleurl":"#chennai_neighbourhood_parks_style"},"geometry":{"type":"Point","coordinates":[80.200523,13.123777]}},{"type":"Feature","properties":{"styleurl":"#chennai_neighbourhood_parks_style"},"geometry":{"type":"Point","coordinates":[80.190388,13.114379]}},{"type":"Feature","properties":{"styleurl":"#chennai_neighbourhood_parks_style"},"geometry":{"type":"Point","coordinates":[80.20086,13.104899]}},{"type":"Feature","properties":{"styleurl":"#chennai_neighbourhood_parks_style"},"geometry":{"type":"Point","coordinates":[80.180968,13.105344]}},{"type":"Feature","properties":{"styleurl":"#chennai_neighbourhood_parks_style"},"geometry":{"type":"Point","coordinates":[80.1662,13.1008]}},{"type":"Feature","properties":{"styleurl":"#chennai_neighbourhood_parks_style"},"geometry":{"type":"Point","coordinates":[80.157186,13.099785]}},{"type":"Feature","properties":{"styleurl":"#chennai_neighbourhood_parks_style"},"geometry":{"type":"Point","coordinates":[80.253394,13.131281]}},{"type":"Feature","properties":{"styleurl":"#chennai_neighbourhood_parks_style"},"geometry":{"type":"Point","coordinates":[80.251356,13.130148]}},{"type":"Feature","properties":{"styleurl":"#chennai_neighbourhood_parks_style"},"geometry":{"type":"Point","coordinates":[80.254832,13.120506]}},{"type":"Feature","properties":{"styleurl":"#chennai_neighbourhood_parks_style"},"geometry":{"type":"Point","coordinates":[80.254684,13.121446]}},{"type":"Feature","properties":{"styleurl":"#chennai_neighbourhood_parks_style"},"geometry":{"type":"Point","coordinates":[80.257471,13.124051]}},{"type":"Feature","properties":{"styleurl":"#chennai_neighbourhood_parks_style"},"geometry":{"type":"Point","coordinates":[80.263329,13.131057]}},{"type":"Feature","properties":{"styleurl":"#chennai_neighbourhood_parks_style"},"geometry":{"type":"Point","coordinates":[80.260735,13.129354]}},{"type":"Feature","properties":{"styleurl":"#chennai_neighbourhood_parks_style"},"geometry":{"type":"Point","coordinates":[80.263876,13.129751]}},{"type":"Feature","properties":{"styleurl":"#chennai_neighbourhood_parks_style"},"geometry":{"type":"Point","coordinates":[80.264635,13.129374]}},{"type":"Feature","properties":{"styleurl":"#chennai_neighbourhood_parks_style"},"geometry":{"type":"Point","coordinates":[80.262237,13.131702]}},{"type":"Feature","properties":{"styleurl":"#chennai_neighbourhood_parks_style"},"geometry":{"type":"Point","coordinates":[80.261034,13.127616]}},{"type":"Feature","properties":{"styleurl":"#chennai_neighbourhood_parks_style"},"geometry":{"type":"Point","coordinates":[80.262897,13.130142]}},{"type":"Feature","properties":{"styleurl":"#chennai_neighbourhood_parks_style"},"geometry":{"type":"Point","coordinates":[80.264804,13.12404]}},{"type":"Feature","properties":{"styleurl":"#chennai_neighbourhood_parks_style"},"geometry":{"type":"Point","coordinates":[80.262283,13.124923]}},{"type":"Feature","properties":{"styleurl":"#chennai_neighbourhood_parks_style"},"geometry":{"type":"Point","coordinates":[80.260153,13.119835]}},{"type":"Feature","properties":{"styleurl":"#chennai_neighbourhood_parks_style"},"geometry":{"type":"Point","coordinates":[80.260068,13.132551]}},{"type":"Feature","properties":{"styleurl":"#chennai_neighbourhood_parks_style"},"geometry":{"type":"Point","coordinates":[80.276874,13.135727]}},{"type":"Feature","properties":{"styleurl":"#chennai_neighbourhood_parks_style"},"geometry":{"type":"Point","coordinates":[80.287737,13.135489]}},{"type":"Feature","properties":{"styleurl":"#chennai_neighbourhood_parks_style"},"geometry":{"type":"Point","coordinates":[80.286026,13.130126]}},{"type":"Feature","properties":{"styleurl":"#chennai_neighbourhood_parks_style"},"geometry":{"type":"Point","coordinates":[80.277597,13.126446]}},{"type":"Feature","properties":{"styleurl":"#chennai_neighbourhood_parks_style"},"geometry":{"type":"Point","coordinates":[80.2932,13.1383]}},{"type":"Feature","properties":{"styleurl":"#chennai_neighbourhood_parks_style"},"geometry":{"type":"Point","coordinates":[80.29,13.139]}},{"type":"Feature","properties":{"styleurl":"#chennai_neighbourhood_parks_style"},"geometry":{"type":"Point","coordinates":[80.293316,13.138433]}},{"type":"Feature","properties":{"styleurl":"#chennai_neighbourhood_parks_style"},"geometry":{"type":"Point","coordinates":[80.286265,13.130072]}},{"type":"Feature","properties":{"styleurl":"#chennai_neighbourhood_parks_style"},"geometry":{"type":"Point","coordinates":[80.288971,13.133379]}},{"type":"Feature","properties":{"styleurl":"#chennai_neighbourhood_parks_style"},"geometry":{"type":"Point","coordinates":[80.273527,13.130001]}},{"type":"Feature","properties":{"styleurl":"#chennai_neighbourhood_parks_style"},"geometry":{"type":"Point","coordinates":[80.286088,13.123949]}},{"type":"Feature","properties":{"styleurl":"#chennai_neighbourhood_parks_style"},"geometry":{"type":"Point","coordinates":[80.286847,13.122254]}},{"type":"Feature","properties":{"styleurl":"#chennai_neighbourhood_parks_style"},"geometry":{"type":"Point","coordinates":[80.295666,13.130027]}},{"type":"Feature","properties":{"styleurl":"#chennai_neighbourhood_parks_style"},"geometry":{"type":"Point","coordinates":[80.293692,13.121708]}},{"type":"Feature","properties":{"styleurl":"#chennai_neighbourhood_parks_style"},"geometry":{"type":"Point","coordinates":[80.250382,13.120093]}},{"type":"Feature","properties":{"styleurl":"#chennai_neighbourhood_parks_style"},"geometry":{"type":"Point","coordinates":[80.253713,13.109399]}},{"type":"Feature","properties":{"styleurl":"#chennai_neighbourhood_parks_style"},"geometry":{"type":"Point","coordinates":[80.259928,13.109942]}},{"type":"Feature","properties":{"styleurl":"#chennai_neighbourhood_parks_style"},"geometry":{"type":"Point","coordinates":[80.256436,13.110992]}},{"type":"Feature","properties":{"styleurl":"#chennai_neighbourhood_parks_style"},"geometry":{"type":"Point","coordinates":[80.257351,13.114224]}},{"type":"Feature","properties":{"styleurl":"#chennai_neighbourhood_parks_style"},"geometry":{"type":"Point","coordinates":[80.266001,13.118631]}},{"type":"Feature","properties":{"styleurl":"#chennai_neighbourhood_parks_style"},"geometry":{"type":"Point","coordinates":[80.272739,13.1148]}},{"type":"Feature","properties":{"styleurl":"#chennai_neighbourhood_parks_style"},"geometry":{"type":"Point","coordinates":[80.285345,13.112839]}},{"type":"Feature","properties":{"styleurl":"#chennai_neighbourhood_parks_style"},"geometry":{"type":"Point","coordinates":[80.28815,13.111625]}},{"type":"Feature","properties":{"styleurl":"#chennai_neighbourhood_parks_style"},"geometry":{"type":"Point","coordinates":[80.293174,13.118045]}},{"type":"Feature","properties":{"styleurl":"#chennai_neighbourhood_parks_style"},"geometry":{"type":"Point","coordinates":[80.296318,13.113137]}},{"type":"Feature","properties":{"styleurl":"#chennai_neighbourhood_parks_style"},"geometry":{"type":"Point","coordinates":[80.287547,13.110305]}},{"type":"Feature","properties":{"styleurl":"#chennai_neighbourhood_parks_style"},"geometry":{"type":"Point","coordinates":[80.275751,13.112771]}},{"type":"Feature","properties":{"styleurl":"#chennai_neighbourhood_parks_style"},"geometry":{"type":"Point","coordinates":[80.273597,13.103148]}},{"type":"Feature","properties":{"styleurl":"#chennai_neighbourhood_parks_style"},"geometry":{"type":"Point","coordinates":[80.278763,13.102625]}},{"type":"Feature","properties":{"styleurl":"#chennai_neighbourhood_parks_style"},"geometry":{"type":"Point","coordinates":[80.261052,13.086637]}},{"type":"Feature","properties":{"styleurl":"#chennai_neighbourhood_parks_style"},"geometry":{"type":"Point","coordinates":[80.262895,13.087089]}},{"type":"Feature","properties":{"styleurl":"#chennai_neighbourhood_parks_style"},"geometry":{"type":"Point","coordinates":[80.259083,13.087084]}},{"type":"Feature","properties":{"styleurl":"#chennai_neighbourhood_parks_style"},"geometry":{"type":"Point","coordinates":[80.261138,13.079941]}},{"type":"Feature","properties":{"styleurl":"#chennai_neighbourhood_parks_style"},"geometry":{"type":"Point","coordinates":[80.27607,13.070256]}},{"type":"Feature","properties":{"styleurl":"#chennai_neighbourhood_parks_style"},"geometry":{"type":"Point","coordinates":[80.286305,13.074013]}},{"type":"Feature","properties":{"styleurl":"#chennai_neighbourhood_parks_style"},"geometry":{"type":"Point","coordinates":[80.265797,13.077623]}},{"type":"Feature","properties":{"styleurl":"#chennai_neighbourhood_parks_style"},"geometry":{"type":"Point","coordinates":[80.260615,13.065276]}},{"type":"Feature","properties":{"styleurl":"#chennai_neighbourhood_parks_style"},"geometry":{"type":"Point","coordinates":[80.257235,13.066297]}},{"type":"Feature","properties":{"styleurl":"#chennai_neighbourhood_parks_style"},"geometry":{"type":"Point","coordinates":[80.26536,13.075779]}},{"type":"Feature","properties":{"styleurl":"#chennai_neighbourhood_parks_style"},"geometry":{"type":"Point","coordinates":[80.265394,13.075233]}},{"type":"Feature","properties":{"styleurl":"#chennai_neighbourhood_parks_style"},"geometry":{"type":"Point","coordinates":[80.265845,13.062854]}},{"type":"Feature","properties":{"styleurl":"#chennai_neighbourhood_parks_style"},"geometry":{"type":"Point","coordinates":[80.2678,13.068931]}},{"type":"Feature","properties":{"styleurl":"#chennai_neighbourhood_parks_style"},"geometry":{"type":"Point","coordinates":[80.210863,13.120412]}},{"type":"Feature","properties":{"styleurl":"#chennai_neighbourhood_parks_style"},"geometry":{"type":"Point","coordinates":[80.221036,13.122306]}},{"type":"Feature","properties":{"styleurl":"#chennai_neighbourhood_parks_style"},"geometry":{"type":"Point","coordinates":[80.211833,13.116585]}},{"type":"Feature","properties":{"styleurl":"#chennai_neighbourhood_parks_style"},"geometry":{"type":"Point","coordinates":[80.207475,13.124179]}},{"type":"Feature","properties":{"styleurl":"#chennai_neighbourhood_parks_style"},"geometry":{"type":"Point","coordinates":[80.20843,13.122089]}},{"type":"Feature","properties":{"styleurl":"#chennai_neighbourhood_parks_style"},"geometry":{"type":"Point","coordinates":[80.202682,13.126099]}},{"type":"Feature","properties":{"styleurl":"#chennai_neighbourhood_parks_style"},"geometry":{"type":"Point","coordinates":[80.211241,13.113855]}},{"type":"Feature","properties":{"styleurl":"#chennai_neighbourhood_parks_style"},"geometry":{"type":"Point","coordinates":[80.203138,13.12013]}},{"type":"Feature","properties":{"styleurl":"#chennai_neighbourhood_parks_style"},"geometry":{"type":"Point","coordinates":[80.204506,13.12397]}},{"type":"Feature","properties":{"styleurl":"#chennai_neighbourhood_parks_style"},"geometry":{"type":"Point","coordinates":[80.202684,13.124989]}},{"type":"Feature","properties":{"styleurl":"#chennai_neighbourhood_parks_style"},"geometry":{"type":"Point","coordinates":[80.202553,13.121268]}},{"type":"Feature","properties":{"styleurl":"#chennai_neighbourhood_parks_style"},"geometry":{"type":"Point","coordinates":[80.202764,13.122135]}},{"type":"Feature","properties":{"styleurl":"#chennai_neighbourhood_parks_style"},"geometry":{"type":"Point","coordinates":[80.207263,13.115472]}},{"type":"Feature","properties":{"styleurl":"#chennai_neighbourhood_parks_style"},"geometry":{"type":"Point","coordinates":[80.205739,13.120888]}},{"type":"Feature","properties":{"styleurl":"#chennai_neighbourhood_parks_style"},"geometry":{"type":"Point","coordinates":[80.228756,13.110966]}},{"type":"Feature","properties":{"styleurl":"#chennai_neighbourhood_parks_style"},"geometry":{"type":"Point","coordinates":[80.224743,13.120804]}},{"type":"Feature","properties":{"styleurl":"#chennai_neighbourhood_parks_style"},"geometry":{"type":"Point","coordinates":[80.220121,13.114916]}},{"type":"Feature","properties":{"styleurl":"#chennai_neighbourhood_parks_style"},"geometry":{"type":"Point","coordinates":[80.230174,13.113767]}},{"type":"Feature","properties":{"styleurl":"#chennai_neighbourhood_parks_style"},"geometry":{"type":"Point","coordinates":[80.231684,13.112306]}},{"type":"Feature","properties":{"styleurl":"#chennai_neighbourhood_parks_style"},"geometry":{"type":"Point","coordinates":[80.234308,13.118113]}},{"type":"Feature","properties":{"styleurl":"#chennai_neighbourhood_parks_style"},"geometry":{"type":"Point","coordinates":[80.23898,13.122444]}},{"type":"Feature","properties":{"styleurl":"#chennai_neighbourhood_parks_style"},"geometry":{"type":"Point","coordinates":[80.235244,13.113555]}},{"type":"Feature","properties":{"styleurl":"#chennai_neighbourhood_parks_style"},"geometry":{"type":"Point","coordinates":[80.2373,13.1209]}},{"type":"Feature","properties":{"styleurl":"#chennai_neighbourhood_parks_style"},"geometry":{"type":"Point","coordinates":[80.243706,13.126653]}},{"type":"Feature","properties":{"styleurl":"#chennai_neighbourhood_parks_style"},"geometry":{"type":"Point","coordinates":[80.237888,13.112463]}},{"type":"Feature","properties":{"styleurl":"#chennai_neighbourhood_parks_style"},"geometry":{"type":"Point","coordinates":[80.1764,13.0872]}},{"type":"Feature","properties":{"styleurl":"#chennai_neighbourhood_parks_style"},"geometry":{"type":"Point","coordinates":[80.185724,13.084483]}},{"type":"Feature","properties":{"styleurl":"#chennai_neighbourhood_parks_style"},"geometry":{"type":"Point","coordinates":[80.177995,13.084498]}},{"type":"Feature","properties":{"styleurl":"#chennai_neighbourhood_parks_style"},"geometry":{"type":"Point","coordinates":[80.185776,13.082538]}},{"type":"Feature","properties":{"styleurl":"#chennai_neighbourhood_parks_style"},"geometry":{"type":"Point","coordinates":[80.199656,13.093816]}},{"type":"Feature","properties":{"styleurl":"#chennai_neighbourhood_parks_style"},"geometry":{"type":"Point","coordinates":[80.205385,13.09356]}},{"type":"Feature","properties":{"styleurl":"#chennai_neighbourhood_parks_style"},"geometry":{"type":"Point","coordinates":[80.196169,13.093892]}},{"type":"Feature","properties":{"styleurl":"#chennai_neighbourhood_parks_style"},"geometry":{"type":"Point","coordinates":[80.229324,13.098602]}},{"type":"Feature","properties":{"styleurl":"#chennai_neighbourhood_parks_style"},"geometry":{"type":"Point","coordinates":[80.238232,13.098207]}},{"type":"Feature","properties":{"styleurl":"#chennai_neighbourhood_parks_style"},"geometry":{"type":"Point","coordinates":[80.223791,13.096081]}},{"type":"Feature","properties":{"styleurl":"#chennai_neighbourhood_parks_style"},"geometry":{"type":"Point","coordinates":[80.229571,13.09513]}},{"type":"Feature","properties":{"styleurl":"#chennai_neighbourhood_parks_style"},"geometry":{"type":"Point","coordinates":[80.208455,13.088862]}},{"type":"Feature","properties":{"styleurl":"#chennai_neighbourhood_parks_style"},"geometry":{"type":"Point","coordinates":[80.208859,13.086394]}},{"type":"Feature","properties":{"styleurl":"#chennai_neighbourhood_parks_style"},"geometry":{"type":"Point","coordinates":[80.213066,13.081577]}},{"type":"Feature","properties":{"styleurl":"#chennai_neighbourhood_parks_style"},"geometry":{"type":"Point","coordinates":[80.204111,13.080098]}},{"type":"Feature","properties":{"styleurl":"#chennai_neighbourhood_parks_style"},"geometry":{"type":"Point","coordinates":[80.20917,13.08358]}},{"type":"Feature","properties":{"styleurl":"#chennai_neighbourhood_parks_style"},"geometry":{"type":"Point","coordinates":[80.207134,13.078918]}},{"type":"Feature","properties":{"styleurl":"#chennai_neighbourhood_parks_style"},"geometry":{"type":"Point","coordinates":[80.223842,13.083998]}},{"type":"Feature","properties":{"styleurl":"#chennai_neighbourhood_parks_style"},"geometry":{"type":"Point","coordinates":[80.222487,13.081333]}},{"type":"Feature","properties":{"styleurl":"#chennai_neighbourhood_parks_style"},"geometry":{"type":"Point","coordinates":[80.225467,13.08683]}},{"type":"Feature","properties":{"styleurl":"#chennai_neighbourhood_parks_style"},"geometry":{"type":"Point","coordinates":[80.246383,13.077352]}},{"type":"Feature","properties":{"styleurl":"#chennai_neighbourhood_parks_style"},"geometry":{"type":"Point","coordinates":[80.23717,13.080181]}},{"type":"Feature","properties":{"styleurl":"#chennai_neighbourhood_parks_style"},"geometry":{"type":"Point","coordinates":[80.244108,13.083392]}},{"type":"Feature","properties":{"styleurl":"#chennai_neighbourhood_parks_style"},"geometry":{"type":"Point","coordinates":[80.23971,13.078164]}},{"type":"Feature","properties":{"styleurl":"#chennai_neighbourhood_parks_style"},"geometry":{"type":"Point","coordinates":[80.25054,13.086859]}},{"type":"Feature","properties":{"styleurl":"#chennai_neighbourhood_parks_style"},"geometry":{"type":"Point","coordinates":[80.249599,13.087888]}},{"type":"Feature","properties":{"styleurl":"#chennai_neighbourhood_parks_style"},"geometry":{"type":"Point","coordinates":[80.232028,13.048705]}},{"type":"Feature","properties":{"styleurl":"#chennai_neighbourhood_parks_style"},"geometry":{"type":"Point","coordinates":[80.258933,13.05212]}},{"type":"Feature","properties":{"styleurl":"#chennai_neighbourhood_parks_style"},"geometry":{"type":"Point","coordinates":[80.250709,13.047824]}},{"type":"Feature","properties":{"styleurl":"#chennai_neighbourhood_parks_style"},"geometry":{"type":"Point","coordinates":[80.260341,13.040369]}},{"type":"Feature","properties":{"styleurl":"#chennai_neighbourhood_parks_style"},"geometry":{"type":"Point","coordinates":[80.269386,13.050411]}},{"type":"Feature","properties":{"styleurl":"#chennai_neighbourhood_parks_style"},"geometry":{"type":"Point","coordinates":[80.254132,13.024131]}},{"type":"Feature","properties":{"styleurl":"#chennai_neighbourhood_parks_style"},"geometry":{"type":"Point","coordinates":[80.252667,13.030186]}},{"type":"Feature","properties":{"styleurl":"#chennai_neighbourhood_parks_style"},"geometry":{"type":"Point","coordinates":[80.268103,13.040121]}},{"type":"Feature","properties":{"styleurl":"#chennai_neighbourhood_parks_style"},"geometry":{"type":"Point","coordinates":[80.273755,13.042465]}},{"type":"Feature","properties":{"styleurl":"#chennai_neighbourhood_parks_style"},"geometry":{"type":"Point","coordinates":[80.27273,13.025739]}},{"type":"Feature","properties":{"styleurl":"#chennai_neighbourhood_parks_style"},"geometry":{"type":"Point","coordinates":[80.274857,13.023719]}},{"type":"Feature","properties":{"styleurl":"#chennai_neighbourhood_parks_style"},"geometry":{"type":"Point","coordinates":[80.275219,13.026981]}},{"type":"Feature","properties":{"styleurl":"#chennai_neighbourhood_parks_style"},"geometry":{"type":"Point","coordinates":[80.208392,13.066543]}},{"type":"Feature","properties":{"styleurl":"#chennai_neighbourhood_parks_style"},"geometry":{"type":"Point","coordinates":[80.24774,13.087637]}},{"type":"Feature","properties":{"styleurl":"#chennai_neighbourhood_parks_style"},"geometry":{"type":"Point","coordinates":[80.254526,13.081864]}},{"type":"Feature","properties":{"styleurl":"#chennai_neighbourhood_parks_style"},"geometry":{"type":"Point","coordinates":[80.214483,13.0689]}},{"type":"Feature","properties":{"styleurl":"#chennai_neighbourhood_parks_style"},"geometry":{"type":"Point","coordinates":[80.225328,13.067946]}},{"type":"Feature","properties":{"styleurl":"#chennai_neighbourhood_parks_style"},"geometry":{"type":"Point","coordinates":[80.221312,13.074141]}},{"type":"Feature","properties":{"styleurl":"#chennai_neighbourhood_parks_style"},"geometry":{"type":"Point","coordinates":[80.221825,13.072314]}},{"type":"Feature","properties":{"styleurl":"#chennai_neighbourhood_parks_style"},"geometry":{"type":"Point","coordinates":[80.222058,13.072061]}},{"type":"Feature","properties":{"styleurl":"#chennai_neighbourhood_parks_style"},"geometry":{"type":"Point","coordinates":[80.250658,13.072179]}},{"type":"Feature","properties":{"styleurl":"#chennai_neighbourhood_parks_style"},"geometry":{"type":"Point","coordinates":[80.251798,13.072513]}},{"type":"Feature","properties":{"styleurl":"#chennai_neighbourhood_parks_style"},"geometry":{"type":"Point","coordinates":[80.251061,13.074438]}},{"type":"Feature","properties":{"styleurl":"#chennai_neighbourhood_parks_style"},"geometry":{"type":"Point","coordinates":[80.215307,13.06838]}},{"type":"Feature","properties":{"styleurl":"#chennai_neighbourhood_parks_style"},"geometry":{"type":"Point","coordinates":[80.224675,13.06404]}},{"type":"Feature","properties":{"styleurl":"#chennai_neighbourhood_parks_style"},"geometry":{"type":"Point","coordinates":[80.230236,13.06728]}},{"type":"Feature","properties":{"styleurl":"#chennai_neighbourhood_parks_style"},"geometry":{"type":"Point","coordinates":[80.241397,13.052747]}},{"type":"Feature","properties":{"styleurl":"#chennai_neighbourhood_parks_style"},"geometry":{"type":"Point","coordinates":[80.241035,13.069046]}},{"type":"Feature","properties":{"styleurl":"#chennai_neighbourhood_parks_style"},"geometry":{"type":"Point","coordinates":[80.242231,13.056471]}},{"type":"Feature","properties":{"styleurl":"#chennai_neighbourhood_parks_style"},"geometry":{"type":"Point","coordinates":[80.248641,13.063219]}},{"type":"Feature","properties":{"styleurl":"#chennai_neighbourhood_parks_style"},"geometry":{"type":"Point","coordinates":[80.254116,13.048496]}},{"type":"Feature","properties":{"styleurl":"#chennai_neighbourhood_parks_style"},"geometry":{"type":"Point","coordinates":[80.257882,13.056016]}},{"type":"Feature","properties":{"styleurl":"#chennai_neighbourhood_parks_style"},"geometry":{"type":"Point","coordinates":[80.250256,13.067418]}},{"type":"Feature","properties":{"styleurl":"#chennai_neighbourhood_parks_style"},"geometry":{"type":"Point","coordinates":[80.249207,13.067499]}},{"type":"Feature","properties":{"styleurl":"#chennai_neighbourhood_parks_style"},"geometry":{"type":"Point","coordinates":[80.222224,13.056818]}},{"type":"Feature","properties":{"styleurl":"#chennai_neighbourhood_parks_style"},"geometry":{"type":"Point","coordinates":[80.232371,13.06502]}},{"type":"Feature","properties":{"styleurl":"#chennai_neighbourhood_parks_style"},"geometry":{"type":"Point","coordinates":[80.236056,13.050218]}},{"type":"Feature","properties":{"styleurl":"#chennai_neighbourhood_parks_style"},"geometry":{"type":"Point","coordinates":[80.241507,13.052144]}},{"type":"Feature","properties":{"styleurl":"#chennai_neighbourhood_parks_style"},"geometry":{"type":"Point","coordinates":[80.284712,13.067549]}},{"type":"Feature","properties":{"styleurl":"#chennai_neighbourhood_parks_style"},"geometry":{"type":"Point","coordinates":[80.280511,13.050388]}},{"type":"Feature","properties":{"styleurl":"#chennai_neighbourhood_parks_style"},"geometry":{"type":"Point","coordinates":[80.20086,13.104899]}},{"type":"Feature","properties":{"styleurl":"#chennai_neighbourhood_parks_style"},"geometry":{"type":"Point","coordinates":[80.147852,13.088812]}},{"type":"Feature","properties":{"styleurl":"#chennai_neighbourhood_parks_style"},"geometry":{"type":"Point","coordinates":[80.146449,13.097176]}},{"type":"Feature","properties":{"styleurl":"#chennai_neighbourhood_parks_style"},"geometry":{"type":"Point","coordinates":[80.164729,13.084875]}},{"type":"Feature","properties":{"styleurl":"#chennai_neighbourhood_parks_style"},"geometry":{"type":"Point","coordinates":[80.168767,13.100585]}},{"type":"Feature","properties":{"styleurl":"#chennai_neighbourhood_parks_style"},"geometry":{"type":"Point","coordinates":[80.144463,13.093129]}},{"type":"Feature","properties":{"styleurl":"#chennai_neighbourhood_parks_style"},"geometry":{"type":"Point","coordinates":[80.194496,13.09635]}},{"type":"Feature","properties":{"styleurl":"#chennai_neighbourhood_parks_style"},"geometry":{"type":"Point","coordinates":[80.192363,13.096071]}},{"type":"Feature","properties":{"styleurl":"#chennai_neighbourhood_parks_style"},"geometry":{"type":"Point","coordinates":[80.194514,13.09803]}},{"type":"Feature","properties":{"styleurl":"#chennai_neighbourhood_parks_style"},"geometry":{"type":"Point","coordinates":[80.188089,13.09963]}},{"type":"Feature","properties":{"styleurl":"#chennai_neighbourhood_parks_style"},"geometry":{"type":"Point","coordinates":[80.1858,13.09]}},{"type":"Feature","properties":{"styleurl":"#chennai_neighbourhood_parks_style"},"geometry":{"type":"Point","coordinates":[80.187,13.0893]}},{"type":"Feature","properties":{"styleurl":"#chennai_neighbourhood_parks_style"},"geometry":{"type":"Point","coordinates":[80.183093,13.091512]}},{"type":"Feature","properties":{"styleurl":"#chennai_neighbourhood_parks_style"},"geometry":{"type":"Point","coordinates":[80.186188,13.090045]}},{"type":"Feature","properties":{"styleurl":"#chennai_neighbourhood_parks_style"},"geometry":{"type":"Point","coordinates":[80.198012,13.089025]}},{"type":"Feature","properties":{"styleurl":"#chennai_neighbourhood_parks_style"},"geometry":{"type":"Point","coordinates":[80.188206,13.087013]}},{"type":"Feature","properties":{"styleurl":"#chennai_neighbourhood_parks_style"},"geometry":{"type":"Point","coordinates":[80.192782,13.082459]}},{"type":"Feature","properties":{"styleurl":"#chennai_neighbourhood_parks_style"},"geometry":{"type":"Point","coordinates":[80.193033,13.087674]}},{"type":"Feature","properties":{"styleurl":"#chennai_neighbourhood_parks_style"},"geometry":{"type":"Point","coordinates":[80.193374,13.087162]}},{"type":"Feature","properties":{"styleurl":"#chennai_neighbourhood_parks_style"},"geometry":{"type":"Point","coordinates":[80.170914,13.082519]}},{"type":"Feature","properties":{"styleurl":"#chennai_neighbourhood_parks_style"},"geometry":{"type":"Point","coordinates":[80.175747,13.078282]}},{"type":"Feature","properties":{"styleurl":"#chennai_neighbourhood_parks_style"},"geometry":{"type":"Point","coordinates":[80.165783,13.083487]}},{"type":"Feature","properties":{"styleurl":"#chennai_neighbourhood_parks_style"},"geometry":{"type":"Point","coordinates":[80.16453,13.084706]}},{"type":"Feature","properties":{"styleurl":"#chennai_neighbourhood_parks_style"},"geometry":{"type":"Point","coordinates":[80.165227,13.085451]}},{"type":"Feature","properties":{"styleurl":"#chennai_neighbourhood_parks_style"},"geometry":{"type":"Point","coordinates":[80.180109,13.078106]}},{"type":"Feature","properties":{"styleurl":"#chennai_neighbourhood_parks_style"},"geometry":{"type":"Point","coordinates":[80.174426,13.077298]}},{"type":"Feature","properties":{"styleurl":"#chennai_neighbourhood_parks_style"},"geometry":{"type":"Point","coordinates":[80.170917,13.082516]}},{"type":"Feature","properties":{"styleurl":"#chennai_neighbourhood_parks_style"},"geometry":{"type":"Point","coordinates":[80.148144,13.019229]}},{"type":"Feature","properties":{"styleurl":"#chennai_neighbourhood_parks_style"},"geometry":{"type":"Point","coordinates":[80.155314,13.021978]}},{"type":"Feature","properties":{"styleurl":"#chennai_neighbourhood_parks_style"},"geometry":{"type":"Point","coordinates":[80.153082,13.017993]}},{"type":"Feature","properties":{"styleurl":"#chennai_neighbourhood_parks_style"},"geometry":{"type":"Point","coordinates":[80.168776,13.021066]}},{"type":"Feature","properties":{"styleurl":"#chennai_neighbourhood_parks_style"},"geometry":{"type":"Point","coordinates":[80.172174,13.017721]}},{"type":"Feature","properties":{"styleurl":"#chennai_neighbourhood_parks_style"},"geometry":{"type":"Point","coordinates":[80.161527,13.019974]}},{"type":"Feature","properties":{"styleurl":"#chennai_neighbourhood_parks_style"},"geometry":{"type":"Point","coordinates":[80.161614,13.019732]}},{"type":"Feature","properties":{"styleurl":"#chennai_neighbourhood_parks_style"},"geometry":{"type":"Point","coordinates":[80.147528,13.023575]}},{"type":"Feature","properties":{"styleurl":"#chennai_neighbourhood_parks_style"},"geometry":{"type":"Point","coordinates":[80.160472,13.016859]}},{"type":"Feature","properties":{"styleurl":"#chennai_neighbourhood_parks_style"},"geometry":{"type":"Point","coordinates":[80.158945,13.020257]}},{"type":"Feature","properties":{"styleurl":"#chennai_neighbourhood_parks_style"},"geometry":{"type":"Point","coordinates":[80.179765,13.013725]}},{"type":"Feature","properties":{"styleurl":"#chennai_neighbourhood_parks_style"},"geometry":{"type":"Point","coordinates":[80.178966,13.01354]}},{"type":"Feature","properties":{"styleurl":"#chennai_neighbourhood_parks_style"},"geometry":{"type":"Point","coordinates":[80.166064,13.013535]}},{"type":"Feature","properties":{"styleurl":"#chennai_neighbourhood_parks_style"},"geometry":{"type":"Point","coordinates":[80.163908,13.013814]}},{"type":"Feature","properties":{"styleurl":"#chennai_neighbourhood_parks_style"},"geometry":{"type":"Point","coordinates":[80.164184,13.01147]}},{"type":"Feature","properties":{"styleurl":"#chennai_neighbourhood_parks_style"},"geometry":{"type":"Point","coordinates":[80.180425,13.015776]}},{"type":"Feature","properties":{"styleurl":"#chennai_neighbourhood_parks_style"},"geometry":{"type":"Point","coordinates":[80.181454,13.014747]}},{"type":"Feature","properties":{"styleurl":"#chennai_neighbourhood_parks_style"},"geometry":{"type":"Point","coordinates":[80.199219,13.016321]}},{"type":"Feature","properties":{"styleurl":"#chennai_neighbourhood_parks_style"},"geometry":{"type":"Point","coordinates":[80.2031,13.004874]}},{"type":"Feature","properties":{"styleurl":"#chennai_neighbourhood_parks_style"},"geometry":{"type":"Point","coordinates":[80.206587,12.995703]}},{"type":"Feature","properties":{"styleurl":"#chennai_neighbourhood_parks_style"},"geometry":{"type":"Point","coordinates":[80.198208,12.992949]}},{"type":"Feature","properties":{"styleurl":"#chennai_neighbourhood_parks_style"},"geometry":{"type":"Point","coordinates":[80.197363,12.991945]}},{"type":"Feature","properties":{"styleurl":"#chennai_neighbourhood_parks_style"},"geometry":{"type":"Point","coordinates":[80.195829,12.990505]}},{"type":"Feature","properties":{"styleurl":"#chennai_neighbourhood_parks_style"},"geometry":{"type":"Point","coordinates":[80.195485,12.994265]}},{"type":"Feature","properties":{"styleurl":"#chennai_neighbourhood_parks_style"},"geometry":{"type":"Point","coordinates":[80.185998,12.983772]}},{"type":"Feature","properties":{"styleurl":"#chennai_neighbourhood_parks_style"},"geometry":{"type":"Point","coordinates":[80.19958,12.988872]}},{"type":"Feature","properties":{"styleurl":"#chennai_neighbourhood_parks_style"},"geometry":{"type":"Point","coordinates":[80.18981,12.98498]}},{"type":"Feature","properties":{"styleurl":"#chennai_neighbourhood_parks_style"},"geometry":{"type":"Point","coordinates":[80.207764,13.066107]}},{"type":"Feature","properties":{"styleurl":"#chennai_neighbourhood_parks_style"},"geometry":{"type":"Point","coordinates":[80.208784,13.065155]}},{"type":"Feature","properties":{"styleurl":"#chennai_neighbourhood_parks_style"},"geometry":{"type":"Point","coordinates":[80.207764,13.064163]}},{"type":"Feature","properties":{"styleurl":"#chennai_neighbourhood_parks_style"},"geometry":{"type":"Point","coordinates":[80.208212,13.063238]}},{"type":"Feature","properties":{"styleurl":"#chennai_neighbourhood_parks_style"},"geometry":{"type":"Point","coordinates":[80.2072,13.0618]}},{"type":"Feature","properties":{"styleurl":"#chennai_neighbourhood_parks_style"},"geometry":{"type":"Point","coordinates":[80.20704,13.063421]}},{"type":"Feature","properties":{"styleurl":"#chennai_neighbourhood_parks_style"},"geometry":{"type":"Point","coordinates":[80.207081,13.064163]}},{"type":"Feature","properties":{"styleurl":"#chennai_neighbourhood_parks_style"},"geometry":{"type":"Point","coordinates":[80.207164,13.064886]}},{"type":"Feature","properties":{"styleurl":"#chennai_neighbourhood_parks_style"},"geometry":{"type":"Point","coordinates":[80.207169,13.065777]}},{"type":"Feature","properties":{"styleurl":"#chennai_neighbourhood_parks_style"},"geometry":{"type":"Point","coordinates":[80.207148,13.063003]}},{"type":"Feature","properties":{"styleurl":"#chennai_neighbourhood_parks_style"},"geometry":{"type":"Point","coordinates":[80.188954,13.040458]}},{"type":"Feature","properties":{"styleurl":"#chennai_neighbourhood_parks_style"},"geometry":{"type":"Point","coordinates":[80.187299,13.044475]}},{"type":"Feature","properties":{"styleurl":"#chennai_neighbourhood_parks_style"},"geometry":{"type":"Point","coordinates":[80.198524,13.052888]}},{"type":"Feature","properties":{"styleurl":"#chennai_neighbourhood_parks_style"},"geometry":{"type":"Point","coordinates":[80.1968,13.0489]}},{"type":"Feature","properties":{"styleurl":"#chennai_neighbourhood_parks_style"},"geometry":{"type":"Point","coordinates":[80.198782,13.04992]}},{"type":"Feature","properties":{"styleurl":"#chennai_neighbourhood_parks_style"},"geometry":{"type":"Point","coordinates":[80.205748,13.048786]}},{"type":"Feature","properties":{"styleurl":"#chennai_neighbourhood_parks_style"},"geometry":{"type":"Point","coordinates":[80.200917,13.053701]}},{"type":"Feature","properties":{"styleurl":"#chennai_neighbourhood_parks_style"},"geometry":{"type":"Point","coordinates":[80.201442,13.060418]}},{"type":"Feature","properties":{"styleurl":"#chennai_neighbourhood_parks_style"},"geometry":{"type":"Point","coordinates":[80.20576,13.05319]}},{"type":"Feature","properties":{"styleurl":"#chennai_neighbourhood_parks_style"},"geometry":{"type":"Point","coordinates":[80.210364,13.052172]}},{"type":"Feature","properties":{"styleurl":"#chennai_neighbourhood_parks_style"},"geometry":{"type":"Point","coordinates":[80.208553,13.044348]}},{"type":"Feature","properties":{"styleurl":"#chennai_neighbourhood_parks_style"},"geometry":{"type":"Point","coordinates":[80.2109,13.0457]}},{"type":"Feature","properties":{"styleurl":"#chennai_neighbourhood_parks_style"},"geometry":{"type":"Point","coordinates":[80.212853,13.033805]}},{"type":"Feature","properties":{"styleurl":"#chennai_neighbourhood_parks_style"},"geometry":{"type":"Point","coordinates":[80.215859,13.030758]}},{"type":"Feature","properties":{"styleurl":"#chennai_neighbourhood_parks_style"},"geometry":{"type":"Point","coordinates":[80.205447,13.043826]}},{"type":"Feature","properties":{"styleurl":"#chennai_neighbourhood_parks_style"},"geometry":{"type":"Point","coordinates":[80.213227,13.037299]}},{"type":"Feature","properties":{"styleurl":"#chennai_neighbourhood_parks_style"},"geometry":{"type":"Point","coordinates":[80.220382,13.051469]}},{"type":"Feature","properties":{"styleurl":"#chennai_neighbourhood_parks_style"},"geometry":{"type":"Point","coordinates":[80.225542,13.052091]}},{"type":"Feature","properties":{"styleurl":"#chennai_neighbourhood_parks_style"},"geometry":{"type":"Point","coordinates":[80.197968,13.040124]}},{"type":"Feature","properties":{"styleurl":"#chennai_neighbourhood_parks_style"},"geometry":{"type":"Point","coordinates":[80.200893,13.042277]}},{"type":"Feature","properties":{"styleurl":"#chennai_neighbourhood_parks_style"},"geometry":{"type":"Point","coordinates":[80.194997,13.040589]}},{"type":"Feature","properties":{"styleurl":"#chennai_neighbourhood_parks_style"},"geometry":{"type":"Point","coordinates":[80.194666,13.038626]}},{"type":"Feature","properties":{"styleurl":"#chennai_neighbourhood_parks_style"},"geometry":{"type":"Point","coordinates":[80.205866,13.033055]}},{"type":"Feature","properties":{"styleurl":"#chennai_neighbourhood_parks_style"},"geometry":{"type":"Point","coordinates":[80.204785,13.033489]}},{"type":"Feature","properties":{"styleurl":"#chennai_neighbourhood_parks_style"},"geometry":{"type":"Point","coordinates":[80.224695,13.034077]}},{"type":"Feature","properties":{"styleurl":"#chennai_neighbourhood_parks_style"},"geometry":{"type":"Point","coordinates":[80.21653,13.026771]}},{"type":"Feature","properties":{"styleurl":"#chennai_neighbourhood_parks_style"},"geometry":{"type":"Point","coordinates":[80.217083,13.026708]}},{"type":"Feature","properties":{"styleurl":"#chennai_neighbourhood_parks_style"},"geometry":{"type":"Point","coordinates":[80.219358,13.026327]}},{"type":"Feature","properties":{"styleurl":"#chennai_neighbourhood_parks_style"},"geometry":{"type":"Point","coordinates":[80.1622,13.0788]}},{"type":"Feature","properties":{"styleurl":"#chennai_neighbourhood_parks_style"},"geometry":{"type":"Point","coordinates":[80.168263,13.077293]}},{"type":"Feature","properties":{"styleurl":"#chennai_neighbourhood_parks_style"},"geometry":{"type":"Point","coordinates":[80.164297,13.077101]}},{"type":"Feature","properties":{"styleurl":"#chennai_neighbourhood_parks_style"},"geometry":{"type":"Point","coordinates":[80.164805,13.076549]}},{"type":"Feature","properties":{"styleurl":"#chennai_neighbourhood_parks_style"},"geometry":{"type":"Point","coordinates":[80.172482,13.076723]}},{"type":"Feature","properties":{"styleurl":"#chennai_neighbourhood_parks_style"},"geometry":{"type":"Point","coordinates":[80.166772,13.077654]}},{"type":"Feature","properties":{"styleurl":"#chennai_neighbourhood_parks_style"},"geometry":{"type":"Point","coordinates":[80.1638,13.069]}},{"type":"Feature","properties":{"styleurl":"#chennai_neighbourhood_parks_style"},"geometry":{"type":"Point","coordinates":[80.173336,13.075805]}},{"type":"Feature","properties":{"styleurl":"#chennai_neighbourhood_parks_style"},"geometry":{"type":"Point","coordinates":[80.180254,13.0697]}},{"type":"Feature","properties":{"styleurl":"#chennai_neighbourhood_parks_style"},"geometry":{"type":"Point","coordinates":[80.161861,13.043623]}},{"type":"Feature","properties":{"styleurl":"#chennai_neighbourhood_parks_style"},"geometry":{"type":"Point","coordinates":[80.167226,13.060157]}},{"type":"Feature","properties":{"styleurl":"#chennai_neighbourhood_parks_style"},"geometry":{"type":"Point","coordinates":[80.166005,13.040874]}},{"type":"Feature","properties":{"styleurl":"#chennai_neighbourhood_parks_style"},"geometry":{"type":"Point","coordinates":[80.172392,13.051362]}},{"type":"Feature","properties":{"styleurl":"#chennai_neighbourhood_parks_style"},"geometry":{"type":"Point","coordinates":[80.180654,13.043069]}},{"type":"Feature","properties":{"styleurl":"#chennai_neighbourhood_parks_style"},"geometry":{"type":"Point","coordinates":[80.180733,13.045151]}},{"type":"Feature","properties":{"styleurl":"#chennai_neighbourhood_parks_style"},"geometry":{"type":"Point","coordinates":[80.181457,13.046424]}},{"type":"Feature","properties":{"styleurl":"#chennai_neighbourhood_parks_style"},"geometry":{"type":"Point","coordinates":[80.184834,13.049834]}},{"type":"Feature","properties":{"styleurl":"#chennai_neighbourhood_parks_style"},"geometry":{"type":"Point","coordinates":[80.178928,13.043853]}},{"type":"Feature","properties":{"styleurl":"#chennai_neighbourhood_parks_style"},"geometry":{"type":"Point","coordinates":[80.153818,13.038194]}},{"type":"Feature","properties":{"styleurl":"#chennai_neighbourhood_parks_style"},"geometry":{"type":"Point","coordinates":[80.135793,13.046027]}},{"type":"Feature","properties":{"styleurl":"#chennai_neighbourhood_parks_style"},"geometry":{"type":"Point","coordinates":[80.136222,13.047123]}},{"type":"Feature","properties":{"styleurl":"#chennai_neighbourhood_parks_style"},"geometry":{"type":"Point","coordinates":[80.156771,13.036921]}},{"type":"Feature","properties":{"styleurl":"#chennai_neighbourhood_parks_style"},"geometry":{"type":"Point","coordinates":[80.168816,13.025757]}},{"type":"Feature","properties":{"styleurl":"#chennai_neighbourhood_parks_style"},"geometry":{"type":"Point","coordinates":[80.164422,13.032158]}},{"type":"Feature","properties":{"styleurl":"#chennai_neighbourhood_parks_style"},"geometry":{"type":"Point","coordinates":[80.171962,13.040978]}},{"type":"Feature","properties":{"styleurl":"#chennai_neighbourhood_parks_style"},"geometry":{"type":"Point","coordinates":[80.155553,13.025396]}},{"type":"Feature","properties":{"styleurl":"#chennai_neighbourhood_parks_style"},"geometry":{"type":"Point","coordinates":[80.156629,13.026244]}},{"type":"Feature","properties":{"styleurl":"#chennai_neighbourhood_parks_style"},"geometry":{"type":"Point","coordinates":[80.158198,13.025644]}},{"type":"Feature","properties":{"styleurl":"#chennai_neighbourhood_parks_style"},"geometry":{"type":"Point","coordinates":[80.175109,13.031657]}},{"type":"Feature","properties":{"styleurl":"#chennai_neighbourhood_parks_style"},"geometry":{"type":"Point","coordinates":[80.177665,13.030866]}},{"type":"Feature","properties":{"styleurl":"#chennai_neighbourhood_parks_style"},"geometry":{"type":"Point","coordinates":[80.178893,13.027131]}},{"type":"Feature","properties":{"styleurl":"#chennai_neighbourhood_parks_style"},"geometry":{"type":"Point","coordinates":[80.191086,13.028438]}},{"type":"Feature","properties":{"styleurl":"#chennai_neighbourhood_parks_style"},"geometry":{"type":"Point","coordinates":[80.183426,13.029465]}},{"type":"Feature","properties":{"styleurl":"#chennai_neighbourhood_parks_style"},"geometry":{"type":"Point","coordinates":[80.184695,13.030779]}},{"type":"Feature","properties":{"styleurl":"#chennai_neighbourhood_parks_style"},"geometry":{"type":"Point","coordinates":[80.184216,13.029833]}},{"type":"Feature","properties":{"styleurl":"#chennai_neighbourhood_parks_style"},"geometry":{"type":"Point","coordinates":[80.1709,13.0243]}},{"type":"Feature","properties":{"styleurl":"#chennai_neighbourhood_parks_style"},"geometry":{"type":"Point","coordinates":[80.154938,13.015422]}},{"type":"Feature","properties":{"styleurl":"#chennai_neighbourhood_parks_style"},"geometry":{"type":"Point","coordinates":[80.170911,13.024299]}},{"type":"Feature","properties":{"styleurl":"#chennai_neighbourhood_parks_style"},"geometry":{"type":"Point","coordinates":[80.151991,13.016287]}},{"type":"Feature","properties":{"styleurl":"#chennai_neighbourhood_parks_style"},"geometry":{"type":"Point","coordinates":[80.147648,13.022548]}},{"type":"Feature","properties":{"styleurl":"#chennai_neighbourhood_parks_style"},"geometry":{"type":"Point","coordinates":[80.148238,13.02162]}},{"type":"Feature","properties":{"styleurl":"#chennai_neighbourhood_parks_style"},"geometry":{"type":"Point","coordinates":[80.148397,13.020721]}},{"type":"Feature","properties":{"styleurl":"#chennai_neighbourhood_parks_style"},"geometry":{"type":"Point","coordinates":[80.223217,13.011601]}},{"type":"Feature","properties":{"styleurl":"#chennai_neighbourhood_parks_style"},"geometry":{"type":"Point","coordinates":[80.240748,13.023256]}},{"type":"Feature","properties":{"styleurl":"#chennai_neighbourhood_parks_style"},"geometry":{"type":"Point","coordinates":[80.243151,13.019545]}},{"type":"Feature","properties":{"styleurl":"#chennai_neighbourhood_parks_style"},"geometry":{"type":"Point","coordinates":[80.244342,13.015145]}},{"type":"Feature","properties":{"styleurl":"#chennai_neighbourhood_parks_style"},"geometry":{"type":"Point","coordinates":[80.243065,13.025247]}},{"type":"Feature","properties":{"styleurl":"#chennai_neighbourhood_parks_style"},"geometry":{"type":"Point","coordinates":[80.258726,13.023068]}},{"type":"Feature","properties":{"styleurl":"#chennai_neighbourhood_parks_style"},"geometry":{"type":"Point","coordinates":[80.255079,13.021915]}},{"type":"Feature","properties":{"styleurl":"#chennai_neighbourhood_parks_style"},"geometry":{"type":"Point","coordinates":[80.271499,13.016446]}},{"type":"Feature","properties":{"styleurl":"#chennai_neighbourhood_parks_style"},"geometry":{"type":"Point","coordinates":[80.270461,13.019537]}},{"type":"Feature","properties":{"styleurl":"#chennai_neighbourhood_parks_style"},"geometry":{"type":"Point","coordinates":[80.254534,13.021419]}},{"type":"Feature","properties":{"styleurl":"#chennai_neighbourhood_parks_style"},"geometry":{"type":"Point","coordinates":[80.257648,13.023149]}},{"type":"Feature","properties":{"styleurl":"#chennai_neighbourhood_parks_style"},"geometry":{"type":"Point","coordinates":[80.272749,13.019851]}},{"type":"Feature","properties":{"styleurl":"#chennai_neighbourhood_parks_style"},"geometry":{"type":"Point","coordinates":[80.272028,13.018001]}},{"type":"Feature","properties":{"styleurl":"#chennai_neighbourhood_parks_style"},"geometry":{"type":"Point","coordinates":[80.260566,13.021591]}},{"type":"Feature","properties":{"styleurl":"#chennai_neighbourhood_parks_style"},"geometry":{"type":"Point","coordinates":[80.269434,13.021942]}},{"type":"Feature","properties":{"styleurl":"#chennai_neighbourhood_parks_style"},"geometry":{"type":"Point","coordinates":[80.269943,13.020804]}},{"type":"Feature","properties":{"styleurl":"#chennai_neighbourhood_parks_style"},"geometry":{"type":"Point","coordinates":[80.260914,13.025195]}},{"type":"Feature","properties":{"styleurl":"#chennai_neighbourhood_parks_style"},"geometry":{"type":"Point","coordinates":[80.208542,12.996994]}},{"type":"Feature","properties":{"styleurl":"#chennai_neighbourhood_parks_style"},"geometry":{"type":"Point","coordinates":[80.260687,13.003719]}},{"type":"Feature","properties":{"styleurl":"#chennai_neighbourhood_parks_style"},"geometry":{"type":"Point","coordinates":[80.25905,13.007759]}},{"type":"Feature","properties":{"styleurl":"#chennai_neighbourhood_parks_style"},"geometry":{"type":"Point","coordinates":[80.209194,12.986046]}},{"type":"Feature","properties":{"styleurl":"#chennai_neighbourhood_parks_style"},"geometry":{"type":"Point","coordinates":[80.209497,12.987332]}},{"type":"Feature","properties":{"styleurl":"#chennai_neighbourhood_parks_style"},"geometry":{"type":"Point","coordinates":[80.20931,12.98441]}},{"type":"Feature","properties":{"styleurl":"#chennai_neighbourhood_parks_style"},"geometry":{"type":"Point","coordinates":[80.213405,12.978339]}},{"type":"Feature","properties":{"styleurl":"#chennai_neighbourhood_parks_style"},"geometry":{"type":"Point","coordinates":[80.209674,12.977737]}},{"type":"Feature","properties":{"styleurl":"#chennai_neighbourhood_parks_style"},"geometry":{"type":"Point","coordinates":[80.198517,12.974372]}},{"type":"Feature","properties":{"styleurl":"#chennai_neighbourhood_parks_style"},"geometry":{"type":"Point","coordinates":[80.19916,12.975327]}},{"type":"Feature","properties":{"styleurl":"#chennai_neighbourhood_parks_style"},"geometry":{"type":"Point","coordinates":[80.207807,12.973092]}},{"type":"Feature","properties":{"styleurl":"#chennai_neighbourhood_parks_style"},"geometry":{"type":"Point","coordinates":[80.208673,12.972701]}},{"type":"Feature","properties":{"styleurl":"#chennai_neighbourhood_parks_style"},"geometry":{"type":"Point","coordinates":[80.204642,12.9718]}},{"type":"Feature","properties":{"styleurl":"#chennai_neighbourhood_parks_style"},"geometry":{"type":"Point","coordinates":[80.201741,12.97722]}},{"type":"Feature","properties":{"styleurl":"#chennai_neighbourhood_parks_style"},"geometry":{"type":"Point","coordinates":[80.249403,12.968485]}},{"type":"Feature","properties":{"styleurl":"#chennai_neighbourhood_parks_style"},"geometry":{"type":"Point","coordinates":[80.24994,12.970205]}},{"type":"Feature","properties":{"styleurl":"#chennai_neighbourhood_parks_style"},"geometry":{"type":"Point","coordinates":[80.249881,12.970633]}},{"type":"Feature","properties":{"styleurl":"#chennai_neighbourhood_parks_style"},"geometry":{"type":"Point","coordinates":[80.256701,12.970605]}},{"type":"Feature","properties":{"styleurl":"#chennai_neighbourhood_parks_style"},"geometry":{"type":"Point","coordinates":[80.242585,12.963801]}},{"type":"Feature","properties":{"styleurl":"#chennai_neighbourhood_parks_style"},"geometry":{"type":"Point","coordinates":[80.247048,12.970171]}},{"type":"Feature","properties":{"styleurl":"#chennai_neighbourhood_parks_style"},"geometry":{"type":"Point","coordinates":[80.233633,12.966828]}},{"type":"Feature","properties":{"styleurl":"#chennai_neighbourhood_parks_style"},"geometry":{"type":"Point","coordinates":[80.229804,12.985895]}},{"type":"Feature","properties":{"styleurl":"#chennai_neighbourhood_parks_style"},"geometry":{"type":"Point","coordinates":[80.208972,12.977614]}},{"type":"Feature","properties":{"styleurl":"#chennai_neighbourhood_parks_style"},"geometry":{"type":"Point","coordinates":[80.221868,12.983025]}},{"type":"Feature","properties":{"styleurl":"#chennai_neighbourhood_parks_style"},"geometry":{"type":"Point","coordinates":[80.221339,12.981059]}},{"type":"Feature","properties":{"styleurl":"#chennai_neighbourhood_parks_style"},"geometry":{"type":"Point","coordinates":[80.231151,12.98108]}},{"type":"Feature","properties":{"styleurl":"#chennai_neighbourhood_parks_style"},"geometry":{"type":"Point","coordinates":[80.220889,12.97078]}},{"type":"Feature","properties":{"styleurl":"#chennai_neighbourhood_parks_style"},"geometry":{"type":"Point","coordinates":[80.253882,12.985503]}},{"type":"Feature","properties":{"styleurl":"#chennai_neighbourhood_parks_style"},"geometry":{"type":"Point","coordinates":[80.254169,12.987084]}},{"type":"Feature","properties":{"styleurl":"#chennai_neighbourhood_parks_style"},"geometry":{"type":"Point","coordinates":[80.254046,12.983359]}},{"type":"Feature","properties":{"styleurl":"#chennai_neighbourhood_parks_style"},"geometry":{"type":"Point","coordinates":[80.246896,12.985499]}},{"type":"Feature","properties":{"styleurl":"#chennai_neighbourhood_parks_style"},"geometry":{"type":"Point","coordinates":[80.246845,12.984736]}},{"type":"Feature","properties":{"styleurl":"#chennai_neighbourhood_parks_style"},"geometry":{"type":"Point","coordinates":[80.244088,12.991731]}},{"type":"Feature","properties":{"styleurl":"#chennai_neighbourhood_parks_style"},"geometry":{"type":"Point","coordinates":[80.262889,12.994033]}},{"type":"Feature","properties":{"styleurl":"#chennai_neighbourhood_parks_style"},"geometry":{"type":"Point","coordinates":[80.268283,12.991009]}},{"type":"Feature","properties":{"styleurl":"#chennai_neighbourhood_parks_style"},"geometry":{"type":"Point","coordinates":[80.268388,12.994768]}},{"type":"Feature","properties":{"styleurl":"#chennai_neighbourhood_parks_style"},"geometry":{"type":"Point","coordinates":[80.263123,12.985155]}},{"type":"Feature","properties":{"styleurl":"#chennai_neighbourhood_parks_style"},"geometry":{"type":"Point","coordinates":[80.266269,12.990082]}},{"type":"Feature","properties":{"styleurl":"#chennai_neighbourhood_parks_style"},"geometry":{"type":"Point","coordinates":[80.258013,12.994543]}},{"type":"Feature","properties":{"styleurl":"#chennai_neighbourhood_parks_style"},"geometry":{"type":"Point","coordinates":[80.267015,12.981658]}},{"type":"Feature","properties":{"styleurl":"#chennai_neighbourhood_parks_style"},"geometry":{"type":"Point","coordinates":[80.262938,12.974138]}},{"type":"Feature","properties":{"styleurl":"#chennai_neighbourhood_parks_style"},"geometry":{"type":"Point","coordinates":[80.261712,12.976182]}},{"type":"Feature","properties":{"styleurl":"#chennai_neighbourhood_parks_style"},"geometry":{"type":"Point","coordinates":[80.255108,12.975552]}},{"type":"Feature","properties":{"styleurl":"#chennai_neighbourhood_parks_style"},"geometry":{"type":"Point","coordinates":[80.26217,12.97476]}},{"type":"Feature","properties":{"styleurl":"#chennai_neighbourhood_parks_style"},"geometry":{"type":"Point","coordinates":[80.262213,12.978969]}},{"type":"Feature","properties":{"styleurl":"#chennai_neighbourhood_parks_style"},"geometry":{"type":"Point","coordinates":[80.260633,12.977818]}},{"type":"Feature","properties":{"styleurl":"#chennai_neighbourhood_parks_style"},"geometry":{"type":"Point","coordinates":[80.254853,12.978733]}},{"type":"Feature","properties":{"styleurl":"#chennai_neighbourhood_parks_style"},"geometry":{"type":"Point","coordinates":[80.190837,12.975722]}},{"type":"Feature","properties":{"styleurl":"#chennai_neighbourhood_parks_style"},"geometry":{"type":"Point","coordinates":[80.184062,12.987737]}},{"type":"Feature","properties":{"styleurl":"#chennai_neighbourhood_parks_style"},"geometry":{"type":"Point","coordinates":[80.202245,12.984763]}},{"type":"Feature","properties":{"styleurl":"#chennai_neighbourhood_parks_style"},"geometry":{"type":"Point","coordinates":[80.203317,12.979985]}},{"type":"Feature","properties":{"styleurl":"#chennai_neighbourhood_parks_style"},"geometry":{"type":"Point","coordinates":[80.203814,12.982398]}},{"type":"Feature","properties":{"styleurl":"#chennai_neighbourhood_parks_style"},"geometry":{"type":"Point","coordinates":[80.200107,12.984076]}},{"type":"Feature","properties":{"styleurl":"#chennai_neighbourhood_parks_style"},"geometry":{"type":"Point","coordinates":[80.198597,12.984669]}},{"type":"Feature","properties":{"styleurl":"#chennai_neighbourhood_parks_style"},"geometry":{"type":"Point","coordinates":[80.2002,12.980802]}},{"type":"Feature","properties":{"styleurl":"#chennai_neighbourhood_parks_style"},"geometry":{"type":"Point","coordinates":[80.18263,12.968681]}},{"type":"Feature","properties":{"styleurl":"#chennai_neighbourhood_parks_style"},"geometry":{"type":"Point","coordinates":[80.185853,12.981169]}},{"type":"Feature","properties":{"styleurl":"#chennai_neighbourhood_parks_style"},"geometry":{"type":"Point","coordinates":[80.187581,12.977528]}},{"type":"Feature","properties":{"styleurl":"#chennai_neighbourhood_parks_style"},"geometry":{"type":"Point","coordinates":[80.187696,12.97792]}},{"type":"Feature","properties":{"styleurl":"#chennai_neighbourhood_parks_style"},"geometry":{"type":"Point","coordinates":[80.184016,12.97734]}},{"type":"Feature","properties":{"styleurl":"#chennai_neighbourhood_parks_style"},"geometry":{"type":"Point","coordinates":[80.182316,12.976436]}},{"type":"Feature","properties":{"styleurl":"#chennai_neighbourhood_parks_style"},"geometry":{"type":"Point","coordinates":[80.189794,12.970205]}},{"type":"Feature","properties":{"styleurl":"#chennai_neighbourhood_parks_style"},"geometry":{"type":"Point","coordinates":[80.183651,12.971514]}},{"type":"Feature","properties":{"styleurl":"#chennai_neighbourhood_parks_style"},"geometry":{"type":"Point","coordinates":[80.18933,12.975401]}},{"type":"Feature","properties":{"styleurl":"#chennai_neighbourhood_parks_style"},"geometry":{"type":"Point","coordinates":[80.186956,12.973331]}},{"type":"Feature","properties":{"styleurl":"#chennai_neighbourhood_parks_style"},"geometry":{"type":"Point","coordinates":[80.18643,12.972081]}},{"type":"Feature","properties":{"styleurl":"#chennai_neighbourhood_parks_style"},"geometry":{"type":"Point","coordinates":[80.188603,12.977411]}},{"type":"Feature","properties":{"styleurl":"#chennai_neighbourhood_parks_style"},"geometry":{"type":"Point","coordinates":[80.187211,12.970011]}},{"type":"Feature","properties":{"styleurl":"#chennai_neighbourhood_parks_style"},"geometry":{"type":"Point","coordinates":[80.186116,12.978318]}},{"type":"Feature","properties":{"styleurl":"#chennai_neighbourhood_parks_style"},"geometry":{"type":"Point","coordinates":[80.189273,12.973801]}},{"type":"Feature","properties":{"styleurl":"#chennai_neighbourhood_parks_style"},"geometry":{"type":"Point","coordinates":[80.186253,12.97802]}},{"type":"Feature","properties":{"styleurl":"#chennai_neighbourhood_parks_style"},"geometry":{"type":"Point","coordinates":[80.204149,13.014254]}},{"type":"Feature","properties":{"styleurl":"#chennai_neighbourhood_parks_style"},"geometry":{"type":"Point","coordinates":[80.203298,13.01184]}},{"type":"Feature","properties":{"styleurl":"#chennai_neighbourhood_parks_style"},"geometry":{"type":"Point","coordinates":[80.215875,13.018683]}},{"type":"Feature","properties":{"styleurl":"#chennai_neighbourhood_parks_style"},"geometry":{"type":"Point","coordinates":[80.216519,13.018409]}},{"type":"Feature","properties":{"styleurl":"#chennai_neighbourhood_parks_style"},"geometry":{"type":"Point","coordinates":[80.212217,13.014632]}},{"type":"Feature","properties":{"styleurl":"#chennai_neighbourhood_parks_style"},"geometry":{"type":"Point","coordinates":[80.220685,13.011789]}},{"type":"Feature","properties":{"styleurl":"#chennai_neighbourhood_parks_style"},"geometry":{"type":"Point","coordinates":[80.245777,12.96241]}},{"type":"Feature","properties":{"styleurl":"#chennai_neighbourhood_parks_style"},"geometry":{"type":"Point","coordinates":[80.246015,12.963244]}},{"type":"Feature","properties":{"styleurl":"#chennai_neighbourhood_parks_style"},"geometry":{"type":"Point","coordinates":[80.250626,12.958897]}},{"type":"Feature","properties":{"styleurl":"#chennai_neighbourhood_parks_style"},"geometry":{"type":"Point","coordinates":[80.254888,12.958272]}},{"type":"Feature","properties":{"styleurl":"#chennai_neighbourhood_parks_style"},"geometry":{"type":"Point","coordinates":[80.24042,12.957614]}},{"type":"Feature","properties":{"styleurl":"#chennai_neighbourhood_parks_style"},"geometry":{"type":"Point","coordinates":[80.238146,12.958414]}},{"type":"Feature","properties":{"styleurl":"#chennai_neighbourhood_parks_style"},"geometry":{"type":"Point","coordinates":[80.235874,12.961114]}},{"type":"Feature","properties":{"styleurl":"#chennai_neighbourhood_parks_style"},"geometry":{"type":"Point","coordinates":[80.239299,12.958672]}},{"type":"Feature","properties":{"styleurl":"#chennai_neighbourhood_parks_style"},"geometry":{"type":"Point","coordinates":[80.237094,12.957496]}},{"type":"Feature","properties":{"styleurl":"#chennai_neighbourhood_parks_style"},"geometry":{"type":"Point","coordinates":[80.192495,12.967782]}},{"type":"Feature","properties":{"styleurl":"#chennai_neighbourhood_parks_style"},"geometry":{"type":"Point","coordinates":[80.193648,12.965599]}},{"type":"Feature","properties":{"styleurl":"#chennai_neighbourhood_parks_style"},"geometry":{"type":"Point","coordinates":[80.193809,12.962287]}},{"type":"Feature","properties":{"styleurl":"#chennai_neighbourhood_parks_style"},"geometry":{"type":"Point","coordinates":[80.212888,12.960508]}},{"type":"Feature","properties":{"styleurl":"#chennai_neighbourhood_parks_style"},"geometry":{"type":"Point","coordinates":[80.193021,12.955325]}},{"type":"Feature","properties":{"styleurl":"#chennai_neighbourhood_parks_style"},"geometry":{"type":"Point","coordinates":[80.196298,12.954259]}},{"type":"Feature","properties":{"styleurl":"#chennai_neighbourhood_parks_style"},"geometry":{"type":"Point","coordinates":[80.196292,12.958841]}},{"type":"Feature","properties":{"styleurl":"#chennai_neighbourhood_parks_style"},"geometry":{"type":"Point","coordinates":[80.206917,12.942874]}},{"type":"Feature","properties":{"styleurl":"#chennai_neighbourhood_parks_style"},"geometry":{"type":"Point","coordinates":[80.233138,12.942743]}},{"type":"Feature","properties":{"styleurl":"#chennai_neighbourhood_parks_style"},"geometry":{"type":"Point","coordinates":[80.207358,12.933731]}},{"type":"Feature","properties":{"styleurl":"#chennai_neighbourhood_parks_style"},"geometry":{"type":"Point","coordinates":[80.208628,12.938261]}},{"type":"Feature","properties":{"styleurl":"#chennai_neighbourhood_parks_style"},"geometry":{"type":"Point","coordinates":[80.205187,12.937036]}},{"type":"Feature","properties":{"styleurl":"#chennai_neighbourhood_parks_style"},"geometry":{"type":"Point","coordinates":[80.212709,12.936464]}},{"type":"Feature","properties":{"styleurl":"#chennai_neighbourhood_parks_style"},"geometry":{"type":"Point","coordinates":[80.209825,12.9386]}},{"type":"Feature","properties":{"styleurl":"#chennai_neighbourhood_parks_style"},"geometry":{"type":"Point","coordinates":[80.200528,12.942126]}},{"type":"Feature","properties":{"styleurl":"#chennai_neighbourhood_parks_style"},"geometry":{"type":"Point","coordinates":[80.200139,12.94219]}},{"type":"Feature","properties":{"styleurl":"#chennai_neighbourhood_parks_style"},"geometry":{"type":"Point","coordinates":[80.199534,12.94101]}},{"type":"Feature","properties":{"styleurl":"#chennai_neighbourhood_parks_style"},"geometry":{"type":"Point","coordinates":[80.199581,12.941334]}},{"type":"Feature","properties":{"styleurl":"#chennai_neighbourhood_parks_style"},"geometry":{"type":"Point","coordinates":[80.20569,12.928733]}},{"type":"Feature","properties":{"styleurl":"#chennai_neighbourhood_parks_style"},"geometry":{"type":"Point","coordinates":[80.199847,12.923152]}},{"type":"Feature","properties":{"styleurl":"#chennai_neighbourhood_parks_style"},"geometry":{"type":"Point","coordinates":[80.254574,12.941044]}},{"type":"Feature","properties":{"styleurl":"#chennai_neighbourhood_parks_style"},"geometry":{"type":"Point","coordinates":[80.234624,12.951505]}},{"type":"Feature","properties":{"styleurl":"#chennai_neighbourhood_parks_style"},"geometry":{"type":"Point","coordinates":[80.233031,12.946319]}},{"type":"Feature","properties":{"styleurl":"#chennai_neighbourhood_parks_style"},"geometry":{"type":"Point","coordinates":[80.233947,12.947]}},{"type":"Feature","properties":{"styleurl":"#chennai_neighbourhood_parks_style"},"geometry":{"type":"Point","coordinates":[80.240579,12.945339]}},{"type":"Feature","properties":{"styleurl":"#chennai_neighbourhood_parks_style"},"geometry":{"type":"Point","coordinates":[80.234506,12.948792]}},{"type":"Feature","properties":{"styleurl":"#chennai_neighbourhood_parks_style"},"geometry":{"type":"Point","coordinates":[80.234023,12.93168]}},{"type":"Feature","properties":{"styleurl":"#chennai_neighbourhood_parks_style"},"geometry":{"type":"Point","coordinates":[80.239608,12.940625]}},{"type":"Feature","properties":{"styleurl":"#chennai_neighbourhood_parks_style"},"geometry":{"type":"Point","coordinates":[80.237939,12.928671]}},{"type":"Feature","properties":{"styleurl":"#chennai_neighbourhood_parks_style"},"geometry":{"type":"Point","coordinates":[80.239943,12.929191]}},{"type":"Feature","properties":{"styleurl":"#chennai_neighbourhood_parks_style"},"geometry":{"type":"Point","coordinates":[80.239184,12.931162]}},{"type":"Feature","properties":{"styleurl":"#chennai_neighbourhood_parks_style"},"geometry":{"type":"Point","coordinates":[80.238752,12.928911]}},{"type":"Feature","properties":{"styleurl":"#chennai_neighbourhood_parks_style"},"geometry":{"type":"Point","coordinates":[80.227931,12.927023]}},{"type":"Feature","properties":{"styleurl":"#chennai_neighbourhood_parks_style"},"geometry":{"type":"Point","coordinates":[80.23636,12.922443]}},{"type":"Feature","properties":{"styleurl":"#chennai_neighbourhood_parks_style"},"geometry":{"type":"Point","coordinates":[80.227953,12.927107]}},{"type":"Feature","properties":{"styleurl":"#chennai_neighbourhood_parks_style"},"geometry":{"type":"Point","coordinates":[80.2548,12.917578]}},{"type":"Feature","properties":{"styleurl":"#chennai_neighbourhood_parks_style"},"geometry":{"type":"Point","coordinates":[80.22144,12.896928]}},{"type":"Feature","properties":{"styleurl":"#chennai_neighbourhood_parks_style"},"geometry":{"type":"Point","coordinates":[80.228139,12.910467]}},{"type":"Feature","properties":{"styleurl":"#chennai_neighbourhood_parks_style"},"geometry":{"type":"Point","coordinates":[80.224008,12.897128]}},{"type":"Feature","properties":{"styleurl":"#chennai_neighbourhood_parks_style"},"geometry":{"type":"Point","coordinates":[80.231014,12.892059]}},{"type":"Feature","properties":{"styleurl":"#chennai_neighbourhood_parks_style"},"geometry":{"type":"Point","coordinates":[80.230874,12.901819]}},{"type":"Feature","properties":{"styleurl":"#chennai_neighbourhood_parks_style"},"geometry":{"type":"Point","coordinates":[80.228539,12.907469]}},{"type":"Feature","properties":{"styleurl":"#chennai_neighbourhood_parks_style"},"geometry":{"type":"Point","coordinates":[80.219528,12.896285]}},{"type":"Feature","properties":{"styleurl":"#chennai_neighbourhood_parks_style"},"geometry":{"type":"Point","coordinates":[80.226541,12.905099]}},{"type":"Feature","properties":{"styleurl":"#chennai_neighbourhood_parks_style"},"geometry":{"type":"Point","coordinates":[80.228072,12.909312]}},{"type":"Feature","properties":{"styleurl":"#chennai_neighbourhood_parks_style"},"geometry":{"type":"Point","coordinates":[80.228897,12.915678]}},{"type":"Feature","properties":{"styleurl":"#chennai_neighbourhood_parks_style"},"geometry":{"type":"Point","coordinates":[80.22836,12.916183]}},{"type":"Feature","properties":{"styleurl":"#chennai_neighbourhood_parks_style"},"geometry":{"type":"Point","coordinates":[80.22873,12.911991]}},{"type":"Feature","properties":{"styleurl":"#chennai_neighbourhood_parks_style"},"geometry":{"type":"Point","coordinates":[80.233491,12.901757]}},{"type":"Feature","properties":{"styleurl":"#chennai_neighbourhood_parks_style"},"geometry":{"type":"Point","coordinates":[80.227543,12.900714]}},{"type":"Feature","properties":{"styleurl":"#chennai_neighbourhood_parks_style"},"geometry":{"type":"Point","coordinates":[80.230174,12.906757]}},{"type":"Feature","properties":{"styleurl":"#chennai_neighbourhood_parks_style"},"geometry":{"type":"Point","coordinates":[80.230408,12.908128]}},{"type":"Feature","properties":{"styleurl":"#chennai_neighbourhood_parks_style"},"geometry":{"type":"Point","coordinates":[80.22148,12.896857]}},{"type":"Feature","properties":{"styleurl":"#chennai_neighbourhood_parks_style"},"geometry":{"type":"Point","coordinates":[80.222252,12.896202]}},{"type":"Feature","properties":{"styleurl":"#chennai_neighbourhood_parks_style"},"geometry":{"type":"Point","coordinates":[80.222355,12.897612]}},{"type":"Feature","properties":{"styleurl":"#chennai_neighbourhood_parks_style"},"geometry":{"type":"Point","coordinates":[80.227538,12.899813]}},{"type":"Feature","properties":{"styleurl":"#chennai_neighbourhood_parks_style"},"geometry":{"type":"Point","coordinates":[80.231658,12.910743]}},{"type":"Feature","properties":{"styleurl":"#chennai_neighbourhood_parks_style"},"geometry":{"type":"Point","coordinates":[80.249824,12.894762]}},{"type":"Feature","properties":{"styleurl":"#chennai_neighbourhood_parks_style"},"geometry":{"type":"Point","coordinates":[80.233895,12.878716]}},{"type":"Feature","properties":{"styleurl":"#chennai_neighbourhood_parks_style"},"geometry":{"type":"Point","coordinates":[80.232958,12.880645]}},{"type":"Feature","properties":{"styleurl":"#chennai_neighbourhood_parks_style"},"geometry":{"type":"Point","coordinates":[80.231226,12.877875]}},{"type":"Feature","properties":{"styleurl":"#chennai_neighbourhood_parks_style"},"geometry":{"type":"Point","coordinates":[80.234364,12.87892]}},{"type":"Feature","properties":{"styleurl":"#chennai_neighbourhood_parks_style"},"geometry":{"type":"Point","coordinates":[80.246198,12.87015]}},{"type":"Feature","properties":{"styleurl":"#chennai_neighbourhood_parks_style"},"geometry":{"type":"Point","coordinates":[80.211313,12.872571]}},{"type":"Feature","properties":{"styleurl":"#chennai_neighbourhood_parks_style"},"geometry":{"type":"Point","coordinates":[80.210924,12.876274]}}]}