{"type":"FeatureCollection","crs":{"type":"name","properties":{"name":"urn:ogc:def:crs:OGC:1.3:CRS84"}},"features":[{"type":"Feature","properties":{"name":"Thamaraikulam Drain"},"geometry":{"type":"LineString","coordinates":[[80.323603,13.224683],[80.323627,13.224779],[80.323752,13.224755],[80.323847,13.22519],[80.32391,13.225468],[80.324048,13.225482],[80.324264,13.225468],[80.324436,13.225746],[80.324565,13.226004],[80.324632,13.226224],[80.324757,13.226607],[80.324833,13.226684],[80.324833,13.226789],[80.32468,13.227162],[80.324192,13.228411],[80.324039,13.228651],[80.323905,13.228751],[80.323847,13.228895],[80.323742,13.229201],[80.323718,13.229249]]}},{"type":"Feature","properties":{"name":"Thanikachalam Drain"},"geometry":{"type":"LineString","coordinates":[[80.213542,13.130669],[80.213696,13.130661],[80.213799,13.130639],[80.214201,13.13037],[80.214322,13.130429],[80.214421,13.130695],[80.214476,13.130812],[80.214547,13.130877],[80.214666,13.130897],[80.215419,13.130916],[80.215954,13.13091],[80.21666,13.130828],[80.217698,13.130436],[80.218424,13.130366],[80.220036,13.130368],[80.220864,13.130395],[80.221124,13.130331],[80.22177,13.130093],[80.222851,13.129981],[80.223915,13.129596],[80.22415,13.12952],[80.224344,13.129457],[80.227159,13.129286],[80.227119,13.127763],[80.229714,13.127671],[80.229857,13.12761],[80.230664,13.128096],[80.232609,13.12929],[80.235613,13.129457],[80.235621,13.12948]]}},{"type":"Feature","properties":{"name":"TVS Channel"},"geometry":{"type":"LineString","coordinates":[[80.201422,13.097992],[80.20142,13.098051],[80.201424,13.098162],[80.20145,13.098312],[80.201463,13.098476],[80.201469,13.098667],[80.201473,13.098716],[80.201466,13.09879],[80.201414,13.098873],[80.201299,13.098936],[80.201092,13.098967],[80.200812,13.098985],[80.200518,13.099024],[80.200205,13.099054],[80.199814,13.099107],[80.199416,13.099155],[80.199075,13.099189],[80.198739,13.099237],[80.198414,13.099283],[80.198119,13.099308],[80.197892,13.099359],[80.197639,13.099368],[80.197221,13.09942],[80.196919,13.099502],[80.19665,13.099627],[80.19623,13.099808],[80.195913,13.100004],[80.195678,13.100131],[80.195526,13.100236],[80.195414,13.100382],[80.195357,13.100496],[80.19532,13.100738],[80.195307,13.100893],[80.195277,13.101121],[80.195232,13.101361],[80.19521,13.101518],[80.195166,13.101728],[80.195153,13.101889],[80.195077,13.102344],[80.195056,13.102413],[80.195035,13.102493],[80.195034,13.102498],[80.194993,13.102609],[80.194957,13.102702],[80.194942,13.102767],[80.194935,13.102827],[80.194937,13.102932],[80.194947,13.103037],[80.194952,13.103183],[80.194963,13.103368],[80.194971,13.103489],[80.194974,13.10363],[80.194984,13.103797],[80.194989,13.103958],[80.195002,13.104086],[80.195008,13.104217],[80.195008,13.104349],[80.195015,13.104571],[80.195024,13.104705],[80.195031,13.104842],[80.195041,13.104981],[80.195047,13.105105],[80.195059,13.105221],[80.195081,13.105358],[80.195099,13.105503],[80.195116,13.105629],[80.195133,13.105716],[80.195143,13.10579],[80.195172,13.105876],[80.195207,13.105976],[80.195295,13.106182],[80.195361,13.106323],[80.195402,13.106403],[80.195371,13.106428],[80.195301,13.106449],[80.194868,13.106604],[80.194768,13.106664],[80.194831,13.106828],[80.194981,13.107042],[80.195142,13.107355],[80.195358,13.107725],[80.195378,13.107737],[80.19561,13.108154],[80.195838,13.108537],[80.196136,13.109041],[80.196263,13.109327],[80.196408,13.109697],[80.196531,13.110062],[80.19659,13.11045],[80.196634,13.110776],[80.196661,13.111076],[80.196666,13.111384],[80.196639,13.111583],[80.196615,13.111693]]}},{"type":"Feature","properties":{"name":"Kodungaiyur Canal"},"geometry":{"type":"LineString","coordinates":[[80.243986,13.138212],[80.244126,13.138195],[80.244255,13.138169],[80.244265,13.138168],[80.244407,13.138144],[80.244417,13.138142],[80.244545,13.138127],[80.24455,13.138127],[80.244683,13.138114],[80.244786,13.138104],[80.244913,13.138114],[80.24492,13.138113],[80.245076,13.138124],[80.245213,13.138116],[80.245363,13.138112],[80.245494,13.138096],[80.245616,13.138063],[80.245744,13.138026],[80.245869,13.137979],[80.24599,13.137939],[80.246078,13.137902],[80.246203,13.13785],[80.246321,13.137807],[80.246438,13.137765],[80.246534,13.137728],[80.2466,13.137699],[80.246679,13.13767],[80.246732,13.13765],[80.246917,13.137561],[80.247149,13.137483],[80.247359,13.137386],[80.247591,13.137287],[80.24781,13.137206],[80.247831,13.137198],[80.248064,13.137119],[80.24829,13.137044],[80.248465,13.136985],[80.248664,13.136938],[80.248856,13.136897],[80.24897,13.136875],[80.249088,13.136847],[80.249245,13.136808],[80.249255,13.136801],[80.249411,13.136756],[80.249544,13.136723],[80.249691,13.136694],[80.24986,13.136666],[80.250019,13.136627],[80.250216,13.136598],[80.250416,13.136574],[80.250635,13.136569],[80.250747,13.136558],[80.250896,13.136555],[80.251037,13.13655],[80.251193,13.136552],[80.251337,13.136544],[80.25148,13.136513],[80.251634,13.136474],[80.251793,13.136452],[80.251915,13.13645],[80.25205,13.136451],[80.2522,13.136451],[80.252332,13.136441],[80.252441,13.136443],[80.252587,13.136446],[80.252781,13.136424],[80.253005,13.1364],[80.253018,13.136399],[80.2532,13.136383],[80.253346,13.136336],[80.25342,13.13629],[80.25346,13.136196],[80.253462,13.13619],[80.253479,13.136064],[80.253459,13.135961],[80.25345,13.135846],[80.25345,13.135841],[80.253421,13.135674],[80.253419,13.135662],[80.253424,13.135519],[80.253424,13.135507],[80.253463,13.135423],[80.253557,13.135366],[80.253642,13.135348],[80.253689,13.135343],[80.253866,13.13541],[80.253931,13.135497],[80.253966,13.135539],[80.254035,13.135563],[80.25413,13.135581],[80.254233,13.135625],[80.254298,13.135661],[80.254349,13.135698],[80.254415,13.135732],[80.254471,13.13577],[80.25453,13.135821],[80.254633,13.135927],[80.254732,13.136049],[80.254823,13.136178],[80.254941,13.136335],[80.25504,13.136426],[80.255134,13.136517],[80.255247,13.136613],[80.255355,13.136672],[80.255488,13.136693],[80.255657,13.136717],[80.255817,13.136717],[80.255995,13.136701],[80.256159,13.136714],[80.256389,13.136698],[80.25657,13.136697],[80.256757,13.136667],[80.256946,13.136653],[80.257127,13.136615],[80.257304,13.136577],[80.25746,13.136547],[80.257653,13.1365],[80.257931,13.13645],[80.258185,13.136383],[80.258398,13.136335],[80.258691,13.136244],[80.258995,13.136152],[80.259355,13.136011],[80.259671,13.135835],[80.259975,13.135677],[80.260234,13.135525],[80.260515,13.135325],[80.260772,13.135127],[80.261071,13.134906],[80.261359,13.134679],[80.261657,13.134466],[80.261929,13.134243],[80.262214,13.134046],[80.26243,13.133856],[80.26263,13.133698],[80.26291,13.13353],[80.263121,13.133353],[80.263276,13.133253],[80.263277,13.133251],[80.263465,13.133152],[80.263532,13.133118],[80.263635,13.133038],[80.263767,13.132934],[80.263883,13.13285],[80.264011,13.132745],[80.264118,13.13266],[80.264201,13.13259],[80.264377,13.132445],[80.264531,13.13228],[80.264646,13.132216],[80.264829,13.132069],[80.265066,13.131904],[80.265325,13.131704],[80.265499,13.131538],[80.265697,13.131347],[80.265826,13.131243],[80.265973,13.131126],[80.266125,13.131029],[80.26624,13.130941],[80.266374,13.130876],[80.266508,13.130781],[80.266625,13.130696],[80.266718,13.130642],[80.266823,13.13061],[80.266986,13.130609],[80.267202,13.130596],[80.267391,13.130586],[80.267546,13.130592],[80.26773,13.130594],[80.267741,13.130596],[80.267986,13.130614],[80.268263,13.130639],[80.26858,13.130663],[80.268803,13.130689],[80.268982,13.130696],[80.269141,13.130696],[80.269289,13.130708],[80.269483,13.13072],[80.26949,13.130721],[80.269633,13.130738],[80.269812,13.130739],[80.269981,13.130745],[80.270146,13.130762],[80.270377,13.130767],[80.270484,13.130768],[80.270603,13.130778],[80.270722,13.130775],[80.270802,13.130771],[80.270989,13.130775],[80.271117,13.130783],[80.271378,13.130797],[80.271656,13.1308],[80.271953,13.130841],[80.272288,13.130879],[80.27255,13.130891],[80.272827,13.130891],[80.273117,13.130919],[80.273394,13.130933],[80.273662,13.130941],[80.273921,13.130944],[80.274139,13.130941],[80.274294,13.13093],[80.274447,13.130892],[80.274613,13.130826],[80.274734,13.130767],[80.274875,13.130708]]}},{"type":"Feature","properties":{"name":"Captain Cotton Canal"},"geometry":{"type":"LineString","coordinates":[[80.24888,13.122594],[80.248819,13.122681],[80.248744,13.122775],[80.248739,13.122893],[80.248791,13.122994],[80.248867,13.123116],[80.248947,13.12326],[80.249005,13.123371],[80.249081,13.123504],[80.249158,13.12367],[80.249207,13.123796],[80.249237,13.123935],[80.249241,13.124023],[80.249237,13.124135],[80.249252,13.124263],[80.249276,13.124403],[80.249301,13.124532],[80.249341,13.124697],[80.249396,13.124869],[80.249468,13.124936],[80.249652,13.125],[80.249834,13.125021],[80.250005,13.125057],[80.250272,13.125081],[80.250562,13.12514],[80.250877,13.125195],[80.251159,13.125272],[80.251584,13.12534],[80.252097,13.125435],[80.252492,13.125511],[80.252943,13.125586],[80.253471,13.125685],[80.253817,13.125747],[80.254148,13.125829],[80.254615,13.125922],[80.255081,13.126005],[80.255586,13.12608],[80.256121,13.126187],[80.256454,13.126216],[80.257041,13.126281],[80.257649,13.126347],[80.258388,13.126448],[80.258829,13.126491],[80.259577,13.126609],[80.26031,13.126694],[80.261225,13.126877],[80.262135,13.126987],[80.263201,13.127159],[80.263754,13.127221],[80.264346,13.127338],[80.264777,13.127391],[80.265332,13.127451],[80.265787,13.127475],[80.26625,13.127543],[80.266625,13.127496],[80.267095,13.127386],[80.267618,13.12719],[80.268077,13.127072],[80.268428,13.126926],[80.268798,13.126862],[80.269097,13.126736],[80.269728,13.126577],[80.270362,13.126431],[80.270762,13.126352],[80.271119,13.126185],[80.271401,13.125954],[80.271689,13.125713],[80.271912,13.125447],[80.272285,13.125205],[80.272631,13.125003],[80.273046,13.124769],[80.273392,13.12468]]}},{"type":"Feature","properties":{"name":"Link canal (Kodungaiur-Captain Cotton)"},"geometry":{"type":"LineString","coordinates":[[80.271478,13.130811],[80.271455,13.130764],[80.27136,13.13058],[80.27112,13.130227],[80.270912,13.129831],[80.270612,13.129364],[80.270272,13.128819],[80.269968,13.128424],[80.269611,13.127911],[80.269276,13.127504],[80.26901,13.127126],[80.268787,13.126855]]}},{"type":"Feature","properties":{"name":"Trustpuram Canal"},"geometry":{"type":"LineString","coordinates":[[80.225736,13.053845],[80.225753,13.053927],[80.225781,13.054012],[80.225823,13.054164],[80.225881,13.054387],[80.225899,13.054512],[80.225914,13.054635],[80.225938,13.054801],[80.225964,13.054982],[80.225979,13.055177],[80.226002,13.05539],[80.22603,13.055584],[80.22606,13.055791],[80.226122,13.056218],[80.226145,13.056345],[80.226161,13.056471],[80.226182,13.056533],[80.226197,13.056638],[80.22623,13.056799],[80.226254,13.056926],[80.226287,13.057094],[80.226311,13.057251],[80.226317,13.057346],[80.226319,13.057535],[80.226323,13.057715],[80.226345,13.057847],[80.226347,13.058034],[80.226367,13.05817],[80.226328,13.058336],[80.226302,13.058388],[80.226269,13.058461],[80.226209,13.058524],[80.22613,13.058598],[80.226091,13.05869],[80.226085,13.058812],[80.226081,13.058903],[80.226083,13.058991],[80.226107,13.059116],[80.226131,13.059201],[80.226129,13.059267],[80.226166,13.059444],[80.226178,13.059623],[80.226199,13.059835],[80.226262,13.060203],[80.22628,13.060341],[80.226293,13.060664],[80.226308,13.060815],[80.226309,13.060928],[80.226319,13.061037],[80.226347,13.061243],[80.226371,13.061382],[80.226377,13.06146],[80.226389,13.061588],[80.226399,13.061896],[80.226405,13.061972],[80.22642,13.062104],[80.22644,13.062236],[80.226452,13.06237],[80.226472,13.062475],[80.226485,13.062584],[80.226526,13.062806],[80.226562,13.062986],[80.22658,13.063092],[80.226612,13.063204],[80.226623,13.063307],[80.226655,13.063467],[80.226677,13.063598],[80.22668,13.063713],[80.226697,13.063836],[80.226743,13.06404],[80.226745,13.064096],[80.226777,13.064191],[80.226796,13.064327],[80.226807,13.064413],[80.226805,13.064533],[80.226811,13.064676],[80.226834,13.064821],[80.22685,13.064948],[80.226874,13.065085],[80.226893,13.065205],[80.226914,13.06534],[80.226917,13.065473],[80.226925,13.06553],[80.226929,13.065611],[80.226954,13.065696],[80.226953,13.065741],[80.22697,13.065798],[80.226981,13.065859],[80.227007,13.065918],[80.227021,13.065956],[80.227037,13.065999],[80.227056,13.066037],[80.227076,13.06608],[80.227098,13.066142],[80.227105,13.066189],[80.227098,13.066255],[80.227085,13.066311],[80.22709,13.066376],[80.22709,13.066419],[80.227091,13.066423],[80.227109,13.066497],[80.227132,13.066556],[80.227151,13.06662],[80.227171,13.066667],[80.227204,13.066729],[80.227256,13.066767],[80.227295,13.066814],[80.227329,13.066864],[80.227371,13.066913],[80.227418,13.066969],[80.227463,13.067025],[80.227492,13.067063]]}},{"type":"Feature","properties":{"name":"Vyasarpadi Canal"},"geometry":{"type":"LineString","coordinates":[[80.261207,13.117776],[80.261144,13.117825],[80.261043,13.117872],[80.260892,13.117914],[80.260779,13.11793],[80.260654,13.117948],[80.260541,13.11796],[80.260432,13.117964],[80.260317,13.117967],[80.260151,13.117964],[80.259986,13.117958],[80.25986,13.117953],[80.259705,13.117951],[80.259547,13.117951],[80.259429,13.117947],[80.259308,13.11795],[80.259178,13.117957],[80.259089,13.117968],[80.258971,13.117987],[80.258796,13.118001],[80.258626,13.118009],[80.258421,13.118039],[80.258256,13.118075],[80.258151,13.118105],[80.258036,13.118132],[80.257891,13.118162],[80.257766,13.118189],[80.257631,13.118217],[80.257513,13.118254],[80.257408,13.11828],[80.257282,13.118318],[80.257146,13.118381],[80.256959,13.118485],[80.256862,13.118524],[80.256759,13.118578],[80.256635,13.118631],[80.256532,13.118689],[80.25641,13.118751],[80.256326,13.118799],[80.256249,13.118833],[80.256121,13.118891],[80.256023,13.118939],[80.255934,13.118975],[80.255851,13.119009],[80.255741,13.119057],[80.255637,13.119089],[80.255582,13.119118],[80.25553,13.119156],[80.255453,13.119189],[80.255382,13.119233],[80.255259,13.119295],[80.255196,13.119351],[80.255144,13.119374],[80.255086,13.119393],[80.255034,13.119406],[80.254974,13.119419],[80.254894,13.119435],[80.254824,13.119437],[80.25475,13.119449],[80.254665,13.119482],[80.254589,13.119522],[80.254518,13.119577],[80.254447,13.119655],[80.254412,13.119707],[80.25441,13.119708],[80.254359,13.119788],[80.25431,13.119903],[80.254233,13.12007],[80.254176,13.120161],[80.254133,13.120237],[80.254075,13.120339],[80.254015,13.120436],[80.25396,13.120521],[80.253885,13.12065],[80.253831,13.120711],[80.253758,13.120776],[80.253664,13.120852],[80.253593,13.1209],[80.25353,13.120953],[80.253446,13.120999],[80.253375,13.121024],[80.25331,13.121037],[80.253248,13.121044],[80.253177,13.121042],[80.25312,13.121045],[80.253049,13.121088],[80.252949,13.12113],[80.25283,13.121162],[80.252745,13.121187],[80.252666,13.121215],[80.252582,13.121237],[80.252503,13.12125],[80.252418,13.121282],[80.252327,13.121324],[80.252244,13.12135],[80.252167,13.121367],[80.252049,13.12138],[80.251931,13.121398],[80.251785,13.121428],[80.25166,13.121457],[80.251537,13.121494],[80.25142,13.121518],[80.251325,13.121548],[80.251263,13.121576],[80.251183,13.12159],[80.251108,13.121616],[80.251036,13.121637],[80.250966,13.12166],[80.250891,13.121742],[80.250861,13.121831],[80.250855,13.121914],[80.2508,13.121983],[80.250687,13.122025],[80.250566,13.122062],[80.250426,13.122087],[80.250264,13.122135],[80.250096,13.122188],[80.249925,13.122244],[80.249756,13.122316],[80.249529,13.122392],[80.249336,13.122454],[80.249148,13.122491],[80.248868,13.122608]]}},{"type":"Feature","properties":{"name":"Jawahar Drain"},"geometry":{"type":"LineString","coordinates":[[80.24197,13.123596],[80.24205,13.123525],[80.242158,13.123443],[80.242259,13.123373],[80.242289,13.123316],[80.242366,13.123272],[80.24242,13.123248],[80.242494,13.123221],[80.242591,13.123189],[80.242685,13.123161],[80.242778,13.123137],[80.242916,13.123113],[80.243061,13.123078],[80.243241,13.123063],[80.243402,13.123054],[80.243523,13.123039],[80.243654,13.123035],[80.243766,13.123029],[80.243892,13.123025],[80.244014,13.123028],[80.244084,13.123034],[80.244209,13.123039],[80.244302,13.12303],[80.244411,13.123023],[80.244503,13.123014],[80.24461,13.123002],[80.244729,13.122995],[80.244843,13.12299],[80.244937,13.122974],[80.245002,13.122944],[80.245058,13.122905],[80.245146,13.122841],[80.245254,13.122747],[80.245259,13.122742],[80.245353,13.122656],[80.245357,13.12265],[80.245494,13.122543],[80.245594,13.122517],[80.245689,13.122506],[80.245801,13.12251],[80.245865,13.12252],[80.24596,13.12252],[80.246074,13.122518],[80.246142,13.122521],[80.24632,13.122513],[80.246543,13.122494],[80.246769,13.122459],[80.24696,13.122431],[80.247118,13.122405],[80.24733,13.122366],[80.247466,13.122335],[80.247586,13.122306],[80.247736,13.122274],[80.247905,13.122244],[80.24806,13.122212],[80.24822,13.122169],[80.248377,13.122139],[80.248556,13.122106],[80.248726,13.122076],[80.248818,13.122089],[80.248883,13.122129],[80.248937,13.122175],[80.248995,13.122272],[80.249019,13.122347],[80.249002,13.122425],[80.248968,13.122477],[80.248923,13.122561],[80.248879,13.122605]]}},{"type":"Feature","properties":{"name":"Egankipuram Drain"},"geometry":{"type":"LineString","coordinates":[[80.243882,13.107087],[80.243888,13.107009],[80.243884,13.106907],[80.243881,13.106808],[80.24387,13.106717],[80.243859,13.10657],[80.243833,13.106454],[80.243807,13.106306],[80.243801,13.106211],[80.243795,13.106101],[80.243796,13.106094],[80.243793,13.105994],[80.243789,13.10591],[80.243782,13.105796],[80.243772,13.105718],[80.243773,13.105603],[80.243776,13.105516],[80.243813,13.105415],[80.243863,13.105343],[80.243927,13.105283],[80.244033,13.10523],[80.244197,13.105186],[80.244249,13.105179],[80.244359,13.105161],[80.24448,13.10514],[80.244607,13.10512],[80.244766,13.105095],[80.244884,13.105079],[80.244977,13.105059],[80.24506,13.105041],[80.245127,13.105007],[80.24512,13.104961],[80.245106,13.1049],[80.245101,13.104872],[80.245108,13.10483],[80.24513,13.10479],[80.245152,13.104765],[80.245193,13.104706],[80.245252,13.104614],[80.245306,13.104509],[80.24536,13.104405],[80.245423,13.104299],[80.245476,13.104215],[80.245525,13.104133],[80.245564,13.104071],[80.245617,13.104005],[80.245638,13.103982],[80.245678,13.103918],[80.245758,13.103824],[80.245798,13.103783],[80.245831,13.103745],[80.245868,13.103703],[80.245887,13.103676],[80.245941,13.103594],[80.245979,13.103492],[80.24603,13.103371],[80.246107,13.103259],[80.246186,13.103138],[80.246278,13.103028],[80.24633,13.102939],[80.246394,13.102843],[80.246446,13.102711],[80.246476,13.102599],[80.246507,13.102524],[80.246566,13.102485],[80.246609,13.102418],[80.246642,13.102315],[80.246689,13.102193],[80.246718,13.102097],[80.246733,13.102012],[80.246765,13.101837],[80.246765,13.101833],[80.246761,13.101705],[80.246765,13.101587],[80.246759,13.10149],[80.246785,13.101399],[80.246817,13.101304],[80.246893,13.101023],[80.246931,13.100793],[80.246959,13.100663],[80.246975,13.100485],[80.246993,13.100292],[80.246966,13.100137],[80.246898,13.099997],[80.246854,13.099901],[80.246776,13.099781],[80.246751,13.0997],[80.246766,13.099591],[80.246777,13.09942],[80.246782,13.099211],[80.246822,13.099062],[80.246851,13.098907],[80.246875,13.098761],[80.247072,13.09809],[80.247299,13.09726],[80.247508,13.097134],[80.248205,13.097306],[80.249261,13.097559],[80.249955,13.097695],[80.250244,13.097787],[80.250644,13.09782],[80.251093,13.098011]]}},{"type":"Feature","properties":{"name":"Ramamurty Colony Drain"},"geometry":{"type":"LineString","coordinates":[[80.235992,13.123138],[80.236156,13.123153],[80.236248,13.123152],[80.236265,13.123372],[80.23625,13.123616],[80.236272,13.123983],[80.236296,13.124304],[80.236311,13.124642],[80.236356,13.125088],[80.236517,13.12512],[80.236526,13.125115],[80.236899,13.125112],[80.237489,13.125111],[80.237879,13.125105],[80.238184,13.125124],[80.23862,13.125159],[80.23904,13.125147],[80.23919,13.125123],[80.239291,13.125139],[80.239459,13.125137],[80.239675,13.125146],[80.239907,13.125161],[80.239916,13.125161],[80.240036,13.125163],[80.24017,13.125165],[80.240344,13.125181],[80.240647,13.125179],[80.240881,13.125183],[80.241051,13.12518],[80.241195,13.125184],[80.24132,13.125187],[80.241474,13.125182],[80.24156,13.125162],[80.24161,13.12511],[80.241654,13.124997],[80.241693,13.124903],[80.241735,13.124754],[80.241771,13.124633],[80.241801,13.124498],[80.241826,13.124371],[80.241868,13.12424],[80.241894,13.124134],[80.24191,13.124025],[80.241928,13.123968],[80.241955,13.123841],[80.241962,13.123711],[80.241979,13.123597]]}},{"type":"Feature","properties":{"name":"ICF Drain"},"geometry":{"type":"LineString","coordinates":[[80.219617,13.104141],[80.219632,13.104156],[80.219655,13.10419],[80.219715,13.104259],[80.219785,13.104275],[80.219867,13.104272],[80.220009,13.104184],[80.220159,13.104091],[80.220318,13.104001],[80.220512,13.103913],[80.220648,13.103831],[80.220781,13.10382],[80.220864,13.103794],[80.220959,13.10375],[80.221043,13.103742],[80.221237,13.10372],[80.221382,13.103701],[80.221558,13.103678],[80.221633,13.103668],[80.221876,13.103639],[80.222073,13.103609],[80.222373,13.10358],[80.222672,13.103551],[80.222899,13.10352],[80.223229,13.103483],[80.223528,13.103452],[80.223847,13.103416],[80.224027,13.10339],[80.224154,13.103379],[80.224417,13.103351],[80.224641,13.103318],[80.224918,13.103294],[80.225276,13.103258],[80.225491,13.103229],[80.225771,13.103196],[80.226073,13.103158],[80.22634,13.103119],[80.226495,13.103103],[80.226737,13.103076],[80.226951,13.103045],[80.227295,13.103],[80.227542,13.102978],[80.227826,13.102937],[80.228058,13.102919],[80.228354,13.102883],[80.229045,13.102726],[80.229236,13.102664],[80.229443,13.102602],[80.229672,13.102571],[80.229913,13.102552],[80.230086,13.102522],[80.230283,13.102513],[80.230412,13.102501],[80.230572,13.10247],[80.230728,13.102468],[80.23082,13.102466],[80.230974,13.102457],[80.231172,13.102425],[80.231298,13.102406],[80.231477,13.102376],[80.231643,13.10235],[80.231831,13.102314],[80.232029,13.102273],[80.232212,13.102235],[80.232463,13.10217],[80.232749,13.102119],[80.232939,13.102072],[80.233153,13.102041],[80.23342,13.101988],[80.23362,13.101938],[80.233821,13.1019],[80.234038,13.101871],[80.234267,13.101842],[80.234498,13.101811],[80.23479,13.101791],[80.235027,13.101768],[80.235281,13.101769],[80.23543,13.101745],[80.235557,13.101721],[80.235845,13.10167],[80.236117,13.101627],[80.236308,13.101583],[80.236637,13.101511],[80.236945,13.101447],[80.237108,13.101417],[80.237452,13.101349],[80.237699,13.101304],[80.237804,13.101272],[80.238081,13.101227],[80.238426,13.101154],[80.238709,13.101095],[80.239025,13.10103],[80.239349,13.100963],[80.239644,13.10089],[80.23987,13.100852],[80.240138,13.100816],[80.240354,13.100786],[80.240538,13.100765],[80.240734,13.100731],[80.240968,13.100706],[80.241237,13.100672],[80.241499,13.100638],[80.241763,13.10062],[80.241996,13.100593],[80.242243,13.100562],[80.242346,13.100558],[80.242544,13.100541],[80.242773,13.100516],[80.242947,13.100491],[80.243074,13.100475],[80.24324,13.100459],[80.243434,13.100437],[80.243587,13.100403],[80.243673,13.100388],[80.243865,13.100321],[80.244,13.100251],[80.244201,13.100162],[80.244368,13.100076],[80.244558,13.099991],[80.24472,13.0999],[80.24479,13.099874],[80.244928,13.099789],[80.24516,13.099686],[80.245292,13.099619],[80.245464,13.099538],[80.24562,13.09947],[80.245809,13.099379],[80.246006,13.09929],[80.246223,13.09919],[80.24642,13.099101],[80.246433,13.099095],[80.246606,13.099002],[80.246676,13.098954],[80.246765,13.098889],[80.246831,13.098831],[80.246875,13.098761]]}},{"type":"Feature","properties":{"name":"Anti-Malarial Drain"},"geometry":{"type":"LineString","coordinates":[[80.266882,13.098441],[80.266923,13.098524],[80.266948,13.09857],[80.267007,13.098643],[80.267114,13.098808],[80.267204,13.098944],[80.267307,13.099102],[80.267477,13.099328],[80.267659,13.0995],[80.267875,13.099678],[80.267885,13.09977],[80.267938,13.100095],[80.268004,13.100443],[80.268049,13.100755],[80.268121,13.101306],[80.268197,13.101829],[80.268225,13.102015],[80.26825,13.102263],[80.268314,13.102446],[80.268422,13.102556],[80.26858,13.102614],[80.268751,13.102639],[80.268922,13.102682],[80.269016,13.102775],[80.269046,13.102867],[80.269057,13.103103],[80.269071,13.103459],[80.269106,13.103907],[80.269158,13.104259],[80.269254,13.105032],[80.269255,13.105197],[80.269293,13.105453]]}},{"type":"Feature","properties":{"name":"Padikuppam Drain"},"geometry":{"type":"LineString","coordinates":[[80.191181,13.09526],[80.191188,13.095088],[80.191204,13.094944],[80.191218,13.094788],[80.191236,13.09461],[80.191248,13.094484],[80.191276,13.094354],[80.191292,13.094065],[80.191336,13.093698],[80.191394,13.093235],[80.191444,13.092908],[80.191465,13.092676],[80.191491,13.09243],[80.191512,13.092301],[80.191592,13.092122],[80.191678,13.091929],[80.191741,13.091767],[80.191806,13.091529],[80.19191,13.091261],[80.192079,13.090808],[80.19217,13.090264],[80.192226,13.089977],[80.192251,13.089592],[80.192303,13.08921],[80.192283,13.088812],[80.192225,13.088372],[80.192177,13.088049],[80.19213,13.087719],[80.192019,13.087378],[80.191991,13.087298],[80.191926,13.08711],[80.191825,13.08692],[80.191723,13.086661],[80.191605,13.086404],[80.191475,13.086101],[80.191331,13.085791],[80.191197,13.085608],[80.191026,13.085282],[80.190962,13.085055],[80.190769,13.084696],[80.190587,13.084118],[80.190498,13.08389],[80.190345,13.083488],[80.190173,13.083074],[80.190107,13.082925],[80.190018,13.082719],[80.189901,13.082377],[80.189784,13.082114],[80.189702,13.0819],[80.1897,13.081891],[80.189624,13.081691],[80.189567,13.081513],[80.189512,13.081385],[80.189462,13.081186],[80.189424,13.081046],[80.189399,13.080939],[80.189355,13.080793],[80.189309,13.080654],[80.189276,13.080526],[80.189257,13.080454],[80.189212,13.080283],[80.189192,13.080123],[80.189188,13.080058],[80.189251,13.079998],[80.189321,13.079923],[80.189413,13.079852],[80.189505,13.079771],[80.189582,13.079723],[80.189725,13.079668],[80.189809,13.07965],[80.189863,13.079609],[80.18995,13.079552],[80.190033,13.079502],[80.190109,13.079429],[80.190179,13.079379],[80.190265,13.079307],[80.190345,13.079255],[80.190402,13.079221],[80.190483,13.079176],[80.19055,13.079142],[80.190625,13.079093],[80.190678,13.079048],[80.190748,13.078997],[80.190765,13.078959],[80.190771,13.078901],[80.190782,13.078848],[80.190822,13.078804],[80.190885,13.078736],[80.190987,13.078679],[80.191091,13.078606],[80.191186,13.078543],[80.191294,13.078483],[80.191377,13.078434],[80.191475,13.078372],[80.191513,13.078373],[80.191536,13.078411],[80.191572,13.078427],[80.191591,13.078413],[80.191681,13.078376],[80.191807,13.078392],[80.191885,13.078433],[80.192,13.07849],[80.192124,13.078553],[80.192197,13.078612],[80.192258,13.078685],[80.192353,13.078767],[80.192449,13.078871],[80.192533,13.078951],[80.192594,13.079023],[80.192664,13.07907],[80.19273,13.079102],[80.192784,13.079075],[80.192845,13.079023],[80.192911,13.078983],[80.193007,13.078937],[80.193075,13.078879],[80.193225,13.078795],[80.193371,13.078688]]}},{"type":"Feature","properties":{"name":"Ambattur SIDCO Drain"},"geometry":{"type":"LineString","coordinates":[[80.171539,13.088438],[80.171614,13.088368],[80.171611,13.088183],[80.171596,13.087967],[80.171569,13.087761],[80.171541,13.0874],[80.171545,13.087228],[80.171514,13.086992],[80.171501,13.086793],[80.171478,13.086584],[80.171464,13.086481],[80.171446,13.086386],[80.171352,13.086335],[80.171301,13.086289],[80.171306,13.086169],[80.171313,13.08601],[80.171331,13.085835],[80.171353,13.085732],[80.17139,13.085667],[80.171415,13.085621],[80.171445,13.08558],[80.171543,13.085554],[80.171641,13.085574],[80.171721,13.085575],[80.17179,13.085531],[80.17182,13.085439],[80.171872,13.08529],[80.171882,13.085156],[80.17188,13.085145],[80.171898,13.084963],[80.171939,13.084784],[80.171959,13.084618],[80.171992,13.084473],[80.171993,13.084459],[80.171993,13.084452],[80.17201,13.08433],[80.172057,13.084258],[80.172158,13.084206],[80.172301,13.084169],[80.172478,13.084125],[80.172598,13.084093],[80.172786,13.084022],[80.172865,13.08396],[80.172919,13.083825],[80.172922,13.083819],[80.172965,13.083638],[80.173041,13.083391],[80.173131,13.083137],[80.173226,13.082797],[80.17336,13.082408],[80.17346,13.08208],[80.173551,13.081748],[80.173672,13.08135],[80.173777,13.081025],[80.173873,13.08069],[80.173966,13.08036],[80.174075,13.080036],[80.174215,13.079573],[80.174333,13.079234],[80.174426,13.07894],[80.174507,13.078689],[80.174588,13.078375],[80.174664,13.078137],[80.1747,13.077918],[80.174813,13.077833],[80.174949,13.077692],[80.175149,13.07751],[80.175326,13.077373],[80.175543,13.077189],[80.175725,13.077038],[80.175925,13.076866],[80.176133,13.076696],[80.176374,13.076491],[80.17658,13.076333],[80.176723,13.076229],[80.176851,13.076117],[80.176962,13.076031],[80.177196,13.076003],[80.177375,13.076013],[80.177597,13.076013],[80.177736,13.076016],[80.177778,13.075999],[80.17779,13.075881],[80.177801,13.075763],[80.177798,13.075634],[80.177813,13.075319],[80.177813,13.075194],[80.177822,13.075015],[80.177826,13.074871],[80.177826,13.074681],[80.177874,13.074599],[80.177956,13.074538],[80.178092,13.074459],[80.178221,13.074383],[80.178378,13.074301],[80.178559,13.074201],[80.178652,13.074151],[80.178654,13.074148],[80.178787,13.074062],[80.178888,13.074002],[80.178961,13.073951],[80.17899,13.073895],[80.178986,13.073833],[80.178988,13.073774],[80.179025,13.073727],[80.179094,13.073695],[80.179211,13.073685],[80.179282,13.073674],[80.179427,13.07366],[80.179604,13.073643],[80.179756,13.073626],[80.179916,13.073595],[80.180064,13.07357],[80.180159,13.073529],[80.180212,13.073478],[80.180224,13.073387],[80.180233,13.073294],[80.180234,13.073286],[80.180246,13.073188],[80.18027,13.073086],[80.180365,13.073068],[80.180434,13.073052],[80.180511,13.073045],[80.180584,13.073051],[80.180605,13.073074],[80.180626,13.073111],[80.180662,13.073105],[80.180783,13.0731],[80.180826,13.073097],[80.180925,13.073075],[80.181002,13.073022],[80.181015,13.072907],[80.181032,13.072731],[80.181073,13.072608],[80.181127,13.072533],[80.181298,13.072492],[80.181546,13.072425],[80.181768,13.072358],[80.181944,13.072339],[80.182194,13.072334],[80.182202,13.072232],[80.182237,13.072047]]}},{"type":"Feature","properties":{"name":"Nolambur Drain"},"geometry":{"type":"LineString","coordinates":[[80.165094,13.081015],[80.165078,13.080852],[80.165046,13.080535],[80.165037,13.080286],[80.165045,13.080072],[80.165076,13.079923],[80.165131,13.079809],[80.165234,13.079719],[80.165386,13.079689],[80.165613,13.079663],[80.165723,13.079648],[80.165867,13.07963],[80.165877,13.07963],[80.165887,13.07963],[80.166009,13.079657],[80.166094,13.079717],[80.166203,13.079827],[80.166304,13.079934],[80.1664,13.080003],[80.166465,13.080034],[80.166533,13.080027],[80.166579,13.080001],[80.166617,13.079993],[80.166713,13.07994],[80.166869,13.0799],[80.167003,13.079885],[80.167154,13.079868],[80.167246,13.079858],[80.167442,13.079829],[80.167611,13.079795],[80.167734,13.07977],[80.167832,13.079711],[80.167846,13.079615],[80.167889,13.079501],[80.167957,13.079406],[80.168042,13.079307],[80.168153,13.079199],[80.168298,13.079129],[80.168499,13.07908],[80.168676,13.079023],[80.168911,13.078968],[80.169056,13.078935],[80.169209,13.078879],[80.169434,13.078859],[80.169444,13.078857],[80.169447,13.078857],[80.169653,13.078842],[80.169794,13.078846],[80.169959,13.078839],[80.170174,13.078839],[80.170184,13.078839],[80.17043,13.07881],[80.170755,13.078807],[80.171049,13.078808],[80.171231,13.078817],[80.171371,13.078816],[80.171543,13.078792],[80.171748,13.07876],[80.171755,13.078758],[80.171983,13.078727],[80.172273,13.078675],[80.172462,13.078626],[80.172669,13.078567],[80.172834,13.078516],[80.173137,13.078398],[80.173569,13.078254],[80.173998,13.078159],[80.174313,13.078041],[80.174716,13.077922]]}},{"type":"Feature","properties":{"name":"Otteri Nullah - Cooum Link"},"geometry":{"type":"LineString","coordinates":[[80.217842,13.080599],[80.217804,13.080819],[80.217815,13.08104],[80.217861,13.081519],[80.217887,13.081833],[80.217893,13.082126],[80.217893,13.082473],[80.217921,13.083012],[80.217926,13.0834],[80.217932,13.083747],[80.217928,13.084073],[80.217921,13.084348],[80.217996,13.084494],[80.218058,13.084567],[80.218066,13.084716],[80.217992,13.084841],[80.217979,13.085015],[80.217981,13.085275],[80.217998,13.085531],[80.217999,13.085857],[80.218016,13.086101],[80.218039,13.086381],[80.21805,13.08674],[80.218069,13.087388],[80.218091,13.087924],[80.218119,13.088371],[80.218147,13.08884],[80.218166,13.089392],[80.218177,13.089842],[80.218207,13.090556],[80.218235,13.091021],[80.218238,13.091267],[80.218253,13.09166],[80.218253,13.092001],[80.218303,13.092171],[80.218323,13.092227],[80.218295,13.09235],[80.218294,13.092486],[80.2183,13.09258],[80.218309,13.092919],[80.218306,13.09324],[80.218336,13.093521],[80.218338,13.094036]]}},{"type":"Feature","properties":{"name":"Nungambakkam Drain"},"geometry":{"type":"LineString","coordinates":[[80.244841,13.06286],[80.245119,13.062814],[80.245312,13.062769],[80.245453,13.062746],[80.245585,13.06276],[80.245707,13.062807],[80.245839,13.062881],[80.246003,13.063011],[80.246106,13.063122],[80.246205,13.063265],[80.246327,13.063395],[80.246444,13.063423],[80.246618,13.063442],[80.246792,13.063437],[80.247004,13.063392],[80.247225,13.063411],[80.24739,13.063439],[80.248213,13.063342],[80.248948,13.063095],[80.249645,13.062913],[80.250668,13.062582],[80.250984,13.062472],[80.251285,13.06238],[80.251601,13.062275],[80.251754,13.062211],[80.2519,13.062008],[80.251944,13.061762],[80.251989,13.061467],[80.252013,13.06128],[80.252023,13.061206],[80.252058,13.061165],[80.252124,13.061172],[80.252192,13.061177],[80.252284,13.0612],[80.252371,13.06121],[80.252531,13.061242],[80.252625,13.061259],[80.252707,13.06127],[80.25298,13.061315],[80.253326,13.061371],[80.253521,13.061453],[80.253617,13.061656],[80.253754,13.061962],[80.253836,13.062214],[80.253922,13.062521],[80.254023,13.062724],[80.254498,13.062834],[80.255024,13.062863],[80.255504,13.062947],[80.255716,13.062962]]}},{"type":"Feature","properties":{"name":"Mambalam Drain"},"geometry":{"type":"LineString","coordinates":[[80.243157,13.052413],[80.243247,13.0524],[80.24382,13.052239],[80.244421,13.052075],[80.245604,13.051524],[80.245855,13.051479],[80.245964,13.051377],[80.246327,13.051285],[80.246581,13.051258],[80.246786,13.051004],[80.247151,13.050163],[80.247178,13.049991],[80.247151,13.049875],[80.247071,13.049777],[80.247007,13.04968],[80.246957,13.049559],[80.24683,13.049336],[80.246815,13.049176],[80.246844,13.049071],[80.246874,13.049009],[80.246901,13.048958],[80.246915,13.048908],[80.246849,13.048815],[80.246794,13.048687],[80.246714,13.048615],[80.246678,13.048476],[80.246645,13.048396],[80.246661,13.048295],[80.246707,13.048217],[80.246759,13.048109],[80.24681,13.048004],[80.246858,13.047894],[80.246874,13.047827],[80.246943,13.047484],[80.24697,13.04734],[80.24698,13.047182],[80.246986,13.04707],[80.246995,13.046949],[80.247004,13.046625],[80.247021,13.046487],[80.247027,13.046282],[80.247042,13.046149],[80.247095,13.045797],[80.247149,13.045563],[80.247146,13.045127],[80.247146,13.04493],[80.247127,13.044805],[80.247066,13.04452],[80.246925,13.043787],[80.246889,13.043591],[80.246857,13.043404],[80.246714,13.042697],[80.24661,13.042229],[80.246458,13.041645],[80.246412,13.041376],[80.246363,13.04115],[80.24624,13.040562],[80.246083,13.0402],[80.245936,13.039872],[80.245709,13.039213],[80.24561,13.039081],[80.245466,13.038872],[80.245397,13.038683],[80.245036,13.037838],[80.244931,13.037537],[80.244687,13.036959],[80.244587,13.036496],[80.244511,13.036229],[80.244384,13.035867],[80.244135,13.035345],[80.243935,13.035096],[80.243687,13.03496],[80.24336,13.034817],[80.242929,13.034564],[80.242747,13.034204],[80.242657,13.034027],[80.242532,13.03363],[80.242386,13.033433],[80.242241,13.033338],[80.241851,13.033012],[80.241566,13.03282],[80.24113,13.032526],[80.240794,13.032469],[80.240135,13.032323],[80.239713,13.03226],[80.2394,13.03219],[80.239227,13.03212],[80.23849,13.031964],[80.238105,13.031941],[80.237278,13.031728],[80.236909,13.031669],[80.235652,13.031455],[80.235138,13.031345],[80.234324,13.031196],[80.233831,13.031106],[80.23279,13.030897],[80.231593,13.030657],[80.2305,13.030439],[80.230206,13.030343],[80.229976,13.030189],[80.229762,13.02994],[80.229609,13.029774],[80.229374,13.029486],[80.229214,13.02927],[80.229057,13.029154],[80.228736,13.028965],[80.228516,13.028878],[80.228109,13.028702],[80.227817,13.028552],[80.227697,13.028413],[80.227605,13.028272],[80.227494,13.027782],[80.227429,13.027535],[80.22735,13.027339],[80.227247,13.027219],[80.227125,13.027058],[80.227137,13.026925],[80.227264,13.026769],[80.227501,13.026625],[80.227677,13.026553],[80.227786,13.026447],[80.227853,13.026367],[80.228189,13.026056],[80.228401,13.025821],[80.22872,13.025508],[80.228907,13.025273],[80.229023,13.025142],[80.229467,13.024707],[80.229594,13.024594],[80.230134,13.024192],[80.230868,13.023922],[80.23174,13.023367],[80.232417,13.022996],[80.233188,13.022606],[80.233744,13.022273],[80.234087,13.021996],[80.234685,13.022192],[80.235433,13.022488],[80.235702,13.022468],[80.235849,13.022395],[80.236159,13.022271],[80.236269,13.022208],[80.236389,13.022086],[80.236584,13.021648],[80.236843,13.02149],[80.23699,13.021421]]}},{"type":"Feature","properties":{"name":"Reddykuppam drain"},"geometry":{"type":"LineString","coordinates":[[80.224113,13.026982],[80.224153,13.026923],[80.224198,13.02687],[80.224275,13.026851],[80.224365,13.02683],[80.224471,13.026798],[80.224538,13.026745],[80.224668,13.026742],[80.224892,13.026708],[80.224989,13.026636],[80.225102,13.026503],[80.225122,13.026373],[80.225175,13.02626],[80.225263,13.026198],[80.225391,13.026195],[80.225526,13.026191],[80.225622,13.026161],[80.226067,13.026249],[80.226422,13.026273],[80.226738,13.026244],[80.226879,13.026275],[80.226967,13.026267],[80.227169,13.026261],[80.227321,13.026229],[80.227413,13.026213],[80.227605,13.026143],[80.227724,13.026123],[80.227878,13.0261],[80.227992,13.02607],[80.228113,13.026038],[80.228192,13.026003],[80.228255,13.025977],[80.228264,13.025968]]}},{"type":"Feature","properties":{"name":"Nandhanam Drain"},"geometry":{"type":"LineString","coordinates":[[80.243601,13.034924],[80.243334,13.034095],[80.243175,13.033746],[80.243205,13.03367],[80.243671,13.033152],[80.241741,13.031856],[80.241679,13.031692],[80.241706,13.031496],[80.241598,13.031105],[80.241344,13.030324],[80.241216,13.029709],[80.241039,13.029021],[80.240864,13.028481],[80.240737,13.028081],[80.240676,13.027643],[80.240559,13.027234],[80.240499,13.026899],[80.240488,13.026703],[80.240421,13.026592]]}},{"type":"Feature","properties":{"name":"MGR canal"},"geometry":{"type":"LineString","coordinates":[[80.204613,13.040196],[80.204377,13.03878],[80.20424,13.037907],[80.203969,13.036136],[80.203952,13.035574],[80.203841,13.035311],[80.203756,13.035162],[80.203651,13.03503],[80.203512,13.034957],[80.203394,13.034764],[80.20331,13.034641],[80.203163,13.034421],[80.2031,13.03423],[80.203063,13.034081],[80.203017,13.033933],[80.20298,13.033746],[80.202931,13.033558],[80.202863,13.033379],[80.202824,13.033242],[80.202798,13.033023],[80.202739,13.032834],[80.202561,13.032563],[80.202384,13.032406],[80.202215,13.032316],[80.202088,13.032266],[80.201957,13.032173],[80.20189,13.03209],[80.201834,13.031983],[80.201762,13.031905],[80.201563,13.03196],[80.201197,13.031979],[80.20109,13.031966],[80.201025,13.031957],[80.200979,13.031847],[80.200853,13.031806],[80.20052,13.031786],[80.200054,13.031789],[80.199897,13.031811],[80.19972,13.031904],[80.199413,13.031957],[80.199016,13.031953],[80.198809,13.031906],[80.198725,13.031795],[80.198619,13.03159],[80.19849,13.031489],[80.198214,13.031528],[80.198053,13.031543],[80.197817,13.031498],[80.197521,13.031414],[80.197421,13.031354],[80.197362,13.031289],[80.197289,13.031204],[80.197171,13.031075],[80.197161,13.030975],[80.1972,13.030874],[80.197301,13.030682],[80.197331,13.03061],[80.197307,13.030472],[80.197329,13.030269],[80.197311,13.030102],[80.197226,13.02992],[80.197199,13.029795],[80.197179,13.029678],[80.197162,13.029562],[80.19717,13.029378],[80.197174,13.029263],[80.197178,13.029168]]}},{"type":"Feature","properties":{"name":"Kodungaiyur Canal1"},"geometry":{"type":"LineString","coordinates":[[80.235677,13.129459],[80.235718,13.12948],[80.235755,13.129521],[80.235758,13.129557],[80.235765,13.129618],[80.235771,13.129699],[80.235764,13.129787],[80.235763,13.12988],[80.235767,13.129971],[80.235769,13.130061],[80.235767,13.130169],[80.235754,13.130305],[80.235746,13.130423],[80.235739,13.13053],[80.235734,13.130655],[80.235728,13.130783],[80.235723,13.130886],[80.235722,13.130963],[80.235739,13.13102],[80.235751,13.131065],[80.235783,13.131085],[80.23587,13.131102],[80.235958,13.131109],[80.236044,13.131117],[80.236108,13.131122],[80.236202,13.131141],[80.236258,13.131141],[80.236386,13.131152],[80.236528,13.131169],[80.236649,13.131192],[80.236767,13.13121],[80.236898,13.131219],[80.237016,13.131234],[80.237169,13.131251],[80.237309,13.131269],[80.237441,13.131286],[80.237539,13.131301],[80.237622,13.131311],[80.237709,13.131285],[80.237781,13.131253],[80.237865,13.131205],[80.237961,13.131165],[80.238052,13.131168],[80.238118,13.131166],[80.238167,13.131165],[80.238248,13.131155],[80.238308,13.131173],[80.23836,13.131229],[80.238413,13.131288],[80.238489,13.131327],[80.238541,13.13136],[80.238604,13.131378],[80.238682,13.131377],[80.238741,13.131357],[80.238795,13.131321],[80.238858,13.131282],[80.238932,13.131241],[80.238989,13.131223],[80.239047,13.131222],[80.239119,13.131232],[80.239196,13.131225],[80.23927,13.131214],[80.239345,13.131197],[80.239405,13.131182],[80.239504,13.131157],[80.239618,13.13113],[80.239725,13.131097],[80.239832,13.131049],[80.239914,13.130999],[80.240006,13.130949],[80.240138,13.130907],[80.240237,13.130852],[80.24033,13.130794],[80.240397,13.130739],[80.240453,13.1307],[80.240511,13.130659],[80.240553,13.13061],[80.240596,13.130545],[80.240644,13.130484],[80.24069,13.13043],[80.240745,13.130404],[80.240793,13.130384],[80.24083,13.130375],[80.240855,13.130397],[80.240905,13.130435],[80.240932,13.130467],[80.240988,13.130496],[80.241021,13.130533],[80.24105,13.13056],[80.241091,13.130598],[80.24113,13.130633],[80.241161,13.130669],[80.241202,13.130696],[80.241248,13.130701],[80.241326,13.13069],[80.241392,13.130666],[80.241466,13.130623],[80.241508,13.130583],[80.241538,13.13054],[80.24158,13.130508],[80.241618,13.130474],[80.241669,13.130452],[80.241748,13.130442],[80.241813,13.130441],[80.241904,13.130412],[80.241982,13.130396],[80.24206,13.130372],[80.242131,13.130329],[80.242199,13.130305],[80.242267,13.130276],[80.242308,13.13025],[80.242362,13.130204],[80.242444,13.130161],[80.242502,13.130136],[80.242548,13.130111],[80.242615,13.130079],[80.242696,13.130057],[80.242772,13.130052],[80.242853,13.13003],[80.242913,13.130021],[80.242997,13.129998],[80.243086,13.12997],[80.243191,13.129929],[80.243264,13.129883],[80.243358,13.129836],[80.243445,13.129822],[80.243505,13.129813],[80.243573,13.129789],[80.243667,13.129752],[80.243737,13.129716],[80.243817,13.129671],[80.243901,13.129647],[80.24397,13.129633],[80.244062,13.12962],[80.244141,13.129608],[80.244237,13.129603],[80.244295,13.129596],[80.244349,13.129595],[80.244351,13.129595],[80.2444,13.129619],[80.244453,13.129633],[80.244521,13.129634],[80.244594,13.129629],[80.244698,13.129621],[80.244814,13.129613],[80.244905,13.129607],[80.245005,13.129591],[80.245103,13.129567],[80.245164,13.129553],[80.245238,13.129538],[80.245315,13.129529],[80.245384,13.1295],[80.24544,13.129482],[80.245513,13.129461],[80.245614,13.129438],[80.245699,13.129435],[80.245782,13.129438],[80.245857,13.129429],[80.245927,13.129416],[80.246007,13.129424],[80.246096,13.129423],[80.246154,13.129415],[80.246218,13.129403],[80.246296,13.129391],[80.246367,13.129387],[80.246437,13.129383],[80.246519,13.129378],[80.246581,13.129386],[80.246653,13.129398],[80.246703,13.129399],[80.246757,13.129416],[80.246817,13.12943],[80.246821,13.12943],[80.246862,13.129461],[80.246892,13.129508],[80.246947,13.129551],[80.246988,13.129575],[80.247033,13.1296],[80.247076,13.129627],[80.247134,13.129656],[80.247175,13.129671],[80.247234,13.129708],[80.247314,13.12975],[80.247395,13.129788],[80.247476,13.129822],[80.247582,13.129854],[80.247675,13.129882],[80.247746,13.129897],[80.247802,13.129891],[80.247856,13.129882],[80.247912,13.129874],[80.247974,13.129872],[80.248045,13.129879],[80.248078,13.129889],[80.248129,13.129922],[80.248131,13.129922],[80.248182,13.129942],[80.248185,13.129942],[80.248236,13.129944],[80.24824,13.129945],[80.24825,13.129945],[80.248254,13.129945],[80.24831,13.129942],[80.248313,13.129942],[80.248366,13.129955],[80.248371,13.129956],[80.248432,13.129975],[80.24849,13.129996],[80.248574,13.130009],[80.248647,13.130007],[80.248653,13.130007],[80.248759,13.130027],[80.248891,13.130049],[80.249029,13.130068],[80.249154,13.130093],[80.249266,13.130114],[80.249342,13.130133],[80.249408,13.130151],[80.249471,13.130172],[80.249537,13.1302],[80.24961,13.130236],[80.24967,13.130281],[80.249725,13.130334],[80.249785,13.13039],[80.249844,13.130443],[80.249909,13.130494],[80.249972,13.130554],[80.250034,13.130614],[80.250082,13.130668],[80.250121,13.130711],[80.250174,13.130768],[80.250243,13.130818],[80.250308,13.130865],[80.25037,13.130905],[80.250441,13.130939],[80.250486,13.130967],[80.250542,13.130996],[80.250603,13.131018],[80.250656,13.131042],[80.250708,13.131084],[80.250762,13.131126],[80.25081,13.131168],[80.250871,13.131212],[80.250907,13.131238],[80.250978,13.131299],[80.251014,13.131338],[80.251054,13.131376],[80.251114,13.131412],[80.251185,13.131455],[80.251245,13.131487],[80.251322,13.131539],[80.251381,13.131568],[80.251443,13.131608],[80.251519,13.131643],[80.251582,13.131681],[80.251657,13.131718],[80.251742,13.131761],[80.251795,13.131794],[80.251868,13.13184],[80.251968,13.131898],[80.252058,13.131946],[80.252147,13.132002],[80.252235,13.132058],[80.252351,13.132103],[80.25244,13.132134],[80.252527,13.132167],[80.25259,13.132196],[80.252641,13.13221],[80.252717,13.132223],[80.252794,13.132242],[80.252872,13.132269],[80.252939,13.132297],[80.253008,13.132356],[80.253047,13.132395],[80.25308,13.132448],[80.253104,13.132515],[80.253124,13.132575],[80.253131,13.132628],[80.253144,13.132684],[80.253159,13.13274],[80.253186,13.132812],[80.253207,13.132892],[80.253247,13.132963],[80.253282,13.133036],[80.253301,13.133116],[80.253309,13.133192],[80.253319,13.133267],[80.253322,13.133344],[80.253324,13.133422],[80.25332,13.133497],[80.253323,13.133568],[80.253327,13.133642],[80.253332,13.133744],[80.253333,13.133811],[80.253335,13.133875],[80.253345,13.133944],[80.253356,13.134023],[80.253369,13.134091],[80.253381,13.134177],[80.253389,13.134242],[80.253395,13.134329],[80.253409,13.134418],[80.253421,13.134467],[80.253431,13.134527],[80.253437,13.134601],[80.253447,13.13469],[80.253455,13.134763],[80.253464,13.134854],[80.25347,13.134932],[80.25349,13.135044],[80.25351,13.13513],[80.253517,13.135216],[80.253537,13.1353],[80.253548,13.135361],[80.253567,13.135424],[80.25359,13.135485],[80.253619,13.135529],[80.253638,13.135562],[80.253664,13.135586],[80.253699,13.135606]]}},{"type":"Feature","properties":{"name":"Nanadambakkam drain"},"geometry":{"type":"LineString","coordinates":[[80.169093,13.013088],[80.169063,13.012608],[80.169012,13.012242],[80.169017,13.012043],[80.168951,13.012016],[80.168691,13.012065],[80.168667,13.012064],[80.168662,13.01142],[80.168622,13.011071],[80.168348,13.011076],[80.168339,13.010797],[80.168386,13.010663],[80.168394,13.010349],[80.168371,13.010146],[80.168198,13.009193],[80.168874,13.00898],[80.168661,13.00776],[80.167736,13.007784],[80.167553,13.006411],[80.16737,13.006313],[80.167297,13.00631],[80.167245,13.005991]]}},{"type":"Feature","properties":{"name":"Nanadambakkam drain"},"geometry":{"type":"LineString","coordinates":[[80.16701,13.013052],[80.166984,13.012716],[80.166952,13.012664],[80.166742,13.012541],[80.166743,13.012315],[80.166781,13.012236],[80.166947,13.012215],[80.166956,13.011763],[80.166938,13.011576],[80.166973,13.011443],[80.166953,13.010927],[80.166932,13.010772],[80.166935,13.0107],[80.166446,13.010725],[80.166294,13.010685],[80.166303,13.010323],[80.166251,13.009627],[80.166159,13.0093],[80.16595,13.008662],[80.165755,13.006545],[80.165923,13.006283],[80.165907,13.005985]]}},{"type":"Feature","properties":{"name":"Raj Bhavan Canal"},"geometry":{"type":"LineString","coordinates":[[80.214942,12.988807],[80.215024,12.98902],[80.215019,12.989076],[80.215079,12.989356],[80.215163,12.989694],[80.215235,12.990027],[80.215215,12.990095],[80.215234,12.990255],[80.215267,12.990386],[80.215305,12.990384],[80.215299,12.990487],[80.215033,12.990568],[80.21471,12.990657],[80.214541,12.990788],[80.214327,12.990981],[80.21417,12.991076],[80.213953,12.991181],[80.213922,12.991197],[80.214035,12.991494],[80.214165,12.991816],[80.214293,12.99214],[80.214397,12.992379],[80.214403,12.992475],[80.214034,12.992638],[80.213846,12.992722],[80.21381,12.992801],[80.213879,12.992951],[80.214044,12.993164],[80.214131,12.993201],[80.214339,12.993326],[80.214514,12.993511],[80.214699,12.993823],[80.214778,12.993972],[80.214914,12.994065],[80.215055,12.994034],[80.215182,12.993978],[80.215337,12.993965],[80.215511,12.993911],[80.215561,12.993865],[80.21567,12.993831],[80.2159,12.993798],[80.216077,12.994061],[80.216376,12.994489],[80.216533,12.994709],[80.21652,12.994823],[80.216646,12.995005],[80.216778,12.99502],[80.216847,12.995089],[80.216861,12.99514],[80.216946,12.995265],[80.217388,12.995526]]}},{"type":"Feature","properties":{"name":"Nandhambakkam drain"},"geometry":{"type":"LineString","coordinates":[[80.164739,13.025605],[80.164944,13.025603],[80.165236,13.025618],[80.165428,13.025612],[80.165499,13.025653],[80.165578,13.025643],[80.165815,13.025637],[80.165987,13.025635],[80.16619,13.025631],[80.166383,13.025646],[80.166768,13.025664],[80.166912,13.025662],[80.167043,13.025663],[80.167068,13.025679],[80.16714,13.025685],[80.167235,13.025674],[80.167278,13.02566],[80.167361,13.025656],[80.167479,13.025672],[80.167561,13.025677],[80.167642,13.025677],[80.167781,13.025675],[80.167829,13.025624],[80.167905,13.025597],[80.167942,13.025573],[80.167946,13.025495],[80.168041,13.02547],[80.168129,13.025475],[80.168223,13.025475],[80.168349,13.025467],[80.168459,13.025471],[80.168571,13.025448],[80.168783,13.025404],[80.168934,13.025349],[80.169093,13.025323],[80.169242,13.025268],[80.169368,13.025234],[80.169496,13.025206],[80.169608,13.02519],[80.169801,13.025144],[80.169922,13.025116],[80.170053,13.025086],[80.170119,13.025069],[80.170265,13.024996],[80.170375,13.024918],[80.170456,13.024896],[80.170554,13.024879],[80.170648,13.024886],[80.170715,13.024929],[80.170757,13.024964],[80.170855,13.025001],[80.170929,13.025038],[80.171147,13.025093],[80.171259,13.02512],[80.171349,13.025141],[80.171413,13.025165],[80.171502,13.0252],[80.17156,13.025212],[80.171615,13.025212],[80.171661,13.025204],[80.17172,13.025113],[80.171721,13.025066],[80.171724,13.025015],[80.171732,13.024979],[80.17174,13.024957],[80.171874,13.024908],[80.171864,13.024829],[80.171894,13.024745],[80.171901,13.02467],[80.171913,13.0246],[80.171911,13.024545],[80.171926,13.024468],[80.171937,13.024447],[80.171969,13.024426],[80.172027,13.024427],[80.172065,13.024427],[80.172165,13.024447],[80.172287,13.024467],[80.172409,13.024487],[80.17249,13.024507],[80.172512,13.024528],[80.17274,13.024549],[80.172819,13.024598],[80.172936,13.024627],[80.173062,13.024652],[80.173123,13.02467],[80.173179,13.024712],[80.173322,13.02474],[80.173525,13.024791],[80.17364,13.024812],[80.1738,13.024839],[80.17389,13.024857],[80.173934,13.024873],[80.17404,13.024894],[80.174115,13.024917],[80.174217,13.024917],[80.174317,13.024878],[80.174381,13.02486],[80.174458,13.02485],[80.174518,13.024846],[80.174554,13.024846],[80.174624,13.02486],[80.174726,13.02482],[80.174843,13.024678],[80.1749,13.024557],[80.174981,13.024435],[80.175028,13.02429],[80.175098,13.024197],[80.175245,13.024117],[80.175287,13.024011],[80.175491,13.023977],[80.17564,13.023896],[80.175763,13.023875],[80.175909,13.023789],[80.176118,13.023703],[80.176247,13.023673],[80.176501,13.023665],[80.17666,13.023662],[80.176757,13.023664],[80.176828,13.023689],[80.177258,13.022763],[80.177319,13.022618],[80.177517,13.022437],[80.177739,13.022295],[80.177777,13.022186],[80.177761,13.022069],[80.177724,13.021846],[80.177718,13.021743],[80.177741,13.021619],[80.177776,13.021502],[80.177844,13.021409],[80.177993,13.021338],[80.178198,13.021315],[80.178417,13.021358],[80.178594,13.021471],[80.178671,13.021603],[80.178703,13.021719],[80.178786,13.021805],[80.178956,13.021853],[80.179046,13.02185],[80.179279,13.021855],[80.179405,13.021875],[80.179578,13.021818],[80.179737,13.021758],[80.179943,13.021705],[80.180106,13.021527],[80.180174,13.02145],[80.180229,13.021403],[80.180187,13.021207],[80.18013,13.020935],[80.180086,13.020793],[80.180092,13.020627],[80.180312,13.020453],[80.180454,13.020403],[80.180582,13.020405],[80.180634,13.02063],[80.180723,13.021073],[80.180789,13.021282],[80.180992,13.021404],[80.18123,13.021421],[80.181409,13.021468],[80.181538,13.021591],[80.181758,13.021795],[80.181875,13.021847],[80.182083,13.022009],[80.182288,13.022112],[80.182532,13.022246],[80.182659,13.022434],[80.18267,13.022604],[80.182638,13.022774],[80.182543,13.022992],[80.182463,13.023183],[80.182439,13.023386],[80.182526,13.023584],[80.182749,13.023813],[80.182837,13.023901],[80.18297,13.024184],[80.183019,13.024322],[80.183197,13.024553],[80.183273,13.024655],[80.183405,13.024769],[80.183577,13.024826],[80.183797,13.024773],[80.18402,13.024671],[80.184212,13.024588],[80.184311,13.024403],[80.184345,13.024232],[80.184496,13.024091],[80.184624,13.024039],[80.184916,13.023967],[80.185018,13.024246],[80.185195,13.024357],[80.185453,13.024282],[80.18555,13.024181],[80.18559,13.023838],[80.18565,13.023621],[80.185732,13.02342],[80.185768,13.023196],[80.18585,13.023074],[80.186775,13.02276],[80.186986,13.02263],[80.187125,13.022496],[80.1873,13.022359],[80.187461,13.022246],[80.187579,13.022182],[80.187749,13.022302],[80.187858,13.02229],[80.187998,13.022296],[80.188202,13.022492],[80.188436,13.022593],[80.188662,13.022594],[80.188797,13.022607]]}},{"type":"Feature","properties":{"name":"Chellammal College Drain"},"geometry":{"type":"LineString","coordinates":[[80.221033,13.012465],[80.221148,13.012602],[80.221178,13.012692],[80.221162,13.012846],[80.221185,13.012967],[80.221244,13.013207],[80.221285,13.013382],[80.221332,13.013586],[80.22134,13.013675],[80.221399,13.013903],[80.221457,13.014094],[80.221535,13.014303],[80.221613,13.014573],[80.221639,13.01482],[80.221693,13.015006],[80.221767,13.015318],[80.221825,13.015457],[80.22186,13.015676]]}},{"type":"Feature","properties":{"name":"Guindy Drain"},"geometry":{"type":"LineString","coordinates":[[80.205929,13.007868],[80.205962,13.008117],[80.205933,13.008316],[80.205902,13.008593],[80.205848,13.009072],[80.205813,13.009419],[80.205735,13.009818],[80.205709,13.01014],[80.20573,13.010294],[80.205779,13.010471],[80.205906,13.010656],[80.206193,13.011158],[80.206348,13.011483],[80.206492,13.011664],[80.20669,13.012068],[80.206911,13.012397],[80.207099,13.012755],[80.207196,13.012931],[80.207444,13.01306],[80.207598,13.013348],[80.207744,13.013729],[80.207865,13.013989],[80.20799,13.014212],[80.208159,13.014509],[80.208371,13.014885],[80.208408,13.015281],[80.208385,13.015482],[80.208368,13.015668],[80.208348,13.016121],[80.208325,13.016326],[80.208379,13.01654],[80.208542,13.016693],[80.209005,13.016927],[80.209354,13.017055],[80.20963,13.017109],[80.209892,13.0172],[80.210079,13.017381],[80.210233,13.017692],[80.210339,13.017812],[80.21026,13.018088],[80.210314,13.018311],[80.210348,13.018418],[80.210529,13.018352],[80.210828,13.018331],[80.211004,13.01832],[80.211122,13.018235],[80.211364,13.018205],[80.21166,13.018343],[80.211776,13.018501],[80.21196,13.018809],[80.21212,13.019015]]}},{"type":"Feature","properties":{"name":"Jafferkhanpet drain"},"geometry":{"type":"LineString","coordinates":[[80.213245,13.029033],[80.213206,13.028839],[80.213337,13.02878],[80.213158,13.028033],[80.213194,13.027942],[80.213113,13.027799],[80.21308,13.027801],[80.212951,13.027404],[80.212913,13.02714],[80.212864,13.027028],[80.21283,13.026906],[80.212796,13.026777],[80.212749,13.02657],[80.212721,13.026415],[80.212687,13.026319],[80.212662,13.026238],[80.212668,13.026178],[80.21266,13.0261],[80.212594,13.025885],[80.212544,13.025736],[80.212488,13.025609],[80.212391,13.025329],[80.212369,13.025269],[80.21234,13.025238],[80.212277,13.025225],[80.212185,13.025238],[80.212082,13.025229],[80.212019,13.025229],[80.211989,13.025205],[80.211775,13.025126],[80.211681,13.025099],[80.211607,13.025086],[80.211553,13.025046],[80.211553,13.025],[80.211549,13.024965],[80.211527,13.024931],[80.21145,13.024913],[80.211431,13.02491],[80.211314,13.024858],[80.211275,13.024854],[80.211238,13.024851],[80.211214,13.024839],[80.211208,13.024838]]}},{"type":"Feature","properties":{"name":"Manapakkam drain"},"geometry":{"type":"LineString","coordinates":[[80.169288,13.004919],[80.169373,13.005004],[80.169283,13.005187],[80.169201,13.005351],[80.169287,13.005663],[80.16944,13.005908],[80.169589,13.006514],[80.169597,13.00696],[80.16956,13.007134],[80.1697,13.007615],[80.169853,13.008003],[80.169997,13.008398],[80.170144,13.008717],[80.170149,13.008918],[80.170336,13.009038],[80.170472,13.009171],[80.170514,13.009444],[80.170667,13.009857],[80.170843,13.010335],[80.170926,13.01054],[80.171155,13.010672],[80.171148,13.011026],[80.171277,13.011172],[80.171694,13.011171],[80.17195,13.011128],[80.172311,13.011119],[80.172385,13.011357],[80.172396,13.011605],[80.172423,13.011854],[80.172498,13.012525],[80.172582,13.012983],[80.172539,13.013045],[80.172193,13.013062],[80.171662,13.013127],[80.171389,13.013178],[80.170434,13.013138],[80.168896,13.013079],[80.1687,13.013092],[80.168525,13.013059],[80.167931,13.013062],[80.167627,13.013014],[80.167406,13.012965],[80.167164,13.013064],[80.166871,13.013034],[80.166575,13.013048],[80.166395,13.013017],[80.166377,13.012964],[80.166358,13.012891],[80.166236,13.012879],[80.165962,13.012793],[80.16573,13.012693],[80.165608,13.012597],[80.165233,13.012587],[80.164985,13.012652],[80.164936,13.012727],[80.164908,13.013025],[80.164891,13.013263],[80.164892,13.013351],[80.164353,13.01334],[80.164009,13.013337],[80.163506,13.013361],[80.163222,13.013387],[80.163151,13.013641],[80.162846,13.013742],[80.162537,13.013764],[80.162497,13.013748],[80.16244,13.013681],[80.162151,13.013661],[80.161637,13.01368],[80.161447,13.013702],[80.161276,13.01375],[80.161153,13.013734],[80.160898,13.013695],[80.160606,13.013684],[80.160465,13.013677],[80.160445,13.013798],[80.160454,13.013927],[80.160221,13.013953],[80.160109,13.013978],[80.159748,13.013984],[80.159492,13.014012],[80.159344,13.014052],[80.158971,13.014094],[80.158862,13.014078],[80.15875,13.014012],[80.158695,13.014029],[80.158622,13.014251],[80.158519,13.01493],[80.158486,13.015073],[80.158161,13.015198],[80.158069,13.015305],[80.157414,13.01561],[80.157103,13.015675],[80.156912,13.015779],[80.156736,13.016024],[80.156632,13.016153],[80.156618,13.016291],[80.156564,13.016396],[80.156469,13.016425],[80.156388,13.016542],[80.156267,13.016627],[80.156063,13.016655],[80.155795,13.016612],[80.155682,13.016574],[80.15564,13.016487],[80.155523,13.016374],[80.155254,13.016381],[80.155102,13.016427],[80.154819,13.016457],[80.154716,13.016529],[80.154615,13.016824],[80.154598,13.017006],[80.154452,13.017262],[80.153988,13.01715],[80.15336,13.017043],[80.153041,13.016978],[80.152807,13.016965],[80.152324,13.017028],[80.151975,13.017089],[80.151677,13.017189],[80.151393,13.017212],[80.151253,13.017267],[80.150913,13.01729],[80.15075,13.017284],[80.150575,13.017239],[80.150405,13.01713],[80.149968,13.017122],[80.14972,13.017182],[80.148922,13.017381],[80.148384,13.017532],[80.14817,13.017623],[80.14811,13.017672],[80.147975,13.017702],[80.147794,13.017782],[80.14767,13.017764],[80.147487,13.017702],[80.147033,13.017648],[80.146801,13.017607],[80.146609,13.017558],[80.146457,13.017488],[80.14617,13.017451],[80.146025,13.017436],[80.145926,13.017379],[80.145874,13.017273],[80.14575,13.017211],[80.145556,13.017167],[80.145245,13.017151],[80.144998,13.017119],[80.144783,13.017076],[80.144433,13.01704],[80.144297,13.017046],[80.143872,13.016923],[80.143585,13.017022],[80.143283,13.017119],[80.142889,13.017174],[80.142576,13.017241],[80.142349,13.017261],[80.141817,13.017513],[80.14131,13.017796],[80.140928,13.017966],[80.140828,13.018002],[80.140687,13.017985],[80.140525,13.017939],[80.140356,13.0179],[80.140119,13.017704],[80.139963,13.01762],[80.139686,13.01764],[80.139451,13.017698],[80.139119,13.017968],[80.138923,13.018156],[80.138759,13.018161],[80.138475,13.018222],[80.138362,13.018298],[80.13827,13.018224],[80.138154,13.017986],[80.138036,13.017447],[80.137596,13.016974],[80.137307,13.016917],[80.136904,13.016815],[80.136521,13.016844],[80.13621,13.016966],[80.135994,13.016963],[80.135716,13.016876],[80.135141,13.016724],[80.13481,13.016644],[80.134174,13.016392],[80.133923,13.016275],[80.133669,13.016284],[80.133568,13.016497],[80.133298,13.016428],[80.132605,13.016188],[80.131612,13.016031],[80.131126,13.016023],[80.130564,13.01602],[80.132122,13.017155],[80.133388,13.018282],[80.134336,13.019146],[80.135528,13.020143],[80.136594,13.020976],[80.137878,13.022065],[80.138875,13.022862],[80.139261,13.023198],[80.139389,13.023503]]}},{"type":"Feature","properties":{"name":"Adambakkam Canal"},"geometry":{"type":"LineString","coordinates":[[80.195244,12.981327],[80.195231,12.981415],[80.195231,12.981479],[80.195228,12.981537],[80.19521,12.98159],[80.19517,12.981666],[80.195149,12.981753],[80.195163,12.981844],[80.195198,12.981925],[80.195243,12.98207],[80.195323,12.982181],[80.195452,12.982525],[80.195534,12.982743],[80.195599,12.982849],[80.195602,12.982956],[80.195661,12.983084],[80.195749,12.983272],[80.195708,12.983379],[80.195698,12.983382],[80.195644,12.983537],[80.19573,12.983797],[80.19583,12.98396],[80.19585,12.984136],[80.19587,12.984319],[80.196127,12.984437],[80.19632,12.984492],[80.19642,12.98468],[80.19647,12.984951],[80.196538,12.985201],[80.196631,12.985539],[80.196677,12.985866],[80.196794,12.986292],[80.196871,12.986623],[80.19692,12.986989],[80.19708,12.98745],[80.197086,12.987508],[80.197262,12.988117],[80.19727,12.988149],[80.197368,12.988417],[80.197515,12.989023],[80.19774,12.989821],[80.197848,12.990217],[80.197937,12.990594],[80.198018,12.990907],[80.19817,12.99128],[80.198361,12.99163],[80.198556,12.991971],[80.19867,12.992193]]}},{"type":"Feature","properties":{"name":"Pallikarani canal"},"geometry":{"type":"LineString","coordinates":[[80.211199,12.957469],[80.211022,12.957072],[80.210829,12.956684],[80.210763,12.956516],[80.210765,12.956434],[80.210837,12.956356],[80.21114,12.956226],[80.211854,12.955921],[80.213073,12.955419]]}},{"type":"Feature","properties":{"name":"Veerangal Odai canal"},"geometry":{"type":"LineString","coordinates":[[80.216462,12.963659],[80.215857,12.963895],[80.215825,12.964089],[80.215908,12.964347],[80.216043,12.964685],[80.21621,12.965168],[80.216383,12.965621],[80.216611,12.966087],[80.216782,12.966638],[80.217004,12.967243],[80.217213,12.967725],[80.217404,12.96823],[80.217283,12.968493],[80.216879,12.96864],[80.216496,12.968736],[80.216224,12.968881],[80.215945,12.969088],[80.215724,12.969239],[80.215469,12.969477],[80.214955,12.969911],[80.214558,12.970222],[80.214328,12.970379],[80.214232,12.970476],[80.214117,12.970605],[80.213649,12.971004],[80.213273,12.971344],[80.212878,12.971671],[80.211802,12.972606],[80.211132,12.973143],[80.210601,12.973568],[80.210106,12.973923],[80.209565,12.974359],[80.209046,12.974764],[80.208087,12.975527],[80.207602,12.975879],[80.206604,12.976649],[80.205364,12.977559],[80.205347,12.977662],[80.205491,12.978111],[80.205613,12.978568],[80.204903,12.978667],[80.204405,12.978753],[80.203989,12.978807],[80.203145,12.978882],[80.201667,12.979152],[80.201277,12.979198],[80.201074,12.979204],[80.200865,12.979224],[80.200672,12.979254],[80.200438,12.979294],[80.20017,12.979333],[80.200005,12.979373],[80.199918,12.979484],[80.199831,12.979616],[80.199665,12.979739],[80.199406,12.979747],[80.199232,12.97972],[80.199104,12.979674],[80.19893,12.979659],[80.198714,12.979688],[80.198533,12.979723],[80.198294,12.979758],[80.19813,12.979759],[80.197971,12.979766],[80.197857,12.979778],[80.197703,12.979837],[80.197561,12.979912],[80.197449,12.979958],[80.197261,12.980015],[80.197129,12.980054],[80.197073,12.98004],[80.197014,12.980049],[80.196946,12.980074],[80.196934,12.98008],[80.196848,12.980076],[80.196836,12.980071],[80.196829,12.980067],[80.196819,12.980063],[80.196814,12.980058],[80.196804,12.980054],[80.196793,12.980049],[80.196789,12.980047],[80.19678,12.980043],[80.196765,12.980036],[80.19676,12.980032],[80.19675,12.980027],[80.196739,12.980023],[80.196728,12.980018],[80.196723,12.980014],[80.196717,12.980012],[80.196701,12.980003],[80.196692,12.979998],[80.196682,12.979996],[80.196672,12.97999],[80.196664,12.979987],[80.196657,12.979983],[80.196643,12.979978],[80.196635,12.979974],[80.196632,12.979972],[80.196575,12.979969],[80.196566,12.979969],[80.196365,12.979962],[80.196359,12.979962],[80.196241,12.97998],[80.196233,12.979984],[80.196226,12.979984],[80.196212,12.979993],[80.196204,12.979995],[80.196189,12.979999],[80.196181,12.980003],[80.19617,12.980007],[80.196164,12.980012],[80.196153,12.980014],[80.196145,12.980018],[80.196135,12.980022],[80.196127,12.980027],[80.196118,12.980031],[80.196109,12.980037],[80.196103,12.980048],[80.196097,12.980057],[80.196088,12.980066],[80.196082,12.980075],[80.196079,12.980084],[80.196075,12.980093],[80.196073,12.980099],[80.19607,12.980108],[80.196067,12.98012],[80.196065,12.980122],[80.19604,12.980219],[80.195951,12.980368],[80.195847,12.980556],[80.195752,12.980702],[80.195751,12.980714],[80.195721,12.980864],[80.195684,12.980972],[80.195612,12.981106],[80.195518,12.981186],[80.195356,12.981277],[80.195246,12.981327],[80.195083,12.981298],[80.19492,12.981259],[80.194773,12.981232],[80.194679,12.981213],[80.194562,12.981168],[80.194487,12.981089],[80.194483,12.98098],[80.194486,12.980961],[80.194497,12.980798],[80.194499,12.980789],[80.194498,12.980778],[80.194426,12.980599],[80.194384,12.980423],[80.19432,12.980242],[80.194318,12.980242],[80.194299,12.980057],[80.19429,12.979951],[80.194297,12.979818],[80.194271,12.979691],[80.194263,12.979682],[80.19418,12.979604],[80.194065,12.979489],[80.194045,12.979436],[80.193978,12.979255],[80.193886,12.979108],[80.193833,12.978961],[80.193755,12.978806],[80.193714,12.978721],[80.193628,12.978545],[80.193582,12.978393],[80.193571,12.978377],[80.193563,12.978366],[80.19355,12.978347],[80.193494,12.978229],[80.19347,12.97814],[80.193435,12.978014],[80.193387,12.977879],[80.193218,12.977389],[80.192975,12.97699],[80.192789,12.976702],[80.192531,12.976434],[80.192351,12.976259],[80.192084,12.975983],[80.191752,12.975744],[80.191686,12.975724],[80.191536,12.975565],[80.191506,12.975505],[80.191303,12.975535]]}},{"type":"Feature","properties":{"name":"Pallikaranai canal"},"geometry":{"type":"LineString","coordinates":[[80.209139,12.952092],[80.209168,12.952227],[80.209465,12.952157],[80.209948,12.951975],[80.210451,12.951792],[80.210993,12.951594],[80.211404,12.951432],[80.211404,12.951432],[80.211404,12.951432]]}},{"type":"Feature","properties":{"name":"Keelkatalai Surplus Channel"},"geometry":{"type":"MultiLineString","coordinates":[[[80.176465,12.948167],[80.176385,12.94794],[80.176317,12.947803],[80.176286,12.947637],[80.176299,12.947501],[80.176331,12.947354],[80.176326,12.947254],[80.176338,12.947118],[80.176327,12.946995],[80.176408,12.94691],[80.17655,12.946856],[80.176711,12.946808],[80.176807,12.946822],[80.176982,12.946902],[80.177148,12.946861],[80.177356,12.946761],[80.177487,12.946625],[80.177772,12.946565],[80.178042,12.946561],[80.178139,12.946555],[80.178313,12.946543],[80.178488,12.946523],[80.178668,12.946469],[80.17881,12.946418],[80.178953,12.94638],[80.179039,12.946372],[80.179114,12.946365],[80.179174,12.946357],[80.179232,12.946335],[80.179297,12.946329],[80.179348,12.946314],[80.179362,12.946272],[80.179375,12.94624],[80.179421,12.946145],[80.179481,12.946044],[80.179594,12.945976],[80.179751,12.945902],[80.179903,12.945863],[80.180008,12.945819],[80.180121,12.945774],[80.180238,12.945739],[80.18041,12.945726],[80.18055,12.945755],[80.180698,12.945831],[80.180887,12.945939],[80.180949,12.946021],[80.181031,12.946131],[80.181129,12.946243],[80.181282,12.946328],[80.181462,12.9464],[80.181632,12.946449],[80.181815,12.946581],[80.181929,12.946711],[80.182098,12.946837],[80.182319,12.946879],[80.182519,12.946891],[80.18272,12.946875],[80.183002,12.946871],[80.183269,12.94688],[80.183507,12.946882],[80.183659,12.946904],[80.183758,12.947032],[80.183876,12.947107],[80.183876,12.947111],[80.183996,12.94725],[80.18411,12.9474],[80.184246,12.947559],[80.184348,12.947694],[80.184358,12.94771],[80.184481,12.947902],[80.184562,12.947977],[80.18466,12.948053],[80.184726,12.948115],[80.184749,12.948251],[80.184794,12.9484],[80.184813,12.948549],[80.184782,12.94869],[80.184792,12.948805],[80.184789,12.948964],[80.18479,12.949052],[80.18482,12.949199],[80.18483,12.94936],[80.18483,12.949521],[80.18485,12.949641],[80.184912,12.94982],[80.184978,12.949907],[80.185031,12.950036],[80.185034,12.950156],[80.185068,12.95026],[80.185243,12.950355],[80.18547,12.950433],[80.185579,12.950501],[80.185797,12.950484],[80.185896,12.950518],[80.186049,12.950554],[80.186176,12.950579],[80.186337,12.950611],[80.186577,12.95065],[80.186727,12.950665],[80.186935,12.950617],[80.187185,12.950567],[80.187335,12.950506],[80.187446,12.950429],[80.187557,12.950383],[80.18769,12.950411],[80.187809,12.950483],[80.187904,12.950552],[80.187997,12.950653],[80.188144,12.950719],[80.188147,12.950719],[80.188242,12.950742],[80.188368,12.950783],[80.188549,12.950785],[80.18875,12.950735],[80.188923,12.950719],[80.18911,12.950723],[80.189262,12.950714],[80.18942,12.950691],[80.189585,12.950653],[80.189776,12.950651],[80.189937,12.950657],[80.190073,12.950655],[80.190292,12.950637],[80.190416,12.950689],[80.190492,12.950832],[80.190547,12.950986],[80.190621,12.951086],[80.19071,12.951211],[80.190812,12.951297],[80.190972,12.951375],[80.191062,12.951439],[80.191196,12.95153],[80.191326,12.951643],[80.191332,12.951648],[80.191428,12.951763],[80.191523,12.951833],[80.191635,12.951839],[80.191826,12.951884],[80.191993,12.951947],[80.191996,12.951948],[80.19213,12.95198],[80.192355,12.952048],[80.19255,12.952021],[80.192653,12.951951],[80.192769,12.951962],[80.192997,12.952006],[80.193007,12.952009],[80.193183,12.952034],[80.193322,12.952036],[80.193474,12.952042],[80.193653,12.95213],[80.193796,12.952253],[80.193918,12.952318],[80.194128,12.952436],[80.194135,12.952444],[80.19415,12.952455],[80.194328,12.952495],[80.194335,12.95249],[80.194438,12.952454],[80.194604,12.952463],[80.194767,12.952382],[80.194936,12.952287],[80.19506,12.952189],[80.195121,12.952061],[80.195189,12.951933],[80.195314,12.951847],[80.195512,12.951709],[80.195728,12.951678],[80.195853,12.951685],[80.196019,12.951698],[80.196324,12.951709],[80.196504,12.951738],[80.196752,12.951788],[80.197108,12.95181],[80.197318,12.951839],[80.197684,12.95186],[80.197929,12.951787],[80.198133,12.951699],[80.198483,12.951601],[80.198841,12.951595],[80.199144,12.951633],[80.19944,12.951595],[80.199759,12.95155],[80.199892,12.951403],[80.199978,12.951186],[80.200182,12.950977],[80.200331,12.950776],[80.200538,12.950593],[80.200904,12.950542],[80.201251,12.950549],[80.201609,12.950551],[80.201918,12.950534],[80.202078,12.950466],[80.202009,12.950246],[80.202008,12.95024],[80.201946,12.950015],[80.20198,12.949881],[80.202206,12.949779],[80.202419,12.949697],[80.202684,12.949532],[80.202783,12.949408],[80.2029,12.949159],[80.202948,12.948981],[80.202979,12.948898],[80.203119,12.948869],[80.203432,12.948891],[80.203775,12.948902],[80.203984,12.948914],[80.204283,12.948918],[80.204631,12.948931],[80.204811,12.948936],[80.205348,12.948972],[80.2057,12.948972],[80.206189,12.948937],[80.206463,12.948965],[80.206825,12.948959],[80.207302,12.948898],[80.207763,12.948868],[80.208212,12.948848],[80.208679,12.948823],[80.208949,12.948793],[80.209266,12.948774],[80.209615,12.948753],[80.209722,12.948805],[80.209794,12.948884],[80.210323,12.948727]],[[80.180245,12.946455],[80.180298,12.94627],[80.180296,12.946118],[80.180309,12.945938],[80.18031,12.945931],[80.180315,12.945806],[80.18041,12.945726]]]}},{"type":"Feature","properties":{"name":"Pallikaranai Marsh Canal"},"geometry":{"type":"MultiLineString","coordinates":[[[80.212904,12.903337],[80.212905,12.903347],[80.212881,12.903254],[80.212958,12.903131],[80.213155,12.903101],[80.213362,12.903027],[80.213475,12.902886],[80.213486,12.902873],[80.213626,12.902755],[80.213757,12.902599],[80.213735,12.902402],[80.213678,12.902176],[80.213673,12.901942],[80.213712,12.901731],[80.21374,12.90149],[80.213745,12.901279],[80.21381,12.901043],[80.213879,12.900753],[80.213873,12.900737],[80.213756,12.900581],[80.21356,12.900484],[80.213418,12.900303],[80.213407,12.900289],[80.213204,12.900143],[80.213011,12.899993],[80.212754,12.89988],[80.212718,12.89988],[80.212443,12.899873],[80.212436,12.899881],[80.21212,12.899881],[80.212109,12.899881],[80.212091,12.899881],[80.211842,12.899773],[80.211831,12.899769],[80.211706,12.899724],[80.211499,12.899695],[80.211333,12.899717],[80.211119,12.899754],[80.210929,12.899769],[80.210683,12.899638],[80.210494,12.899477],[80.210241,12.899376],[80.21007,12.899208],[80.209935,12.898902],[80.2098,12.898639],[80.209688,12.898314],[80.209624,12.898107],[80.209565,12.897674],[80.209511,12.897391],[80.209449,12.897146],[80.209325,12.896813],[80.209168,12.896543],[80.20908,12.896356],[80.208983,12.895936],[80.208887,12.895687],[80.208784,12.895333],[80.208805,12.89498],[80.208903,12.894659],[80.209072,12.894349],[80.209143,12.893919],[80.209144,12.893649],[80.209092,12.89328],[80.209116,12.892748],[80.209172,12.892369],[80.209295,12.892021],[80.209459,12.891532],[80.209538,12.891232],[80.209592,12.890905],[80.209751,12.890503],[80.209975,12.890184],[80.210109,12.88991],[80.210227,12.889394],[80.210338,12.889111],[80.210478,12.888626],[80.210523,12.888217],[80.210644,12.887884],[80.210727,12.887444],[80.210801,12.887078],[80.210925,12.886827],[80.211003,12.886539],[80.211104,12.886161],[80.211205,12.885827],[80.211564,12.885326],[80.211526,12.884415],[80.211243,12.883289],[80.210937,12.882293],[80.210818,12.881615],[80.210738,12.881046],[80.210601,12.880562],[80.210416,12.880118],[80.21031,12.879898],[80.210135,12.87951],[80.209932,12.879179],[80.20969,12.878808],[80.209542,12.87859],[80.209274,12.878119],[80.209141,12.877847],[80.208963,12.877564],[80.208705,12.877062],[80.208453,12.876676],[80.20817,12.87626],[80.208017,12.875951],[80.207874,12.875682],[80.207804,12.87553],[80.207264,12.875412],[80.206841,12.87547],[80.205755,12.875487],[80.204843,12.87552],[80.204702,12.875238],[80.204445,12.874608],[80.204139,12.874588],[80.203859,12.87454],[80.203531,12.874503],[80.203275,12.874552],[80.20302,12.874552],[80.202728,12.874503],[80.202448,12.874357],[80.202156,12.874163],[80.202035,12.874041],[80.201962,12.873688],[80.201901,12.873129],[80.201877,12.87274]],[[80.21291,12.903368],[80.212905,12.903347],[80.213287,12.909325],[80.221247,12.919191],[80.221491,12.919435],[80.220168,12.919818]]]}}]}