{
  "type": "FeatureCollection",
  "features": [
    {
      "type": "Feature",
      "properties": {
        "name": "chennai_river_gauge_adyar 1"
      },
      "geometry": {
        "type": "Point",
        "coordinates": [
          80.19234758451857,
          13.088000104605571
        ]
      }
    },
    {
      "type": "Feature",
      "properties": {
        "name": "chennai_river_gauge_adyar 2"
      },
      "geometry": {
        "type": "Point",
        "coordinates": [
          80.2372619153988,
          13.02845629886255
        ]
      }
    },
    {
      "type": "Feature",
      "properties": {
        "name": "chennai_river_gauge_adyar 3"
      },
      "geometry": {
        "type": "Point",
        "coordinates": [
          80.2516962783346,
          13.081381221816946
        ]
      }
    }
  ]
}