{
  "type": "FeatureCollection",
  "features": [
    {
      "type": "Feature",
      "properties": {
        "name": "chennai_hospital_flood_exposure 1"
      },
      "geometry": {
        "type": "Point",
        "coordinates": [
          80.27517692966765,
          13.088989860777843
        ]
      }
    },
    {
      "type": "Feature",
      "properties": {
        "name": "chennai_hospital_flood_exposure 2"
      },
      "geometry": {
        "type": "Point",
        "coordinates": [
          80.2552214860731,
          13.08568098954413
        ]
      }
    },
    {
      "type": "Feature",
      "properties": {
        "name": "chennai_hospital_flood_exposure 3"
      },
      "geometry": {
        "type": "Point",
        "coordinates": [
          80.19481113207101,
          13.093449982353084
        ]
      }
    }
  ]
}