{"type":"FeatureCollection","crs":{"type":"name","properties":{"name":"urn:ogc:def:crs:OGC:1.3:CRS84"}},"features":[{"type":"Feature","properties":{"name":"Madiyur Drain"},"geometry":{"type":"LineString","coordinates":[[80.254984,13.243241],[80.254611,13.243968],[80.253868,13.243908],[80.252929,13.243896],[80.252606,13.244134],[80.25246,13.244917],[80.251,13.245889],[80.250833,13.246186],[80.250212,13.246174],[80.250097,13.247242],[80.249474,13.247776],[80.247996,13.248471],[80.247427,13.249149],[80.247242,13.249572],[80.247148,13.249732],[80.246855,13.249722],[80.246262,13.249995],[80.245508,13.250215],[80.245221,13.251133],[80.244751,13.250849],[80.244258,13.249277],[80.243359,13.249246],[80.24193,13.249778],[80.240472,13.250118],[80.23974,13.250676],[80.236844,13.2518],[80.235903,13.252539],[80.234468,13.253536],[80.233744,13.253897],[80.231925,13.254141],[80.231024,13.254674],[80.230126,13.254193],[80.22965,13.253962],[80.229093,13.253915],[80.227764,13.254457],[80.226976,13.254773],[80.226178,13.255192],[80.225952,13.255785],[80.225994,13.256115],[80.225818,13.256569],[80.225815,13.256579]]}},{"type":"Feature","properties":{"name":"Minjur Drain"},"geometry":{"type":"LineString","coordinates":[[80.252921,13.26247],[80.253739,13.262951],[80.253757,13.262962],[80.254502,13.263425],[80.254501,13.263434],[80.25527,13.263938],[80.255296,13.263951],[80.255813,13.26439],[80.255856,13.264416],[80.255882,13.264429],[80.256258,13.264765],[80.256274,13.264777],[80.256624,13.265054],[80.257158,13.265408],[80.257528,13.265511],[80.257631,13.265505],[80.257873,13.265505],[80.258114,13.265488],[80.258332,13.265459],[80.258491,13.265411],[80.2587,13.265269],[80.258866,13.265153],[80.25896,13.265037],[80.258966,13.265021],[80.259034,13.264874],[80.259038,13.264864],[80.259094,13.264683],[80.259141,13.264509],[80.259147,13.264494],[80.259284,13.264387],[80.259429,13.264302],[80.259583,13.264216],[80.259736,13.264131],[80.259846,13.264041],[80.259971,13.263893],[80.260068,13.263783],[80.260101,13.263712],[80.26012,13.263609],[80.260152,13.263486],[80.260171,13.26335],[80.260175,13.263214],[80.260262,13.263056],[80.260366,13.262944],[80.260434,13.262882],[80.260494,13.262811],[80.260564,13.262734],[80.260665,13.262686],[80.260751,13.262635],[80.260854,13.262591],[80.260987,13.262549],[80.26108,13.262512],[80.261189,13.262469],[80.261307,13.262411],[80.261401,13.262354],[80.261502,13.262301],[80.261614,13.262233],[80.261722,13.262153],[80.261882,13.262078],[80.262041,13.262002],[80.262142,13.26194],[80.262292,13.261913],[80.262454,13.261877],[80.262573,13.261836],[80.262764,13.261793],[80.262915,13.26175],[80.263055,13.261708],[80.263162,13.261703],[80.263314,13.261698],[80.263426,13.261682],[80.26357,13.261656],[80.263659,13.261602],[80.263696,13.261515],[80.263704,13.261417],[80.263701,13.261318],[80.26369,13.26125],[80.263753,13.2612],[80.263845,13.261173],[80.263882,13.261109],[80.263944,13.261034],[80.263951,13.260954],[80.263932,13.260876],[80.263935,13.260797],[80.263984,13.260716],[80.264004,13.260607],[80.26396,13.260478],[80.263913,13.260346],[80.263835,13.26023],[80.263801,13.260125],[80.263902,13.260077],[80.264018,13.26005],[80.264103,13.259946],[80.264111,13.259843],[80.26409,13.259687],[80.264082,13.259542],[80.264073,13.259405],[80.264022,13.259349],[80.264002,13.259166],[80.263998,13.259031],[80.264037,13.25889],[80.264111,13.258784],[80.264169,13.258706],[80.26424,13.258592],[80.264354,13.258471],[80.26445,13.258347],[80.264505,13.25827],[80.264583,13.258226],[80.264692,13.258164],[80.264775,13.258116],[80.264882,13.25805],[80.264927,13.257982],[80.264966,13.257902],[80.265023,13.257791],[80.265051,13.257701],[80.265087,13.257624],[80.265164,13.257581],[80.26527,13.257569],[80.265457,13.257549],[80.265574,13.257533],[80.265656,13.257511],[80.265746,13.257484],[80.265901,13.257481],[80.266016,13.257473],[80.266154,13.257454],[80.266297,13.257451],[80.26644,13.257435],[80.266576,13.257404],[80.266674,13.257373],[80.266786,13.25737],[80.266919,13.257367],[80.267054,13.257366],[80.26714,13.257339],[80.267214,13.257338],[80.267265,13.257256],[80.26729,13.257135],[80.267296,13.25701],[80.267334,13.256887],[80.267344,13.256782],[80.267364,13.256675],[80.267384,13.256573],[80.267405,13.256475],[80.267441,13.256332],[80.26748,13.256188],[80.2675,13.256095],[80.267505,13.255994],[80.26751,13.255927],[80.2675,13.255832],[80.267543,13.255763],[80.267578,13.255725],[80.267619,13.255643],[80.267616,13.255536],[80.267638,13.25544],[80.26765,13.255324],[80.267659,13.255225],[80.267689,13.255106],[80.267786,13.255106],[80.26794,13.255117],[80.268044,13.255114],[80.268142,13.255108],[80.268236,13.255104],[80.268305,13.255115],[80.268364,13.255142],[80.268468,13.25517],[80.268554,13.255177],[80.268636,13.255147],[80.268714,13.255098],[80.268787,13.255076],[80.268861,13.255076],[80.268968,13.255077],[80.269036,13.255067],[80.269149,13.255051],[80.26923,13.255037],[80.269389,13.255015],[80.269547,13.25498],[80.269703,13.254949],[80.26986,13.254914],[80.270001,13.254885],[80.270143,13.254884],[80.270273,13.254891],[80.270393,13.254922],[80.270448,13.254968],[80.270549,13.255013],[80.270662,13.25505],[80.270733,13.255106],[80.270769,13.255174],[80.270777,13.255189],[80.270791,13.255307],[80.270808,13.255428],[80.270809,13.255439],[80.270843,13.255543],[80.270845,13.255551],[80.270912,13.255609],[80.271012,13.255646],[80.271109,13.255657],[80.271236,13.255644],[80.271305,13.255593],[80.271407,13.255506],[80.271489,13.255435],[80.271581,13.25539],[80.271678,13.255379],[80.271774,13.255376],[80.271921,13.255425],[80.271988,13.255438],[80.272061,13.255426],[80.272138,13.255404],[80.272241,13.255407],[80.272328,13.255423],[80.272458,13.255423],[80.272544,13.255377],[80.272655,13.255319],[80.272809,13.255249],[80.272929,13.25517]]}},{"type":"Feature","properties":{"name":"Virugambakkam Drain"},"geometry":{"type":"LineString","coordinates":[[80.185284,13.057954],[80.185293,13.058001],[80.185317,13.05806],[80.185319,13.058082],[80.185334,13.058108],[80.185345,13.058151],[80.18537,13.058181],[80.185406,13.058204],[80.185448,13.058216],[80.185485,13.058241],[80.185515,13.058284],[80.185537,13.058328],[80.185553,13.058366],[80.185566,13.05842],[80.18556,13.058469],[80.185561,13.058582],[80.185566,13.058689],[80.185621,13.058749],[80.185755,13.058801],[80.185964,13.058811],[80.186134,13.058816],[80.186351,13.058817],[80.186497,13.058799],[80.186687,13.058794],[80.186936,13.05879],[80.187154,13.058801],[80.187483,13.058813],[80.18775,13.058845],[80.188124,13.058889],[80.188424,13.058902],[80.188651,13.058929],[80.188947,13.058966],[80.189227,13.059022],[80.189368,13.059065],[80.189509,13.059157],[80.189606,13.059296],[80.189709,13.059481],[80.189808,13.059734],[80.189896,13.059975],[80.189947,13.06023],[80.190033,13.060443],[80.190124,13.060674],[80.190215,13.06085],[80.190342,13.06103],[80.190449,13.061206],[80.190586,13.061408],[80.190691,13.061545],[80.190827,13.061562],[80.190959,13.061525],[80.190972,13.061518],[80.190985,13.061517],[80.191111,13.061435],[80.191121,13.061432],[80.191311,13.061333],[80.191494,13.06124],[80.191714,13.061142],[80.191865,13.061079],[80.19209,13.061021],[80.192103,13.061018],[80.192317,13.061014],[80.192328,13.061016],[80.1925,13.061112],[80.192663,13.061323],[80.192807,13.061562],[80.192955,13.061743],[80.193024,13.061927],[80.193127,13.062064],[80.193381,13.062087],[80.19365,13.062047],[80.193813,13.061957],[80.194033,13.061797],[80.194209,13.061626],[80.194453,13.06138],[80.194662,13.061148],[80.19493,13.060924],[80.195217,13.060824],[80.195244,13.060821],[80.195497,13.060785],[80.195728,13.060781],[80.195964,13.060758],[80.196199,13.060742],[80.196401,13.060747],[80.196603,13.060738],[80.196822,13.060742],[80.197,13.060748],[80.197219,13.060779],[80.19743,13.060819],[80.197541,13.060895],[80.1976,13.061057],[80.197654,13.0612],[80.19768,13.061303],[80.197652,13.061431],[80.197632,13.061612],[80.197611,13.061744],[80.197581,13.06188],[80.197569,13.061996],[80.197609,13.062109],[80.197757,13.062169],[80.197957,13.062159],[80.198182,13.062094],[80.198342,13.061973],[80.198474,13.061794],[80.198476,13.061784],[80.198627,13.061593],[80.198729,13.061455],[80.198953,13.06131],[80.199134,13.061253],[80.199276,13.061236],[80.199431,13.061278],[80.199708,13.061305],[80.199936,13.061324],[80.200168,13.061352],[80.200174,13.061352],[80.200511,13.06139],[80.20075,13.061418],[80.201039,13.061473],[80.201235,13.061518],[80.201535,13.061623],[80.201745,13.061702],[80.201957,13.061788],[80.202107,13.061844],[80.202335,13.061903],[80.202344,13.061906],[80.202634,13.061973],[80.202891,13.061977],[80.203165,13.06195],[80.203175,13.06195],[80.203461,13.061901],[80.203771,13.061839],[80.203975,13.06184],[80.203984,13.06184],[80.204001,13.061839],[80.204203,13.061893],[80.204445,13.061893],[80.204695,13.061875],[80.204975,13.061803],[80.205213,13.06168],[80.205496,13.061515],[80.205721,13.061348],[80.205943,13.061204],[80.206168,13.061138],[80.206329,13.061091],[80.206577,13.061078],[80.206955,13.06105],[80.207231,13.061008],[80.207484,13.060972],[80.207493,13.06097],[80.207499,13.060968],[80.207748,13.06091],[80.207756,13.060906],[80.207926,13.060799],[80.207936,13.060793],[80.207941,13.060791],[80.208104,13.060743],[80.208238,13.060699],[80.208458,13.060651],[80.208785,13.060577],[80.209014,13.060472],[80.209017,13.06047],[80.209183,13.060343],[80.209373,13.060237],[80.209574,13.060193],[80.209789,13.060155],[80.210026,13.060128],[80.210152,13.060116],[80.210318,13.060126],[80.210449,13.060154],[80.21053,13.060214],[80.210604,13.060339],[80.210687,13.060533],[80.210778,13.060672],[80.210878,13.060823],[80.210971,13.06094],[80.211057,13.061014],[80.211132,13.061062],[80.211159,13.061089],[80.211239,13.061124],[80.211304,13.061169],[80.211398,13.061196],[80.21145,13.061215],[80.211519,13.061217],[80.21156,13.061213]]}},{"type":"Feature","properties":{"name":"Otteri Nallah"},"geometry":{"type":"LineString","coordinates":[[80.197892,13.098927],[80.19793,13.098894],[80.197931,13.098857],[80.19794,13.098792],[80.197937,13.09874],[80.197943,13.098689],[80.197991,13.098673],[80.198041,13.098675],[80.198161,13.098662],[80.198326,13.098649],[80.198479,13.098625],[80.198602,13.098617],[80.19878,13.098612],[80.19894,13.098589],[80.199092,13.098554],[80.199253,13.098552],[80.199446,13.098536],[80.199628,13.098515],[80.199836,13.098492],[80.199959,13.098476],[80.200106,13.098464],[80.200273,13.098445],[80.200368,13.098429],[80.200479,13.098412],[80.200589,13.098399],[80.200698,13.098396],[80.200788,13.098374],[80.200815,13.098357],[80.200823,13.09832],[80.200818,13.098265],[80.200804,13.098206],[80.200806,13.098146],[80.200817,13.098107],[80.20085,13.098074],[80.200912,13.098056],[80.20101,13.098038],[80.20114,13.098016],[80.201263,13.098006],[80.201404,13.097986],[80.201526,13.097982],[80.20173,13.097961],[80.201792,13.097947],[80.201947,13.097922],[80.202092,13.097907],[80.202222,13.097897],[80.202354,13.097874],[80.202583,13.097856],[80.202703,13.097827],[80.202851,13.097776],[80.202973,13.097719],[80.20315,13.097642],[80.203313,13.097578],[80.203523,13.097495],[80.203721,13.097415],[80.203967,13.097319],[80.204175,13.097226],[80.204369,13.097143],[80.204499,13.097089],[80.204781,13.096964],[80.205025,13.096863],[80.205279,13.096757],[80.205555,13.096658],[80.205871,13.096535],[80.206166,13.096409],[80.206436,13.096317],[80.206711,13.09619],[80.207047,13.096059],[80.207318,13.095946],[80.207512,13.095863],[80.207697,13.095771],[80.207787,13.095714],[80.207804,13.095629],[80.207805,13.095617],[80.207792,13.095497],[80.207806,13.095364],[80.207802,13.095219],[80.207812,13.095082],[80.207815,13.094918],[80.207805,13.0948],[80.207804,13.09466],[80.207778,13.094517],[80.207778,13.094508],[80.207749,13.094377],[80.207719,13.094213],[80.207702,13.094052],[80.207683,13.093873],[80.207654,13.093725],[80.207637,13.093629],[80.207637,13.093541],[80.207657,13.093487],[80.207708,13.093449],[80.207814,13.093407],[80.207961,13.093367],[80.208117,13.093321],[80.208301,13.093277],[80.208431,13.093236],[80.208554,13.093203],[80.20869,13.093155],[80.208862,13.093111],[80.209011,13.093065],[80.2092,13.093012],[80.209404,13.092942],[80.209638,13.092893],[80.209845,13.09283],[80.210044,13.092779],[80.210211,13.09274],[80.210217,13.09274],[80.210356,13.092705],[80.210467,13.092687],[80.210689,13.092692],[80.210864,13.092681],[80.210877,13.092682],[80.211047,13.092693],[80.211196,13.092686],[80.211384,13.092676],[80.211603,13.092665],[80.211752,13.092651],[80.211756,13.092651],[80.211906,13.092648],[80.212063,13.092642],[80.212069,13.092642],[80.212247,13.092646],[80.212441,13.092637],[80.212449,13.092637],[80.212589,13.092634],[80.212719,13.092627],[80.212817,13.092621],[80.212885,13.092632],[80.212901,13.092681],[80.212915,13.09274],[80.212914,13.09281],[80.212917,13.092883],[80.212927,13.092928],[80.212975,13.092973],[80.213112,13.092975],[80.213259,13.092986],[80.213472,13.092987],[80.213596,13.09299],[80.213737,13.092983],[80.213992,13.092984],[80.214219,13.092996],[80.214474,13.092999],[80.214693,13.093021],[80.214781,13.093045],[80.214818,13.093153],[80.214862,13.093237],[80.214976,13.09329],[80.215162,13.093372],[80.215363,13.093454],[80.215577,13.093525],[80.215747,13.093578],[80.215909,13.093627],[80.216088,13.093654],[80.216266,13.093695],[80.216451,13.093755],[80.216579,13.093793],[80.216709,13.093831],[80.216917,13.093958],[80.217079,13.094025],[80.217223,13.094064],[80.217364,13.094068],[80.217516,13.094056],[80.217656,13.094045],[80.217826,13.094051],[80.217977,13.094047],[80.218455,13.094034],[80.218668,13.094008],[80.218955,13.093974],[80.219239,13.093943],[80.21954,13.093921],[80.219959,13.093917],[80.220446,13.093859],[80.220839,13.093835],[80.221194,13.093826],[80.221622,13.093828],[80.221933,13.093797],[80.222255,13.093714],[80.22278,13.093379],[80.223116,13.093126],[80.223379,13.092903],[80.223627,13.0927],[80.223783,13.09259],[80.224223,13.092198],[80.2244,13.092031],[80.224505,13.091878],[80.224667,13.091647],[80.224838,13.091465],[80.224967,13.09132],[80.224976,13.091306],[80.225186,13.091081],[80.225436,13.09083],[80.225702,13.090526],[80.225906,13.090299],[80.226019,13.090124],[80.226077,13.08989],[80.226253,13.089658],[80.226267,13.08964],[80.226512,13.089409],[80.226782,13.089152],[80.227045,13.088945],[80.22729,13.088744],[80.227492,13.088537],[80.227499,13.088523],[80.227744,13.088338],[80.227889,13.088253],[80.228088,13.088292],[80.228258,13.088393],[80.228434,13.088542],[80.228592,13.088536],[80.228836,13.088467],[80.228982,13.088393],[80.229086,13.088243],[80.229228,13.088048],[80.229362,13.08785],[80.229481,13.087672],[80.229607,13.087502],[80.229781,13.087354],[80.229935,13.087234],[80.23013,13.087117],[80.230382,13.087018],[80.230396,13.087011],[80.230609,13.086912],[80.230888,13.086824],[80.231162,13.086678],[80.231332,13.086585],[80.231538,13.086478],[80.231553,13.086474],[80.231764,13.086344],[80.231786,13.086336],[80.232001,13.086242],[80.232244,13.086133],[80.232445,13.086056],[80.232638,13.085987],[80.232894,13.085912],[80.233166,13.085872],[80.233369,13.085858],[80.233623,13.085855],[80.233864,13.085879],[80.234013,13.085954],[80.234118,13.086078],[80.234222,13.086194],[80.23427,13.086315],[80.234325,13.086468],[80.234416,13.086517],[80.234621,13.086511],[80.234702,13.086484],[80.234955,13.086424],[80.235153,13.086357],[80.235383,13.086296],[80.235599,13.086257],[80.235795,13.086208],[80.235955,13.086146],[80.236114,13.0861],[80.236121,13.086097],[80.236327,13.08603],[80.23646,13.085979],[80.236626,13.085932],[80.236834,13.085853],[80.236981,13.085773],[80.237111,13.085666],[80.237275,13.085544],[80.237478,13.085432],[80.237668,13.085346],[80.237888,13.085244],[80.237895,13.085244],[80.238123,13.08513],[80.23829,13.085094],[80.238448,13.085057],[80.238614,13.085041],[80.238826,13.08505],[80.239077,13.08503],[80.239279,13.085002],[80.239512,13.084989],[80.239719,13.084967],[80.239985,13.084964],[80.240213,13.084966],[80.240338,13.084963],[80.240509,13.08493],[80.240518,13.084928],[80.240524,13.084925],[80.240733,13.084834],[80.240743,13.084832],[80.240981,13.084765],[80.241231,13.084717],[80.241438,13.08468],[80.241612,13.084696],[80.241825,13.084771],[80.242061,13.084927],[80.242069,13.084927],[80.242237,13.085044],[80.242431,13.085165],[80.242625,13.085314],[80.242905,13.085467],[80.243201,13.085612],[80.243444,13.085754],[80.24377,13.085892],[80.24407,13.086018],[80.24432,13.086161],[80.244507,13.086278],[80.244832,13.086496],[80.245078,13.086654],[80.245279,13.086806],[80.245401,13.086916],[80.245607,13.087067],[80.245879,13.08723],[80.246084,13.087358],[80.24627,13.087506],[80.246426,13.087713],[80.246642,13.087973],[80.246853,13.088257],[80.247133,13.088625],[80.247496,13.088994],[80.247643,13.089244],[80.247888,13.089575],[80.248188,13.089989],[80.248444,13.090357],[80.248518,13.090476],[80.248624,13.090675],[80.248721,13.090851],[80.248834,13.091069],[80.248958,13.091262],[80.249098,13.091472],[80.249238,13.091705],[80.249332,13.091887],[80.249433,13.0921],[80.249519,13.092328],[80.249595,13.092517],[80.249649,13.09271],[80.249652,13.092768],[80.249684,13.092908],[80.249705,13.093021],[80.249738,13.09313],[80.249766,13.093257],[80.249786,13.093339],[80.249805,13.093478],[80.249814,13.093631],[80.24983,13.093753],[80.249815,13.093895],[80.249871,13.093974],[80.249922,13.094086],[80.249976,13.094237],[80.249994,13.094369],[80.250027,13.094519],[80.250058,13.094639],[80.250057,13.094736],[80.250111,13.09489],[80.250149,13.095057],[80.25018,13.095215],[80.250222,13.0954],[80.250226,13.095495],[80.250269,13.095613],[80.250315,13.095769],[80.250378,13.095846],[80.25047,13.096094],[80.250568,13.096502],[80.25069,13.097001],[80.25077,13.097458],[80.250854,13.097662],[80.250966,13.097822],[80.251085,13.098006],[80.251277,13.098178],[80.251457,13.098261],[80.251776,13.098336],[80.25213,13.098432],[80.252426,13.098455],[80.252817,13.098514],[80.253195,13.098596],[80.253456,13.098711],[80.253737,13.098953],[80.254019,13.09913],[80.254322,13.099376],[80.254646,13.099746],[80.254837,13.099942],[80.255001,13.10012],[80.255235,13.100417],[80.255455,13.100675],[80.255697,13.100949],[80.255991,13.101292],[80.256215,13.101536],[80.256435,13.101752],[80.256706,13.102056],[80.256915,13.102345],[80.257034,13.102577],[80.257106,13.102828],[80.257197,13.103105],[80.257339,13.103381],[80.257503,13.103688],[80.257795,13.104169],[80.257961,13.104451],[80.258122,13.104737],[80.258267,13.105029],[80.258481,13.105282],[80.258897,13.105597],[80.25924,13.105822],[80.259645,13.106043],[80.260148,13.106268],[80.260522,13.106429],[80.260828,13.106513],[80.261093,13.106546],[80.261602,13.106529],[80.262046,13.106496],[80.262071,13.106497],[80.262092,13.106497],[80.262469,13.106416],[80.262925,13.106331],[80.263362,13.106229],[80.26382,13.10607],[80.264248,13.105938],[80.264258,13.105933],[80.264682,13.105771],[80.265174,13.1057],[80.265488,13.105721],[80.265846,13.105731],[80.266166,13.105687],[80.266486,13.105669],[80.266731,13.10566],[80.267027,13.105665],[80.267362,13.105675],[80.267632,13.105639],[80.267941,13.105598],[80.268271,13.10558],[80.268561,13.105549],[80.268922,13.10552],[80.269175,13.105482],[80.269373,13.105433],[80.26957,13.105395],[80.269735,13.105355],[80.270105,13.105243],[80.270493,13.1052],[80.270839,13.105206],[80.27121,13.105251],[80.271465,13.105498],[80.271535,13.105712],[80.271695,13.105999],[80.271804,13.106262],[80.271904,13.106512],[80.272108,13.10672]]}},{"type":"Feature","properties":{"name":"Arumbakkam Drain"},"geometry":{"type":"LineString","coordinates":[[80.21155,13.06121],[80.211648,13.061229],[80.211752,13.061259],[80.21186,13.06129],[80.211926,13.06133],[80.212047,13.061396],[80.212055,13.061402],[80.212172,13.061473],[80.212325,13.061533],[80.212482,13.061597],[80.212601,13.061639],[80.21282,13.061693],[80.212957,13.061721],[80.213061,13.061743],[80.213186,13.061747],[80.213298,13.061749],[80.21339,13.061754],[80.213483,13.061737],[80.213589,13.061728],[80.213716,13.061721],[80.213835,13.061714],[80.21396,13.061705],[80.213977,13.061704],[80.214088,13.061706],[80.214094,13.061706],[80.214204,13.061708],[80.214319,13.061707],[80.214459,13.061699],[80.214588,13.061692],[80.21469,13.06169],[80.214834,13.061683],[80.21492,13.061686],[80.215024,13.061681],[80.215143,13.061678],[80.215257,13.061682],[80.215396,13.061666],[80.215485,13.061659],[80.215583,13.061654],[80.215682,13.061643],[80.215782,13.06163],[80.215896,13.061613],[80.215999,13.06158],[80.216105,13.061551],[80.216179,13.061533],[80.216331,13.061496],[80.216427,13.061493],[80.216502,13.061496],[80.216615,13.061496],[80.216697,13.061515],[80.21676,13.061545],[80.216764,13.061547],[80.216838,13.061577],[80.216909,13.061588],[80.216915,13.061588],[80.216992,13.061597],[80.217083,13.061594],[80.217174,13.061592],[80.217268,13.061601],[80.217356,13.061625],[80.21742,13.061693],[80.217497,13.061742],[80.217589,13.061803],[80.217661,13.061873],[80.217719,13.061959],[80.217771,13.062044],[80.217803,13.062124],[80.21782,13.062179],[80.21784,13.062263],[80.217853,13.062338],[80.217839,13.062407],[80.2178,13.062478],[80.217746,13.062525],[80.217685,13.062571],[80.217575,13.062658],[80.217463,13.062748],[80.217459,13.06275],[80.217357,13.062829],[80.217232,13.062894],[80.217146,13.062953],[80.217062,13.063021],[80.21703,13.063073],[80.217015,13.063122],[80.216998,13.063194],[80.216982,13.063258],[80.216982,13.063263],[80.216988,13.063341],[80.216993,13.063405],[80.217013,13.063474],[80.217042,13.063564],[80.217058,13.063652],[80.217079,13.063741],[80.217093,13.063813],[80.217116,13.063906],[80.217135,13.064004],[80.217149,13.064116],[80.217152,13.064208],[80.217171,13.064341],[80.217162,13.064403],[80.217165,13.064468],[80.217156,13.064558],[80.217149,13.06463],[80.217113,13.064718],[80.217084,13.064816],[80.217031,13.064928],[80.216971,13.065031],[80.216915,13.065129],[80.216845,13.065221],[80.216786,13.065321],[80.216758,13.065424],[80.216776,13.065513],[80.216788,13.065572],[80.216832,13.065643],[80.216856,13.06568],[80.216902,13.065713],[80.216976,13.065731],[80.21704,13.065721],[80.217111,13.065701],[80.217186,13.065682],[80.21728,13.065663],[80.21736,13.065649],[80.217442,13.065613],[80.217536,13.065595],[80.217624,13.065593],[80.217717,13.065578],[80.21781,13.065578],[80.217922,13.065591],[80.217974,13.065615],[80.217976,13.065618],[80.218021,13.06569],[80.218029,13.065756],[80.218056,13.065831],[80.218051,13.065919],[80.218054,13.065989],[80.218037,13.066057],[80.218033,13.066132],[80.218019,13.066171],[80.21801,13.066221],[80.217997,13.066249],[80.217971,13.066272],[80.217923,13.066287],[80.217857,13.066297],[80.217803,13.066308],[80.217716,13.066321],[80.217664,13.066338],[80.217601,13.066361],[80.217534,13.066385],[80.217469,13.066405],[80.217392,13.066425],[80.217327,13.066446],[80.21726,13.066466],[80.217193,13.06649],[80.217155,13.066521],[80.217129,13.06657],[80.217137,13.066637],[80.217152,13.066709],[80.217166,13.066776],[80.217178,13.066827],[80.217201,13.066915],[80.217238,13.067044],[80.217244,13.067156],[80.217269,13.067262],[80.217282,13.067322],[80.217296,13.067362],[80.217306,13.067418],[80.217331,13.067471],[80.217345,13.067529],[80.217364,13.067579],[80.217414,13.067617],[80.217479,13.067645],[80.217545,13.067669],[80.217607,13.067702],[80.217673,13.06774],[80.21768,13.067742],[80.217734,13.067785],[80.217801,13.067816],[80.217853,13.067862],[80.21793,13.067916],[80.218003,13.067951],[80.218046,13.067999],[80.218094,13.068058],[80.218135,13.068101],[80.218229,13.068121],[80.218236,13.068122],[80.218244,13.068125],[80.218332,13.068129],[80.218451,13.068129],[80.218558,13.068137],[80.218664,13.068142],[80.218774,13.068148],[80.218878,13.068148],[80.218956,13.068157],[80.218964,13.068157],[80.219028,13.068166],[80.219043,13.068166],[80.219114,13.068162],[80.219121,13.068162],[80.219229,13.068156],[80.219326,13.068155],[80.219471,13.068144],[80.219569,13.068135],[80.21966,13.068125],[80.219794,13.068104],[80.219943,13.068057],[80.219949,13.068055],[80.220076,13.068029],[80.22013,13.068022],[80.220138,13.068021],[80.22021,13.06804],[80.220258,13.06809],[80.220319,13.068158],[80.220353,13.068251],[80.220387,13.06835],[80.220386,13.068456],[80.220408,13.06853],[80.220426,13.068596],[80.220429,13.068685],[80.220445,13.068749],[80.220461,13.068873],[80.22048,13.068976],[80.220508,13.069033],[80.220538,13.069075],[80.220604,13.069103],[80.22069,13.069116],[80.220768,13.069139],[80.220839,13.069127],[80.220897,13.069125],[80.220953,13.069105],[80.221028,13.069081],[80.221118,13.069047],[80.221196,13.069002],[80.221267,13.068961],[80.221321,13.068921],[80.221418,13.068841],[80.221483,13.068779],[80.221546,13.068707],[80.221589,13.068629],[80.221637,13.068534],[80.221659,13.068463],[80.22172,13.068378],[80.221775,13.068278],[80.221827,13.068223],[80.221876,13.068168],[80.221933,13.068132],[80.221975,13.068087],[80.222024,13.068053],[80.222068,13.068022],[80.222119,13.067996],[80.222156,13.067965],[80.222199,13.06791],[80.222238,13.06787],[80.222293,13.06783],[80.222352,13.067788],[80.222409,13.067748],[80.222467,13.06771],[80.222534,13.067674],[80.222585,13.06765],[80.222642,13.06763],[80.222707,13.067608],[80.222765,13.06759],[80.222796,13.067587],[80.222835,13.067582],[80.222877,13.067578],[80.222919,13.06758],[80.22292,13.06758],[80.222953,13.067606],[80.222989,13.067639],[80.223028,13.067673],[80.223064,13.067702],[80.223103,13.067724],[80.223134,13.067724],[80.22318,13.067726],[80.223214,13.06773],[80.223263,13.067739],[80.223318,13.067739],[80.223376,13.067735],[80.223427,13.067727],[80.223487,13.06771],[80.223559,13.067683],[80.223619,13.067656],[80.223704,13.067622],[80.223708,13.06762],[80.223777,13.067591],[80.223885,13.067549],[80.223963,13.067507],[80.22401,13.067491],[80.22408,13.067475],[80.224189,13.067442],[80.224197,13.067438],[80.224204,13.067438],[80.224209,13.067435],[80.224292,13.067427],[80.22437,13.067428],[80.224441,13.067429],[80.224527,13.067437],[80.224617,13.067425],[80.224695,13.067417],[80.22477,13.067394],[80.224839,13.067369],[80.22491,13.067333],[80.224971,13.06731],[80.225039,13.06728],[80.225121,13.067249],[80.225186,13.06723],[80.225238,13.067215],[80.225263,13.067201],[80.225319,13.067193],[80.225396,13.067166],[80.225463,13.067136],[80.225526,13.067113],[80.225582,13.06709],[80.225585,13.06709],[80.225654,13.06706],[80.225697,13.067055],[80.225743,13.067043],[80.2258,13.067036],[80.225881,13.067033],[80.225936,13.067034],[80.225992,13.067049],[80.226044,13.067073],[80.226049,13.067076],[80.226095,13.067099],[80.226163,13.067117],[80.226234,13.067123],[80.22629,13.067119],[80.226358,13.067116],[80.226362,13.067116],[80.226417,13.067107],[80.226423,13.067104],[80.226433,13.067102],[80.226529,13.067081],[80.226608,13.067081],[80.226665,13.06709],[80.226697,13.067133],[80.226734,13.067177],[80.226773,13.067203],[80.226848,13.067199],[80.226893,13.067187],[80.22695,13.067175],[80.227016,13.067158],[80.227081,13.067156],[80.227131,13.067157],[80.227207,13.067147],[80.227297,13.067127],[80.227332,13.067101],[80.227435,13.067066],[80.227516,13.067062],[80.227645,13.067045],[80.227752,13.067021],[80.227882,13.067045],[80.227946,13.067107],[80.227995,13.067179],[80.228032,13.06724],[80.228079,13.067318],[80.228131,13.067401],[80.2282,13.067493],[80.22827,13.067574],[80.22833,13.067732],[80.228352,13.067878],[80.228373,13.067982],[80.228395,13.068112],[80.228478,13.06824]]}},{"type":"Feature","properties":{"name":"Parivakkam Drain"},"geometry":{"type":"LineString","coordinates":[[80.117492,13.064866],[80.117218,13.064719],[80.116611,13.064479],[80.115931,13.064329],[80.115365,13.064165],[80.114619,13.064077],[80.113875,13.064152],[80.113226,13.064187],[80.112678,13.064278],[80.112278,13.064349],[80.11174,13.064303],[80.111131,13.064259],[80.110648,13.064164],[80.110057,13.064131],[80.109651,13.064135],[80.10931,13.064296],[80.109132,13.064534],[80.108942,13.064799],[80.108697,13.064903],[80.108411,13.064974],[80.108112,13.0652],[80.107825,13.065471],[80.107789,13.065443],[80.107715,13.065405],[80.107642,13.065328],[80.107551,13.065216],[80.107494,13.065144],[80.107473,13.065028],[80.107447,13.064921],[80.107339,13.064797],[80.107191,13.064737],[80.107056,13.064724],[80.106921,13.064723],[80.106773,13.064731],[80.106629,13.064756],[80.106494,13.064751],[80.106355,13.064674],[80.106303,13.064599],[80.106253,13.064534],[80.1062,13.064431],[80.106109,13.064348],[80.105994,13.064273],[80.10588,13.064174],[80.105727,13.064083],[80.105571,13.064047],[80.105398,13.064024],[80.105278,13.064043],[80.105125,13.064078],[80.104985,13.064102],[80.10486,13.06411],[80.104748,13.064093],[80.104632,13.064025],[80.104526,13.063953],[80.10442,13.063928],[80.104275,13.063925],[80.104161,13.063938],[80.10408,13.063941],[80.10396,13.063927],[80.103823,13.063943],[80.103698,13.063967],[80.1036,13.06398],[80.103458,13.063971],[80.103319,13.063982],[80.103213,13.064061],[80.103148,13.064145],[80.103056,13.064216],[80.102961,13.064257],[80.102869,13.064289],[80.102774,13.064311],[80.102623,13.064315],[80.102453,13.064345],[80.102314,13.064372],[80.102208,13.064388],[80.102113,13.064429],[80.101995,13.064484],[80.101873,13.064535],[80.101773,13.064577],[80.101638,13.064589],[80.101398,13.064631],[80.101167,13.064677],[80.100958,13.064707],[80.100757,13.06474],[80.1006,13.064808],[80.100578,13.064893],[80.100591,13.064983],[80.100521,13.065],[80.100425,13.065042],[80.100307,13.065076],[80.100194,13.065114],[80.100046,13.065152]]}},{"type":"Feature","properties":{"name":"Meenambakkam drain"},"geometry":{"type":"LineString","coordinates":[[80.148069,12.976494],[80.148647,12.976884],[80.148876,12.977486],[80.148367,12.978911],[80.14809,12.979992],[80.148121,12.980135],[80.148148,12.980207],[80.148178,12.980297],[80.148217,12.980412],[80.148243,12.980508],[80.148278,12.980613],[80.148318,12.980713],[80.148366,12.980792],[80.14845,12.980883],[80.148589,12.980984],[80.148723,12.981073],[80.148881,12.981177],[80.148997,12.981262],[80.149114,12.981351],[80.149184,12.981407],[80.149303,12.981502],[80.149402,12.981575],[80.149499,12.981653],[80.149611,12.981737],[80.149695,12.9818],[80.149767,12.981855],[80.14987,12.981936],[80.149971,12.982017],[80.150046,12.982074],[80.150117,12.982131],[80.150185,12.982188],[80.150244,12.98223],[80.150303,12.982262],[80.150381,12.982316],[80.150433,12.982352],[80.150491,12.98239],[80.150539,12.982425],[80.150568,12.982431],[80.150612,12.982418],[80.150705,12.982375],[80.150827,12.982319],[80.150989,12.982258],[80.151115,12.982204],[80.151218,12.982172],[80.151332,12.982114],[80.151431,12.982101],[80.151518,12.98212],[80.151614,12.982161],[80.15174,12.982212],[80.151868,12.982261],[80.152049,12.982338],[80.152358,12.982459],[80.152658,12.98256],[80.153356,12.982825],[80.153869,12.983022],[80.154248,12.983178],[80.154291,12.98322],[80.1543,12.983262],[80.15412,12.983744],[80.153664,12.984931],[80.153421,12.985548],[80.153334,12.985741],[80.153241,12.985921],[80.153134,12.986039],[80.153041,12.986195],[80.15294,12.986403],[80.15287,12.986602],[80.152814,12.986753],[80.152794,12.986851],[80.152788,12.986975],[80.152827,12.987058],[80.152927,12.987207],[80.153076,12.987318],[80.153188,12.987426],[80.153279,12.98751],[80.153405,12.987525],[80.15356,12.987483],[80.153671,12.987497],[80.153736,12.987561],[80.153718,12.987631],[80.153712,12.987714],[80.153718,12.987795],[80.153795,12.987844],[80.153847,12.987914],[80.15393,12.987905],[80.154035,12.98786],[80.154115,12.987881],[80.154161,12.987981],[80.154244,12.98803],[80.154299,12.988126],[80.154338,12.988314],[80.154414,12.988552],[80.154447,12.988803],[80.154511,12.988969],[80.154612,12.989118],[80.154693,12.989213],[80.154813,12.989308],[80.154982,12.989271],[80.155049,12.98912],[80.155064,12.988931],[80.155142,12.988781],[80.155162,12.988653],[80.155172,12.988479],[80.155177,12.988384],[80.155221,12.988271],[80.15525,12.988182],[80.155293,12.988083],[80.155294,12.987951],[80.155342,12.987838],[80.155439,12.987819],[80.15553,12.987871],[80.155553,12.988008],[80.15564,12.988051],[80.155784,12.988009],[80.155919,12.987991],[80.156049,12.987996],[80.156198,12.988043],[80.156284,12.988185],[80.156312,12.988327],[80.156389,12.988506],[80.156485,12.988464],[80.156548,12.988323],[80.156621,12.988243],[80.156698,12.988224],[80.156843,12.988246],[80.157014,12.98825],[80.157134,12.988241],[80.157223,12.988241],[80.157388,12.988248],[80.157461,12.988302],[80.157566,12.988302],[80.157641,12.988297],[80.157704,12.988312],[80.157723,12.988345],[80.157743,12.988396],[80.157806,12.988458],[80.157888,12.988506],[80.157955,12.988589],[80.15802,12.988669],[80.158096,12.988713],[80.158194,12.988742],[80.158247,12.988781],[80.158305,12.988842],[80.158357,12.988918],[80.1584,12.988993],[80.158416,12.989074],[80.158447,12.989163],[80.15848,12.989226],[80.158523,12.989278],[80.158558,12.989353],[80.158589,12.989438],[80.158615,12.989496],[80.158678,12.989608],[80.158765,12.989699],[80.158859,12.989806],[80.158935,12.989978],[80.159016,12.990135],[80.159064,12.990294],[80.159121,12.990431],[80.159186,12.990545],[80.159232,12.990642],[80.159287,12.990769],[80.159308,12.990869],[80.159363,12.99099],[80.159418,12.991105],[80.159528,12.991214],[80.159602,12.991314],[80.159645,12.991402],[80.15969,12.99149],[80.159741,12.991577],[80.159772,12.991633],[80.159802,12.991683],[80.159828,12.991722],[80.159851,12.991771],[80.15987,12.991824],[80.1599,12.991881],[80.159916,12.991932],[80.15992,12.991987],[80.159937,12.992042],[80.159953,12.992084],[80.159949,12.992122],[80.159937,12.992173],[80.159944,12.992211],[80.159962,12.992311],[80.159983,12.99242],[80.160026,12.992529],[80.160065,12.992638],[80.160127,12.992732],[80.160243,12.992823],[80.160369,12.992917],[80.160538,12.992996],[80.160714,12.993035],[80.160788,12.993075],[80.160861,12.993142],[80.161,12.993214],[80.161147,12.993248],[80.161298,12.99327],[80.161298,12.99333],[80.161307,12.993421],[80.16131,12.993511],[80.161294,12.993623],[80.161324,12.993738],[80.161339,12.993822],[80.16136,12.993925],[80.161372,12.994016],[80.161345,12.994088],[80.161267,12.994127],[80.161168,12.994152],[80.161075,12.994169],[80.160995,12.994198],[80.160944,12.994229],[80.160923,12.994276],[80.160918,12.994339],[80.16092,12.994401],[80.160925,12.994439],[80.160921,12.99448],[80.160908,12.994513],[80.160888,12.994543],[80.160844,12.99458],[80.160808,12.994624],[80.160796,12.994657],[80.160789,12.994709],[80.160779,12.994794],[80.160783,12.994861],[80.160789,12.994942],[80.160777,12.995016],[80.160731,12.995101],[80.160674,12.995168],[80.160636,12.995247],[80.16059,12.995348],[80.160535,12.995423],[80.160475,12.995498],[80.160412,12.995556],[80.160331,12.995594],[80.16026,12.995621],[80.160132,12.995626],[80.160014,12.995668],[80.159933,12.995744],[80.159897,12.995817],[80.159891,12.995937],[80.159955,12.996101],[80.16006,12.996207],[80.160105,12.996327],[80.160053,12.996463],[80.159871,12.996574],[80.159707,12.99661],[80.159504,12.996682],[80.159433,12.996793],[80.159429,12.996932],[80.159347,12.997196],[80.159226,12.997328],[80.159132,12.99747]]}},{"type":"Feature","properties":{"name":"Airport draiin"},"geometry":{"type":"LineString","coordinates":[[80.165565,12.991081],[80.165537,12.991121],[80.165448,12.991101],[80.165293,12.991051],[80.16514,12.991004],[80.165097,12.991048],[80.165065,12.991162],[80.165041,12.991258],[80.164996,12.991351],[80.164951,12.991388],[80.164163,12.991437],[80.164095,12.991496],[80.164014,12.991552],[80.163937,12.991614],[80.163958,12.991735],[80.163967,12.99195],[80.16398,12.99218],[80.16399,12.992311],[80.163999,12.992584],[80.164008,12.992845],[80.164034,12.993079],[80.164081,12.993346],[80.164116,12.993584],[80.164054,12.993772],[80.163987,12.993921],[80.16387,12.993928],[80.163789,12.993932],[80.163767,12.993961],[80.163758,12.994132],[80.163766,12.994272],[80.163761,12.994385],[80.163763,12.994436],[80.163055,12.995017],[80.162423,12.995526],[80.161996,12.99586],[80.161482,12.996265],[80.161133,12.996542],[80.160766,12.996831],[80.160593,12.996961],[80.160517,12.997052],[80.160467,12.997139],[80.160319,12.997347],[80.160261,12.997402],[80.160233,12.997462],[80.160239,12.99753],[80.160201,12.997614],[80.160083,12.997687],[80.159978,12.99778],[80.159947,12.997866],[80.159961,12.997988],[80.159999,12.998063]]}},{"type":"Feature","properties":{"name":"Pammal Drain"},"geometry":{"type":"LineString","coordinates":[[80.129433,12.957933],[80.129162,12.958172],[80.129042,12.958346],[80.128858,12.958527],[80.128719,12.95873],[80.1283,12.958992],[80.128121,12.959117],[80.128078,12.959166],[80.128132,12.95932],[80.128251,12.959713],[80.128378,12.960167],[80.128447,12.960436],[80.128466,12.960497],[80.128466,12.96046],[80.128515,12.960662],[80.127822,12.960788],[80.127473,12.96084],[80.126953,12.960902],[80.126584,12.960923],[80.126261,12.960944],[80.1261,12.960973],[80.125865,12.96104],[80.12545,12.961178],[80.125192,12.961292],[80.124919,12.961406],[80.124642,12.961546],[80.124289,12.961644],[80.123585,12.961966],[80.123006,12.962315],[80.122682,12.962532],[80.12218,12.962908],[80.121997,12.96315],[80.121812,12.96327],[80.121554,12.963435],[80.121273,12.96361],[80.121051,12.96383],[80.120747,12.96411],[80.120421,12.964385],[80.120121,12.964634],[80.119698,12.965001],[80.119519,12.96521],[80.119367,12.96533],[80.119326,12.965517],[80.119263,12.965676],[80.118679,12.965729],[80.118623,12.965857],[80.118249,12.966075],[80.117649,12.966359],[80.117394,12.966507],[80.117236,12.966751],[80.117102,12.966931],[80.116823,12.967066],[80.116524,12.967197],[80.116192,12.967285],[80.116014,12.967275],[80.115859,12.967257],[80.115668,12.967466],[80.11551,12.967656],[80.115285,12.967753],[80.11515,12.967792],[80.115047,12.967762],[80.114812,12.967687],[80.114603,12.967728],[80.114484,12.967771],[80.114428,12.967848]]}},{"type":"Feature","properties":{"name":"Kundrathur Drain"},"geometry":{"type":"LineString","coordinates":[[80.121155,12.986324],[80.120808,12.986942],[80.120455,12.98749],[80.119851,12.988021],[80.119345,12.988375],[80.118753,12.988752],[80.118418,12.98909],[80.11814,12.9894],[80.117823,12.99019],[80.117692,12.990541],[80.117661,12.990867],[80.117664,12.991208],[80.11761,12.991651],[80.117403,12.992007],[80.117081,12.99214],[80.116553,12.992102],[80.116267,12.991992],[80.116113,12.99169],[80.115963,12.991327],[80.115723,12.991035],[80.115632,12.990933],[80.115404,12.990972],[80.115166,12.991049],[80.114905,12.991032],[80.114643,12.990954],[80.114243,12.990906],[80.113639,12.990901],[80.112945,12.990962],[80.112812,12.990986]]}},{"type":"Feature","properties":{"name":"Pappan Channel"},"geometry":{"type":"LineString","coordinates":[[80.0925,12.925206],[80.092412,12.925669],[80.092375,12.926026],[80.093053,12.926101],[80.093793,12.92624],[80.094178,12.926222],[80.09474,12.926258],[80.095428,12.926288],[80.095882,12.928121],[80.096167,12.929048],[80.096678,12.930995],[80.097108,12.932372],[80.097735,12.934363],[80.098126,12.93588],[80.098297,12.936509],[80.097955,12.93677],[80.097101,12.936979],[80.09606,12.93723],[80.09503,12.93749]]}},{"type":"Feature","properties":{"name":"Tharapakkam drain"},"geometry":{"type":"LineString","coordinates":[[80.156776,12.996906],[80.154657,12.997145],[80.152556,12.997282],[80.151901,12.997417],[80.151306,12.997888],[80.15056,12.998574],[80.150004,12.999212],[80.149427,12.999654],[80.148869,13.000059],[80.148803,13.001356],[80.148503,13.001936],[80.14784,13.002296],[80.147426,13.002905],[80.147079,13.003485],[80.146597,13.003974],[80.14584,13.004446],[80.145156,13.004525],[80.144108,13.004272],[80.14346,13.00409],[80.142773,13.003815],[80.141838,13.003375],[80.141416,13.002902],[80.140755,13.002254],[80.140315,13.001996],[80.139849,13.001962],[80.139421,13.0019],[80.138716,13.001737],[80.138095,13.001369],[80.137684,13.001027],[80.137358,13.000722],[80.137165,13.000331],[80.136945,13.000146],[80.136563,12.999953],[80.136172,12.999854],[80.13582,12.999828],[80.135677,12.999773],[80.135504,12.999773],[80.135467,13.000085],[80.135498,13.000451],[80.135533,13.000738],[80.135548,13.001077],[80.135574,13.001392],[80.135582,13.001767],[80.135616,13.002247],[80.135775,13.002847],[80.135835,13.003185],[80.135965,13.003704],[80.13595,13.004003],[80.135997,13.004459],[80.136008,13.004653],[80.13601,13.004923],[80.135999,13.005121],[80.135923,13.005413],[80.135774,13.005489],[80.135616,13.005702],[80.135513,13.005859],[80.135495,13.006032],[80.135474,13.006396],[80.135444,13.006568],[80.135405,13.006771],[80.135412,13.00699],[80.1354,13.007263]]}},{"type":"Feature","properties":{"name":"Thirumudivakkam Drain"},"geometry":{"type":"LineString","coordinates":[[80.084085,12.969446],[80.084076,12.969193],[80.084089,12.968971],[80.08404,12.968808],[80.084027,12.968686],[80.084089,12.968522],[80.084147,12.968566],[80.084221,12.968611],[80.084322,12.968598],[80.084423,12.968577],[80.084464,12.968304],[80.084473,12.968202],[80.084496,12.968132],[80.084533,12.968085],[80.084634,12.968019],[80.084898,12.968057],[80.085032,12.968037],[80.085163,12.968008],[80.085281,12.967896],[80.085318,12.967784],[80.085302,12.967618],[80.085319,12.967518],[80.085336,12.967459],[80.085358,12.967369],[80.085365,12.967292],[80.085383,12.967227],[80.085438,12.96717],[80.085526,12.967122],[80.08564,12.967104],[80.085754,12.967138],[80.085833,12.967167],[80.085949,12.967194],[80.086048,12.967215],[80.086165,12.967234],[80.08623,12.967229],[80.086314,12.967186],[80.086473,12.967123],[80.086619,12.967008],[80.086717,12.966925],[80.086893,12.966827],[80.087067,12.966756],[80.08732,12.966675],[80.087479,12.966654],[80.087605,12.966633],[80.087752,12.9666],[80.087886,12.966557],[80.087956,12.966484],[80.08808,12.966444],[80.088204,12.966443],[80.088343,12.966415],[80.088459,12.966434],[80.088576,12.966435],[80.08872,12.9664],[80.088904,12.966373],[80.089013,12.966368],[80.089339,12.966323],[80.089602,12.966292],[80.090152,12.966308],[80.090714,12.966316],[80.091563,12.966213],[80.092003,12.966195],[80.092549,12.966097],[80.093015,12.966089],[80.09338,12.966106],[80.093881,12.966177],[80.094154,12.966125],[80.094325,12.965896],[80.094419,12.965667],[80.094492,12.965279],[80.094526,12.964996],[80.094645,12.964667],[80.094723,12.964369],[80.094937,12.963787],[80.09511,12.963309],[80.09529,12.9629],[80.095545,12.962556],[80.09571,12.962227],[80.095798,12.961775],[80.095846,12.961422],[80.095954,12.961074],[80.096124,12.960795],[80.09648,12.960266],[80.09668,12.959947],[80.096805,12.959772],[80.096788,12.959484],[80.096777,12.959306],[80.096823,12.958709],[80.09679,12.958382],[80.096702,12.95806],[80.096628,12.957634],[80.096586,12.957435],[80.096601,12.953315],[80.096595,12.95258],[80.096654,12.952262],[80.096747,12.95222],[80.096879,12.952198],[80.097025,12.952195],[80.097216,12.952187],[80.097321,12.952165],[80.097429,12.95218],[80.097494,12.952194],[80.097849,12.952267],[80.098244,12.952251],[80.09856,12.952222],[80.098793,12.952215],[80.099088,12.952114],[80.099471,12.95185],[80.099735,12.951623],[80.100094,12.95132],[80.100583,12.950964],[80.100928,12.950743],[80.101124,12.950635],[80.101301,12.950549],[80.101439,12.950459]]}},{"type":"Feature","properties":{"name":"Kolapakkam Drain"},"geometry":{"type":"LineString","coordinates":[[80.145301,13.016751],[80.145914,13.016796],[80.146184,13.016809],[80.146454,13.016785],[80.146673,13.016781],[80.146845,13.01675],[80.147008,13.01673],[80.147082,13.016724],[80.147168,13.016748],[80.14727,13.016772],[80.147517,13.016799],[80.14763,13.016798],[80.14776,13.016803],[80.147938,13.016795],[80.148211,13.016777],[80.148441,13.016766],[80.148654,13.016764],[80.148727,13.016719],[80.148761,13.016665],[80.148777,13.016622],[80.148773,13.016551],[80.148777,13.016476],[80.148783,13.01642],[80.148793,13.016377],[80.148802,13.016273],[80.148819,13.016157],[80.148836,13.016083],[80.148829,13.015976],[80.148824,13.01584],[80.148811,13.01575],[80.148801,13.015652],[80.148798,13.01558],[80.148804,13.015429],[80.148796,13.01531],[80.148784,13.015124],[80.148787,13.014773],[80.148785,13.014529],[80.148774,13.014395],[80.148739,13.014263],[80.148688,13.014038],[80.148632,13.013869],[80.148576,13.013726],[80.148545,13.013633],[80.148498,13.013475],[80.148462,13.013237],[80.148431,13.013148],[80.148411,13.013009],[80.148475,13.012932],[80.148539,13.01287],[80.14861,13.012812],[80.148634,13.012735],[80.148624,13.012646],[80.148607,13.012585],[80.148589,13.012512],[80.148505,13.01242],[80.14847,13.012379],[80.148443,13.012322],[80.148394,13.012132],[80.148347,13.011904],[80.148239,13.011672],[80.148235,13.011614],[80.148242,13.011532],[80.148291,13.011321],[80.148332,13.01112],[80.148356,13.011045],[80.148385,13.01093],[80.148481,13.010808],[80.148495,13.010475],[80.148509,13.010436],[80.148597,13.010393],[80.1487,13.010366],[80.148789,13.010356],[80.148951,13.010341],[80.149046,13.010314],[80.149195,13.01025],[80.149327,13.01015],[80.149429,13.01006],[80.149559,13.009966],[80.149755,13.009842],[80.150027,13.009631],[80.150204,13.009448],[80.150292,13.009324],[80.150428,13.009198],[80.150548,13.009028],[80.150966,13.008558],[80.151126,13.008406],[80.15126,13.008261],[80.151544,13.00793],[80.151665,13.007836],[80.151816,13.00776],[80.151972,13.007688],[80.152103,13.007535],[80.152288,13.007336],[80.152359,13.007265],[80.15237,13.007142],[80.152319,13.00696],[80.152329,13.006718],[80.152307,13.006405],[80.152295,13.006234],[80.152511,13.006192],[80.152727,13.006216],[80.15289,13.005867],[80.153386,13.005479],[80.153663,13.005294],[80.153821,13.005114],[80.153864,13.004965],[80.153977,13.004843],[80.154199,13.004764],[80.154296,13.004408],[80.154485,13.004216],[80.154939,13.004228],[80.155554,13.003826],[80.155712,13.003546],[80.156089,13.003415],[80.156287,13.003159],[80.156942,13.003004],[80.157414,13.002672],[80.157545,13.002423],[80.15809,13.002091],[80.158622,13.001299],[80.160251,13.001044],[80.161423,13.001013]]}},{"type":"Feature","properties":{"name":"Okkium Madavu drain"},"geometry":{"type":"LineString","coordinates":[[80.223758,12.926802],[80.224101,12.927059],[80.224409,12.927233],[80.224727,12.927389],[80.225096,12.927388],[80.225457,12.927256],[80.225719,12.926912],[80.225848,12.926454],[80.226095,12.92609],[80.226325,12.925603],[80.226447,12.925177],[80.226669,12.924904],[80.22703,12.924678],[80.227518,12.924502],[80.228293,12.924254],[80.228803,12.924183],[80.229298,12.924201],[80.229872,12.924167],[80.230388,12.924076],[80.231037,12.924028],[80.23146,12.923756],[80.231796,12.923412],[80.232234,12.922945],[80.232512,12.922456],[80.232641,12.921991],[80.232759,12.921608],[80.232992,12.921351],[80.233195,12.921028],[80.233634,12.920734],[80.234117,12.920479],[80.234709,12.920246],[80.235268,12.920118],[80.235882,12.920079],[80.236608,12.920235],[80.237541,12.920779],[80.237851,12.921119],[80.238239,12.921516],[80.238454,12.921869],[80.238466,12.92189],[80.238771,12.922435],[80.239048,12.922877],[80.239333,12.923428],[80.239366,12.923456],[80.239645,12.923886],[80.239948,12.924278],[80.240324,12.924498],[80.240739,12.924621],[80.241235,12.924536],[80.241603,12.924322],[80.241978,12.924053],[80.242289,12.923806],[80.242539,12.923513],[80.242748,12.923253],[80.242961,12.922996]]}}]}