{"type":"FeatureCollection","crs":{"type":"name","properties":{"name":"urn:ogc:def:crs:OGC:1.3:CRS84"}},"features":[{"type":"Feature","properties":{"name":"Jothi Nagar"},"geometry":{"type":"Point","coordinates":[80.298886,13.180149]}},{"type":"Feature","properties":{"name":"Rajaji Nagar"},"geometry":{"type":"Point","coordinates":[80.292376,13.173009]}},{"type":"Feature","properties":{"name":"Thirumalai Nagar"},"geometry":{"type":"Point","coordinates":[80.213682,13.171351]}},{"type":"Feature","properties":{"name":"Siva Ganapathi Nagar"},"geometry":{"type":"Point","coordinates":[80.214804,13.138832]}},{"type":"Feature","properties":{"name":"Parimalam Nagar"},"geometry":{"type":"Point","coordinates":[80.208234,13.140403]}},{"type":"Feature","properties":{"name":"Karukku Main Road"},"geometry":{"type":"Point","coordinates":[80.170611,13.11714]}},{"type":"Feature","properties":{"name":"TVS nagar east, Balaji nagar"},"geometry":{"type":"Point","coordinates":[80.189743,13.11392]}},{"type":"Feature","properties":{"name":"Ayyappa Nagar"},"geometry":{"type":"Point","coordinates":[80.199086,13.12844]}},{"type":"Feature","properties":{"name":"Balaji nagar"},"geometry":{"type":"Point","coordinates":[80.191336,13.114769]}},{"type":"Feature","properties":{"name":"Jaswant nagar"},"geometry":{"type":"Point","coordinates":[80.163433,13.086308]}},{"type":"Feature","properties":{"name":"Vellalar nagar"},"geometry":{"type":"Point","coordinates":[80.176188,13.086582]}},{"type":"Feature","properties":{"name":"Parikuppam main road"},"geometry":{"type":"Point","coordinates":[80.187803,13.081504]}},{"type":"Feature","properties":{"name":"MTH Road Near Villivakkam Police Station"},"geometry":{"type":"Point","coordinates":[80.20611,13.103851]}},{"type":"Feature","properties":{"name":"Dr Alagappa Road"},"geometry":{"type":"Point","coordinates":[80.254362,13.081737]}},{"type":"Feature","properties":{"name":"Sundaram Lane"},"geometry":{"type":"Point","coordinates":[80.251833,13.087392]}},{"type":"Feature","properties":{"name":"Nagendhran Street"},"geometry":{"type":"Point","coordinates":[80.17124,13.06088]}},{"type":"Feature","properties":{"name":"Chettiyar Agaram Main road"},"geometry":{"type":"Point","coordinates":[80.146011,13.043715]}},{"type":"Feature","properties":{"name":"Ram nagar 1st street"},"geometry":{"type":"Point","coordinates":[80.211175,12.966293]}},{"type":"Feature","properties":{"name":"Ram nagar 2nd street"},"geometry":{"type":"Point","coordinates":[80.211175,12.966783]}},{"type":"Feature","properties":{"name":"Ram nagar 3rd street"},"geometry":{"type":"Point","coordinates":[80.211279,12.967314]}},{"type":"Feature","properties":{"name":"Ram nagar 5th street"},"geometry":{"type":"Point","coordinates":[80.211237,12.968346]}},{"type":"Feature","properties":{"name":"Ram nagar 7th street"},"geometry":{"type":"Point","coordinates":[80.211279,12.969441]}},{"type":"Feature","properties":{"name":"Ram nagar 8th street"},"geometry":{"type":"Point","coordinates":[80.211248,12.969972]}},{"type":"Feature","properties":{"name":"Sivaprakasam Nagar 1st street"},"geometry":{"type":"Point","coordinates":[80.206551,12.972748]}},{"type":"Feature","properties":{"name":"Balaji nagar 24th street"},"geometry":{"type":"Point","coordinates":[80.205368,12.974205]}},{"type":"Feature","properties":{"name":"Annai therasa Nagar 7th street"},"geometry":{"type":"Point","coordinates":[80.203544,12.97086]}},{"type":"Feature","properties":{"name":"Annai Therasa NagAR 4TH STREET"},"geometry":{"type":"Point","coordinates":[80.205055,12.968754]}},{"type":"Feature","properties":{"name":"Annai therasa nagar 14th street"},"geometry":{"type":"Point","coordinates":[80.204615,12.972335]}},{"type":"Feature","properties":{"name":"Sivasubramanian street"},"geometry":{"type":"Point","coordinates":[80.208,12.970623]}},{"type":"Feature","properties":{"name":"Sivaprakasam nagar 1st street"},"geometry":{"type":"Point","coordinates":[80.206822,12.970935]}},{"type":"Feature","properties":{"name":"Ramalingam nagar main road"},"geometry":{"type":"Point","coordinates":[80.210309,12.965869]}},{"type":"Feature","properties":{"name":"Jaya nagar"},"geometry":{"type":"Point","coordinates":[80.202056,12.974495]}},{"type":"Feature","properties":{"name":"Division office Ward 183"},"geometry":{"type":"Point","coordinates":[80.259012,12.974128]}},{"type":"Feature","properties":{"name":"Saraswathi street"},"geometry":{"type":"Point","coordinates":[80.195496,12.965528]}},{"type":"Feature","properties":{"name":"Infront of Maharasthra bank Neelankarai"},"geometry":{"type":"Point","coordinates":[80.254388,12.947977]}},{"type":"Feature","properties":{"name":"Ellaiamman koil 4th street"},"geometry":{"type":"Point","coordinates":[80.250385,12.948273]}},{"type":"Feature","properties":{"name":"Mahatma Gandhi 2nd main road"},"geometry":{"type":"Point","coordinates":[80.246579,12.937638]}},{"type":"Feature","properties":{"name":"Karpaga Vinayaga nagar 3rd street"},"geometry":{"type":"Point","coordinates":[80.246909,12.937695]}},{"type":"Feature","properties":{"name":"Karpaga Vinayaga nagar 4th street"},"geometry":{"type":"Point","coordinates":[80.247785,12.937674]}},{"type":"Feature","properties":{"name":"Karpaga Vinayaga nagar 5th street"},"geometry":{"type":"Point","coordinates":[80.248118,12.937622]}},{"type":"Feature","properties":{"name":"Karpaga Vinayaga nagar 7th street"},"geometry":{"type":"Point","coordinates":[80.24865,12.937513]}},{"type":"Feature","properties":{"name":"Karpaga Vinayaga nagar 10th street"},"geometry":{"type":"Point","coordinates":[80.247847,12.936455]}},{"type":"Feature","properties":{"name":"Balaji nagar"},"geometry":{"type":"Point","coordinates":[80.240359,12.935886]}},{"type":"Feature","properties":{"name":"Bharathiyar nagar"},"geometry":{"type":"Point","coordinates":[80.239655,12.937252]}},{"type":"Feature","properties":{"name":"Saraswathi nagar 4th cross street"},"geometry":{"type":"Point","coordinates":[80.230685,12.931753]}},{"type":"Feature","properties":{"name":"ECR Road Philominal School"},"geometry":{"type":"Point","coordinates":[80.251367,12.919357]}},{"type":"Feature","properties":{"name":"Ramalinga nagar"},"geometry":{"type":"Point","coordinates":[80.249188,12.932315]}},{"type":"Feature","properties":{"name":"Annai fathima school"},"geometry":{"type":"Point","coordinates":[80.229085,12.910769]}},{"type":"Feature","properties":{"name":"Classic farms avenue 1st street"},"geometry":{"type":"Point","coordinates":[80.215,12.896352]}},{"type":"Feature","properties":{"name":"Ponniyamman koil"},"geometry":{"type":"Point","coordinates":[80.228613,12.883188]}},{"type":"Feature","properties":{"name":"Thiruvalluvar nagar"},"geometry":{"type":"Point","coordinates":[80.230687,12.875755]}},{"type":"Feature","properties":{"name":"Jawahar nagar 6th 7th street"},"geometry":{"type":"Point","coordinates":[80.213715,12.862756]}},{"type":"Feature","properties":{"name":"Nookampalayam Main road"},"geometry":{"type":"Point","coordinates":[80.210719,12.87949]}}]}