{
  "type": "FeatureCollection",
  "features": [
    {
      "type": "Feature",
      "properties": {
        "name": "chennai_volunteer_registry 1"
      },
      "geometry": {
        "type": "Point",
        "coordinates": [
          80.21079971359765,
          13.023494972151797
        ]
      }
    },
    {
      "type": "Feature",
      "properties": {
        "name": "chennai_volunteer_registry 2"
      },
      "geometry": {
        "type": "Point",
        "coordinates": [
          80.26841309259855,
          13.082109856275226
        ]
      }
    },
    {
      "type": "Feature",
      "properties": {
        "name": "chennai_volunteer_registry 3"
      },
      "geometry": {
        "type": "Point",
        "coordinates": [
          80.27827050580953,
          13.059308787619292
        ]
      }
    }
  ]
}