{
  "type": "FeatureCollection",
  "features": [
    {
      "type": "Feature",
      "properties": {
        "name": "CWC Flood Forecast — Adyar/Cooum Daily (CWC)",
        "source": "https://ffs.india-water.gov.in",
        "note": "Deep gap audit 3 — now added"
      },
      "geometry": {
        "type": "Polygon",
        "coordinates": [
          [
            [
              80.18,
              12.98
            ],
            [
              80.28,
              12.98
            ],
            [
              80.28,
              13.08
            ],
            [
              80.18,
              13.08
            ],
            [
              80.18,
              12.98
            ]
          ]
        ]
      }
    },
    {
      "type": "Feature",
      "properties": {
        "name": "CWC Flood Forecast — Adyar/Cooum Daily (CWC) (2)",
        "source": "https://ffs.india-water.gov.in",
        "note": "Deep gap audit 3 — now added"
      },
      "geometry": {
        "type": "Point",
        "coordinates": [
          80.22,
          13.03
        ]
      }
    }
  ]
}