{
  "type": "FeatureCollection",
  "features": [
    {
      "type": "Feature",
      "properties": {
        "name": "Google Open Buildings — 1.8 B footprints Chennai clip",
        "source": "https://sites.research.google/open-buildings/",
        "provenance": "Gap from OpenCity Datajam Jan 2024 — now added"
      },
      "geometry": {
        "type": "Polygon",
        "coordinates": [
          [
            [
              80.18,
              12.98
            ],
            [
              80.28,
              12.98
            ],
            [
              80.28,
              13.08
            ],
            [
              80.18,
              13.08
            ],
            [
              80.18,
              12.98
            ]
          ]
        ]
      }
    },
    {
      "type": "Feature",
      "properties": {
        "name": "Google Open Buildings — 1.8 B footprints Chennai clip (2)",
        "source": "https://sites.research.google/open-buildings/",
        "provenance": "Gap from OpenCity Datajam Jan 2024 — now added"
      },
      "geometry": {
        "type": "Point",
        "coordinates": [
          80.22,
          13.03
        ]
      }
    }
  ]
}