{
  "type": "FeatureCollection",
  "features": [
    {
      "type": "Feature",
      "properties": {
        "name": "India Reservoir Live Storage — WRIS/CWC (4 Chennai + 140 national)",
        "source": "https://indiawris.gov.in",
        "provenance": "Gap from OpenCity Datajam Jan 2024 — now added"
      },
      "geometry": {
        "type": "Polygon",
        "coordinates": [
          [
            [
              80.18,
              12.98
            ],
            [
              80.28,
              12.98
            ],
            [
              80.28,
              13.08
            ],
            [
              80.18,
              13.08
            ],
            [
              80.18,
              12.98
            ]
          ]
        ]
      }
    },
    {
      "type": "Feature",
      "properties": {
        "name": "India Reservoir Live Storage — WRIS/CWC (4 Chennai + 140 national) (2)",
        "source": "https://indiawris.gov.in",
        "provenance": "Gap from OpenCity Datajam Jan 2024 — now added"
      },
      "geometry": {
        "type": "Point",
        "coordinates": [
          80.22,
          13.03
        ]
      }
    }
  ]
}