{
  "type": "FeatureCollection",
  "features": [
    {
      "type": "Feature",
      "properties": {
        "name": "IFI-Impacts 1967-2023 — HydroSense Zenodo v3 11275211 (IITD)",
        "source": "https://zenodo.org/records/11275211",
        "note": "Final gap audit — now added"
      },
      "geometry": {
        "type": "Polygon",
        "coordinates": [
          [
            [
              80.18,
              12.98
            ],
            [
              80.28,
              12.98
            ],
            [
              80.28,
              13.08
            ],
            [
              80.18,
              13.08
            ],
            [
              80.18,
              12.98
            ]
          ]
        ]
      }
    },
    {
      "type": "Feature",
      "properties": {
        "name": "IFI-Impacts 1967-2023 — HydroSense Zenodo v3 11275211 (IITD) (2)",
        "source": "https://zenodo.org/records/11275211",
        "note": "Final gap audit — now added"
      },
      "geometry": {
        "type": "Point",
        "coordinates": [
          80.22,
          13.03
        ]
      }
    }
  ]
}