{
  "type": "FeatureCollection",
  "name": "imd_rainfall_stations_chennai",
  "crs": { "type": "name", "properties": { "name": "urn:ogc:def:crs:OGC:1.3:CRS84" } },
  "features": [
    {"type":"Feature","properties":{"station_id":"IMD-CHN-01","station":"Nungambakkam","district":"Chennai","source":"IMD","date":"2024-12-03","rainfall_mm":187.5,"intensity":"very_heavy","cn_zone":82},"geometry":{"type":"Point","coordinates":[80.244,13.060]}},
    {"type":"Feature","properties":{"station_id":"IMD-CHN-02","station":"Meenambakkam","district":"Chennai","source":"IMD","date":"2024-12-03","rainfall_mm":142.3,"intensity":"heavy","cn_zone":78},"geometry":{"type":"Point","coordinates":[80.171,12.982]}},
    {"type":"Feature","properties":{"station_id":"IMD-CHN-03","station":"Anna University","district":"Chennai","source":"IMD","date":"2024-12-03","rainfall_mm":165.0,"intensity":"very_heavy","cn_zone":80},"geometry":{"type":"Point","coordinates":[80.241,13.013]}},
    {"type":"Feature","properties":{"station_id":"IMD-CHN-04","station":"Taramani","district":"Chennai","source":"IMD","date":"2024-12-03","rainfall_mm":98.4,"intensity":"heavy","cn_zone":75},"geometry":{"type":"Point","coordinates":[80.245,12.987]}},
    {"type":"Feature","properties":{"station_id":"IMD-CHN-05","station":"Ennore","district":"Chennai","source":"IMD","date":"2024-12-03","rainfall_mm":210.2,"intensity":"extremely_heavy","cn_zone":85},"geometry":{"type":"Point","coordinates":[80.315,13.214]}},
    {"type":"Feature","properties":{"station_id":"IMD-CHN-06","station":"Tambaram","district":"Chennai","source":"IMD","date":"2024-12-03","rainfall_mm":76.8,"intensity":"moderate","cn_zone":72},"geometry":{"type":"Point","coordinates":[80.122,12.924]}},
    {"type":"Feature","properties":{"station_id":"IMD-CHN-07","station":"Ambattur","district":"Chennai","source":"IMD","date":"2024-12-03","rainfall_mm":124.6,"intensity":"heavy","cn_zone":77},"geometry":{"type":"Point","coordinates":[80.148,13.114]}},
    {"type":"Feature","properties":{"station_id":"IMD-CHN-08","station":"Sholinganallur","district":"Chennai","source":"IMD","date":"2024-12-03","rainfall_mm":88.9,"intensity":"moderate","cn_zone":74},"geometry":{"type":"Point","coordinates":[80.228,12.901]}}
  ]
}
