{
"type": "FeatureCollection",
"name": "waterway_with_river",
"crs": { "type": "name", "properties": { "name": "urn:ogc:def:crs:OGC:1.3:CRS84" } },
"features": [
{"type":"Feature","properties":{"full_id":"w32742657","osm_id":"32742657","osm_type":"way","waterway":"stream","intermittent":null,"name":null,"boat":"no"},"geometry":{"type":"LineString","coordinates":[[80.2059836,13.0080034],[80.2057179,13.0099701],[80.2060457,13.0109421],[80.2063844,13.0114055],[80.2071379,13.012739],[80.207271,13.0129156],[80.207431,13.0128955],[80.2080461,13.0142494],[80.2082409,13.0145463],[80.2083868,13.0147387],[80.2084126,13.0150481],[80.2084469,13.0152488],[80.2084469,13.0155164],[80.2084466,13.0156291],[80.2084469,13.0157756],[80.2083924,13.0162346],[80.2084481,13.0164333],[80.2085977,13.0166175],[80.208761,13.0167587],[80.2090992,13.0168878],[80.2092881,13.0169508],[80.2094254,13.0169966],[80.2097172,13.0170551],[80.2100176,13.0171136],[80.2101053,13.0174038],[80.2102665,13.0174649],[80.2103609,13.017618],[80.2104038,13.0176906],[80.2102751,13.0181924],[80.2103008,13.0183345],[80.2103695,13.0183931],[80.2104725,13.018368],[80.2106098,13.0182676],[80.210936,13.0182844],[80.2112021,13.0182175],[80.2113737,13.0181924],[80.2115626,13.0182258],[80.2118029,13.0183596],[80.2118379,13.0185205],[80.211863,13.0186356],[80.2120346,13.0188614],[80.2121205,13.0190035],[80.2121245,13.0190129],[80.2121634,13.0191039],[80.2123994,13.0194407]]}},
{"type":"Feature","properties":{"full_id":"w111749073","osm_id":"111749073","osm_type":"way","waterway":"stream","intermittent":null,"name":"Adyar Creek","boat":null},"geometry":{"type":"LineString","coordinates":[[80.2631657,13.0211257],[80.2634273,13.0210512],[80.2638283,13.0210429],[80.2641073,13.0210534],[80.2643957,13.0210149],[80.2646115,13.0210011],[80.2648368,13.0211475],[80.2650407,13.0213565],[80.2652231,13.0216492],[80.2652767,13.0219523],[80.2653304,13.02213],[80.265502,13.0224227],[80.2658024,13.0227468],[80.2659788,13.0228604],[80.2661458,13.0229035],[80.2664783,13.0228721],[80.2666607,13.0229975],[80.267004,13.0233629],[80.2675082,13.0236764],[80.2676692,13.0239378],[80.2681198,13.0242723],[80.2689025,13.0243872],[80.269632,13.0243872],[80.2706298,13.0241782],[80.2715418,13.0238562],[80.2722928,13.0235928],[80.2728543,13.0229733],[80.2742454,13.0227467],[80.2750715,13.0221195],[80.2754685,13.0215028],[80.2756831,13.0207606],[80.2758215,13.0204334],[80.2758556,13.0201473],[80.2758333,13.0199139],[80.2757153,13.0191717],[80.2752402,13.0173406],[80.2754074,13.0167018],[80.2758566,13.0154287],[80.2756647,13.0148853],[80.2752217,13.0143215],[80.275027,13.0130658]]}},
{"type":"Feature","properties":{"full_id":"w133591388","osm_id":"133591388","osm_type":"way","waterway":"stream","intermittent":null,"name":null,"boat":null},"geometry":{"type":"LineString","coordinates":[[80.3068741,13.2146688],[80.3069686,13.2151269],[80.3073324,13.2154528],[80.3077108,13.2163171],[80.3079291,13.2165721],[80.3086131,13.2171247],[80.310738,13.218329],[80.3116403,13.2188815],[80.3122079,13.22027],[80.3129211,13.2218994],[80.3137943,13.2231036],[80.3149295,13.2241379],[80.3169088,13.2256255]]}},
{"type":"Feature","properties":{"full_id":"w133591393","osm_id":"133591393","osm_type":"way","waterway":"stream","intermittent":null,"name":null,"boat":null},"geometry":{"type":"LineString","coordinates":[[80.3090206,13.2284024],[80.3095155,13.2282182],[80.3132285,13.2275082],[80.3135905,13.227439],[80.3142018,13.2271415],[80.3154971,13.2261356],[80.3164431,13.2257247],[80.3169088,13.2256255],[80.3182519,13.2259699]]}},
{"type":"Feature","properties":{"full_id":"w217688013","osm_id":"217688013","osm_type":"way","waterway":"stream","intermittent":null,"name":null,"boat":null},"geometry":{"type":"LineString","coordinates":[[80.2520041,13.06112],[80.2536124,13.0614012],[80.2541789,13.062739],[80.2543122,13.0627478],[80.2544098,13.0627543],[80.2551917,13.0628059],[80.2557713,13.0628876]]}},
{"type":"Feature","properties":{"full_id":"w1459226722","osm_id":"1459226722","osm_type":"way","waterway":"stream","intermittent":"yes","name":null,"boat":null},"geometry":{"type":"LineString","coordinates":[[80.2430008,13.0062794],[80.2428216,13.0055646],[80.242592,13.0051663],[80.242256,13.0047379],[80.2420068,13.0041896],[80.2420796,13.0036276],[80.2422224,13.0032293],[80.2424002,13.0028736],[80.2426896,13.0022798],[80.2427384,13.0019532],[80.2429456,13.0008814],[80.2430734,13.0002979]]}}
]
}
