{
"type": "FeatureCollection",
"name": "highway",
"crs": { "type": "name", "properties": { "name": "urn:ogc:def:crs:OGC:1.3:CRS84" } },
"features": [
{"type":"Feature","properties":{"full_id":"r14906635","osm_id":"14906635","osm_type":"relation","highway":"pedestrian","horse":null,"covered":null,"layer":null,"building":null,"surface":null,"motor_vehicle":null,"foot":null,"bicycle":null,"name":null,"type":"multipolygon"},"geometry":{"type":"MultiPolygon","coordinates":[[[[80.271091,13.0812431],[80.2710753,13.0812457],[80.2710592,13.0812525],[80.2710377,13.0812662],[80.2710216,13.0812778],[80.2710178,13.0812962],[80.2710316,13.0813005],[80.2710511,13.0813123],[80.2710709,13.0813305],[80.2710581,13.0813975],[80.2710745,13.0814009],[80.2710935,13.0814049],[80.2711078,13.0813302],[80.2711318,13.0813261],[80.2711765,13.081323],[80.2712095,13.081325],[80.2712068,13.0813577],[80.2712084,13.0813764],[80.2712153,13.081394],[80.2712287,13.0814049],[80.271243,13.081408],[80.2712569,13.0814033],[80.2712728,13.0813919],[80.2712888,13.0813686],[80.2712977,13.0813406],[80.2713493,13.0813517],[80.2713844,13.081362],[80.2714127,13.0813719],[80.2714132,13.08136],[80.2714144,13.0813339],[80.271415,13.0813187],[80.2713721,13.0813203],[80.2713332,13.0813187],[80.2713047,13.0813148],[80.2713061,13.0812916],[80.2713067,13.0812651],[80.2713027,13.0812439],[80.2712913,13.0812263],[80.2712799,13.081221],[80.2712702,13.081221],[80.2712558,13.0812253],[80.2712397,13.0812384],[80.2712263,13.0812583],[80.2712182,13.0812766],[80.2712135,13.0812893],[80.2712117,13.0812989],[80.2711973,13.0812966],[80.2711779,13.0812819],[80.2711567,13.0812666],[80.2711303,13.0812512],[80.271113,13.0812452],[80.271091,13.0812431]],[[80.2711012,13.0812715],[80.2711067,13.0812739],[80.271111,13.0812779],[80.2711139,13.081283],[80.271115,13.0812887],[80.2711141,13.0812945],[80.2711114,13.0812997],[80.2711072,13.0813038],[80.2711018,13.0813064],[80.2710959,13.0813072],[80.27109,13.0813061],[80.2710845,13.0813031],[80.2710804,13.0812984],[80.2710781,13.0812927],[80.2710779,13.0812866],[80.2710798,13.0812807],[80.2710836,13.0812758],[80.2710888,13.0812724],[80.271095,13.081271],[80.2711012,13.0812715]]]]}},
{"type":"Feature","properties":{"full_id":"r14906636","osm_id":"14906636","osm_type":"relation","highway":"pedestrian","horse":null,"covered":null,"layer":null,"building":null,"surface":null,"motor_vehicle":null,"foot":null,"bicycle":null,"name":null,"type":"multipolygon"},"geometry":{"type":"MultiPolygon","coordinates":[[[[80.2718541,13.0813995],[80.2717773,13.0813688],[80.2717209,13.0813516],[80.2716682,13.0813397],[80.2716,13.0813309],[80.2714787,13.0813237],[80.2714782,13.0813382],[80.2714767,13.0813842],[80.2714762,13.0814006],[80.2715305,13.0814198],[80.2716013,13.0814416],[80.2716859,13.0814582],[80.2717796,13.0814659],[80.2718408,13.0814664],[80.2718431,13.0814546],[80.2718508,13.0814162],[80.2718541,13.0813995]],[[80.2718139,13.0814161],[80.2718262,13.0814253],[80.271827,13.0814356],[80.2718222,13.0814413],[80.2718067,13.081445],[80.2717371,13.0814367],[80.2716429,13.0814206],[80.2715753,13.081405],[80.2714976,13.0813796],[80.2714896,13.0813755],[80.2714885,13.0813708],[80.2714901,13.0813636],[80.2714939,13.0813599],[80.271505,13.0813558],[80.2715849,13.0813615],[80.2716546,13.0813693],[80.2717419,13.081389],[80.2718139,13.0814161]]]]}},
{"type":"Feature","properties":{"full_id":"r14906649","osm_id":"14906649","osm_type":"relation","highway":"pedestrian","horse":null,"covered":null,"layer":null,"building":null,"surface":null,"motor_vehicle":null,"foot":null,"bicycle":null,"name":null,"type":"multipolygon"},"geometry":{"type":"MultiPolygon","coordinates":[[[[80.2727453,13.0815147],[80.2727391,13.0815102],[80.2727322,13.0815069],[80.2727268,13.081505],[80.2727175,13.0815035],[80.2727087,13.0815039],[80.2726993,13.0815062],[80.2726931,13.0815098],[80.2726869,13.0815157],[80.2726825,13.0815223],[80.2726809,13.0815268],[80.2726805,13.0815321],[80.2726812,13.0815379],[80.2726826,13.0815447],[80.2726856,13.0815519],[80.2726888,13.0815564],[80.272693,13.0815634],[80.2726937,13.0815666],[80.272694,13.0815696],[80.2726924,13.0815745],[80.2726906,13.0815794],[80.2726675,13.0815732],[80.272638,13.0815699],[80.2725951,13.081567],[80.2725513,13.0815688],[80.272551,13.0815861],[80.2725507,13.0816024],[80.2725803,13.0816004],[80.2726108,13.0816004],[80.2726614,13.0816035],[80.2727215,13.081616],[80.2727742,13.0816336],[80.2728413,13.0816616],[80.2728462,13.0816492],[80.27285,13.0816396],[80.2728289,13.0816285],[80.2727976,13.0816145],[80.2727584,13.0815997],[80.2727157,13.0815861],[80.2727175,13.0815821],[80.2727208,13.0815782],[80.2727255,13.0815756],[80.2727327,13.081573],[80.2727376,13.0815712],[80.2727428,13.0815679],[80.2727491,13.0815623],[80.2727532,13.0815563],[80.272755,13.0815523],[80.2727554,13.0815463],[80.2727557,13.0815399],[80.2727548,13.0815332],[80.2727533,13.0815265],[80.2727501,13.0815208],[80.2727453,13.0815147]],[[80.2727072,13.0815589],[80.2727036,13.0815551],[80.2727013,13.0815505],[80.2727007,13.0815453],[80.2727019,13.0815403],[80.2727048,13.081536],[80.2727087,13.0815331],[80.2727133,13.0815315],[80.2727181,13.0815314],[80.2727227,13.0815327],[80.2727263,13.0815352],[80.2727297,13.0815392],[80.2727312,13.0815437],[80.2727313,13.0815485],[80.2727298,13.081553],[80.272727,13.0815568],[80.2727227,13.0815598],[80.2727176,13.0815612],[80.2727123,13.0815608],[80.2727072,13.0815589]]]]}},
{"type":"Feature","properties":{"full_id":"r15256241","osm_id":"15256241","osm_type":"relation","highway":"pedestrian","horse":null,"covered":null,"layer":null,"building":null,"surface":null,"motor_vehicle":null,"foot":null,"bicycle":null,"name":null,"type":"multipolygon"},"geometry":{"type":"MultiPolygon","coordinates":[[[[80.2856279,13.0733941],[80.285647,13.0733907],[80.2856645,13.0733902],[80.2856813,13.0733923],[80.2856972,13.0733977],[80.2857086,13.0734038],[80.2857253,13.0734148],[80.2857438,13.0734333],[80.2857651,13.0734454],[80.2857852,13.0734492],[80.2858136,13.0734426],[80.2858347,13.0734326],[80.2858405,13.0734279],[80.2858616,13.0734111],[80.285877,13.0733998],[80.2858852,13.0734247],[80.2858897,13.0734448],[80.2858927,13.073458],[80.2858981,13.073496],[80.2858814,13.0734914],[80.2858585,13.0734808],[80.2858524,13.0734787],[80.2858395,13.0734744],[80.285823,13.073472],[80.2857908,13.0734802],[80.2857837,13.073483],[80.285773,13.073491],[80.2857625,13.0735029],[80.2857591,13.0735205],[80.2857504,13.0735364],[80.2857377,13.0735556],[80.2857197,13.0735712],[80.2856981,13.0735849],[80.2856717,13.0735934],[80.2856508,13.073593],[80.2856215,13.0735855],[80.2856013,13.0735765],[80.285584,13.0735647],[80.285565,13.0735408],[80.2855555,13.0735152],[80.2855551,13.0734842],[80.2855615,13.0734556],[80.2855683,13.0734379],[80.2855813,13.0734184],[80.2856012,13.0734044],[80.2856279,13.0733941]],[[80.2856767,13.0734537],[80.2856143,13.0734712],[80.285634,13.0735378],[80.2856964,13.0735202],[80.2856767,13.0734537]]]]}},
{"type":"Feature","properties":{"full_id":"r18027027","osm_id":"18027027","osm_type":"relation","highway":"pedestrian","horse":null,"covered":null,"layer":null,"building":null,"surface":null,"motor_vehicle":null,"foot":null,"bicycle":null,"name":null,"type":"multipolygon"},"geometry":{"type":"MultiPolygon","coordinates":[[[[80.2254094,13.0798016],[80.2259492,13.079765],[80.2259593,13.0797578],[80.2259566,13.0797402],[80.2258433,13.0795854],[80.2258185,13.0795736],[80.2257983,13.0795763],[80.2257769,13.0795867],[80.225546,13.0797295],[80.2254094,13.0797885],[80.2254094,13.0798016]],[[80.2256557,13.079756],[80.2256489,13.0796821],[80.2258607,13.0796637],[80.225864,13.0797],[80.2258674,13.0797376],[80.2256557,13.079756]]]]}},
{"type":"Feature","properties":{"full_id":"r18027028","osm_id":"18027028","osm_type":"relation","highway":"pedestrian","horse":null,"covered":null,"layer":null,"building":null,"surface":null,"motor_vehicle":null,"foot":null,"bicycle":null,"name":null,"type":"multipolygon"},"geometry":{"type":"MultiPolygon","coordinates":[[[[80.2249494,13.0798362],[80.2244224,13.079878],[80.2244197,13.079861],[80.2245256,13.0796847],[80.2245551,13.0796664],[80.2245994,13.0796729],[80.224767,13.0797474],[80.2248511,13.079776],[80.2249588,13.0798127],[80.2249682,13.0798245],[80.2249494,13.0798362]],[[80.2245403,13.0798411],[80.2245377,13.0797996],[80.2245354,13.079764],[80.2246317,13.0797582],[80.2246307,13.0797428],[80.2246298,13.0797281],[80.2246739,13.0797254],[80.2246759,13.0797555],[80.224743,13.0797515],[80.2247479,13.0798286],[80.2245403,13.0798411]]]]}},
{"type":"Feature","properties":{"full_id":"r19966546","osm_id":"19966546","osm_type":"relation","highway":"pedestrian","horse":null,"covered":null,"layer":null,"building":null,"surface":null,"motor_vehicle":null,"foot":null,"bicycle":null,"name":null,"type":"multipolygon"},"geometry":{"type":"MultiPolygon","coordinates":[[[[80.2373465,12.9856845],[80.2379732,12.9856878],[80.2379606,12.9852209],[80.2379598,12.9851898],[80.2373661,12.9851928],[80.2373113,12.9852011],[80.2372613,12.9852185],[80.2372138,12.9852583],[80.2371846,12.9852887],[80.2371647,12.9853204],[80.2371453,12.9853754],[80.2371409,12.9854603],[80.237157,12.9855327],[80.2372075,12.9856104],[80.2372709,12.9856583],[80.2373465,12.9856845]],[[80.2373656,12.9856209],[80.2373029,12.9856044],[80.2372491,12.9855689],[80.2372101,12.9855183],[80.2371902,12.985458],[80.2371915,12.9853947],[80.2372139,12.9853352],[80.2372549,12.9852862],[80.2373101,12.9852528],[80.2373735,12.9852387],[80.2378458,12.9852469],[80.2378739,12.9852693],[80.2379005,12.9852986],[80.2379177,12.9853355],[80.2379223,12.9855372],[80.2379084,12.9855652],[80.2378806,12.9855909],[80.2378496,12.9856153],[80.2378183,12.985632],[80.2373656,12.9856209]]]]}},
{"type":"Feature","properties":{"full_id":"w24889275","osm_id":"24889275","osm_type":"way","highway":"pedestrian","horse":null,"covered":null,"layer":null,"building":null,"surface":null,"motor_vehicle":null,"foot":null,"bicycle":null,"name":"Parade Ground","type":null},"geometry":{"type":"MultiPolygon","coordinates":[[[[80.2856869,13.0801179],[80.2856371,13.0797385],[80.2862665,13.0796601],[80.2863163,13.0800393],[80.2856869,13.0801179]]]]}},
{"type":"Feature","properties":{"full_id":"w604135755","osm_id":"604135755","osm_type":"way","highway":"pedestrian","horse":null,"covered":null,"layer":null,"building":null,"surface":null,"motor_vehicle":null,"foot":null,"bicycle":null,"name":null,"type":null},"geometry":{"type":"MultiPolygon","coordinates":[[[[80.2606342,13.0776084],[80.2605461,13.0775955],[80.2605263,13.0777112],[80.2605096,13.0777966],[80.2606065,13.0777917],[80.2606342,13.0776084]]]]}},
{"type":"Feature","properties":{"full_id":"w734511067","osm_id":"734511067","osm_type":"way","highway":"pedestrian","horse":null,"covered":null,"layer":null,"building":null,"surface":"paving_stones","motor_vehicle":"no","foot":"yes","bicycle":"yes","name":null,"type":null},"geometry":{"type":"MultiPolygon","coordinates":[[[[80.2210222,12.91097],[80.2209698,12.9108934],[80.2209557,12.9108727],[80.2209612,12.9108475],[80.2211109,12.9108709],[80.2212254,12.9107935],[80.2213086,12.9108835],[80.2213566,12.9108529],[80.2214783,12.9110254],[80.2216005,12.9111987],[80.2215358,12.9112365],[80.2215875,12.9113463],[80.2214764,12.9114193],[80.2214575,12.9114315],[80.2214952,12.9114968],[80.2214324,12.9115478],[80.2213383,12.9114479],[80.2214134,12.9113977],[80.2214575,12.9113683],[80.2214282,12.9113235],[80.221468,12.9112908],[80.221401,12.9111869],[80.2213446,12.9112011],[80.2212713,12.9110808],[80.2213069,12.9110421],[80.2212211,12.9109401],[80.2211437,12.9109727],[80.2211264,12.9109595],[80.2210956,12.910936],[80.2210222,12.91097]]]]}},
{"type":"Feature","properties":{"full_id":"w1018197231","osm_id":"1018197231","osm_type":"way","highway":null,"horse":null,"covered":null,"layer":"1","building":"train_station","surface":null,"motor_vehicle":null,"foot":null,"bicycle":null,"name":null,"type":null},"geometry":{"type":"MultiPolygon","coordinates":[[[[80.2245403,13.0798411],[80.2245377,13.0797996],[80.2245354,13.079764],[80.2246317,13.0797582],[80.2246307,13.0797428],[80.2246298,13.0797281],[80.2246739,13.0797254],[80.2246759,13.0797555],[80.224743,13.0797515],[80.2247479,13.0798286],[80.2245403,13.0798411]]]]}},
{"type":"Feature","properties":{"full_id":"w1018197232","osm_id":"1018197232","osm_type":"way","highway":null,"horse":null,"covered":null,"layer":"1","building":"train_station","surface":null,"motor_vehicle":null,"foot":null,"bicycle":null,"name":null,"type":null},"geometry":{"type":"MultiPolygon","coordinates":[[[[80.2256557,13.079756],[80.2256489,13.0796821],[80.2258607,13.0796637],[80.225864,13.0797],[80.2258674,13.0797376],[80.2256557,13.079756]]]]}},
{"type":"Feature","properties":{"full_id":"w1115397650","osm_id":"1115397650","osm_type":"way","highway":"pedestrian","horse":null,"covered":null,"layer":null,"building":null,"surface":null,"motor_vehicle":null,"foot":null,"bicycle":null,"name":null,"type":null},"geometry":{"type":"MultiPolygon","coordinates":[[[[80.2709492,13.0814575],[80.270974,13.081321],[80.2709862,13.0812704],[80.2710027,13.0812379],[80.2710226,13.0812128],[80.2710424,13.0811979],[80.2710644,13.0811815],[80.2711016,13.0811605],[80.2711345,13.0811468],[80.271166,13.0811379],[80.2711955,13.0811343],[80.2712311,13.0811363],[80.271274,13.0811445],[80.2713869,13.0811749],[80.2713986,13.0811969],[80.2714092,13.0812168],[80.2712947,13.0811922],[80.2712106,13.0811793],[80.271177,13.0811798],[80.2711446,13.081185],[80.271111,13.0811953],[80.2710791,13.081213],[80.2710525,13.0812342],[80.2710354,13.0812519],[80.2710233,13.0812695],[80.2710216,13.0812778],[80.2710178,13.0812962],[80.2709991,13.081386],[80.2709492,13.0814575]]]]}},
{"type":"Feature","properties":{"full_id":"w1115397673","osm_id":"1115397673","osm_type":"way","highway":"pedestrian","horse":null,"covered":null,"layer":null,"building":null,"surface":null,"motor_vehicle":null,"foot":null,"bicycle":null,"name":null,"type":null},"geometry":{"type":"MultiPolygon","coordinates":[[[[80.2714875,13.0812345],[80.2715023,13.0812203],[80.2715214,13.081202],[80.2716947,13.0812419],[80.2718139,13.0812673],[80.2718595,13.081277],[80.271865,13.0812975],[80.2718706,13.0813179],[80.2718696,13.081333],[80.2718637,13.0813566],[80.2718541,13.0813995],[80.2718447,13.0813129],[80.2716922,13.0812785],[80.27154,13.0812465],[80.2714875,13.0812345]]]]}},
{"type":"Feature","properties":{"full_id":"w1115397678","osm_id":"1115397678","osm_type":"way","highway":"pedestrian","horse":null,"covered":null,"layer":null,"building":null,"surface":null,"motor_vehicle":null,"foot":null,"bicycle":null,"name":null,"type":null},"geometry":{"type":"MultiPolygon","coordinates":[[[[80.272315,13.0813907],[80.2723079,13.0813706],[80.2723017,13.0813527],[80.2721638,13.081334],[80.272068,13.0813185],[80.2719797,13.0813019],[80.2719584,13.0813189],[80.2719407,13.081333],[80.2720268,13.0813471],[80.2721284,13.0813642],[80.2721981,13.0813751],[80.2722812,13.0813855],[80.272315,13.0813907]]]]}},
{"type":"Feature","properties":{"full_id":"w1115397682","osm_id":"1115397682","osm_type":"way","highway":"pedestrian","horse":null,"covered":null,"layer":null,"building":null,"surface":null,"motor_vehicle":null,"foot":null,"bicycle":null,"name":null,"type":null},"geometry":{"type":"MultiPolygon","coordinates":[[[[80.2722796,13.0816016],[80.2722869,13.0815678],[80.2723034,13.0814915],[80.2723105,13.0814591],[80.2722817,13.0814726],[80.2722402,13.0814783],[80.2721694,13.0814809],[80.2721189,13.0814799],[80.2720949,13.0814752],[80.272097,13.0814472],[80.2720965,13.0814192],[80.2720891,13.0813974],[80.2720757,13.081384],[80.2720507,13.0813788],[80.2720342,13.0813819],[80.2720161,13.081398],[80.2719991,13.0814182],[80.2719847,13.0814493],[80.2719065,13.0814285],[80.2719047,13.0814369],[80.2719002,13.0814581],[80.2718974,13.0814715],[80.2719826,13.0814818],[80.271982,13.0815072],[80.2719831,13.0815238],[80.2719911,13.0815482],[80.2720108,13.0815648],[80.2720294,13.08157],[80.2720427,13.0815653],[80.2720613,13.0815497],[80.2720832,13.0815238],[80.2720906,13.0815031],[80.2721337,13.0815135],[80.2721678,13.0815259],[80.2722333,13.0815648],[80.2722796,13.0816016]]]]}},
{"type":"Feature","properties":{"full_id":"w1115399659","osm_id":"1115399659","osm_type":"way","highway":"pedestrian","horse":null,"covered":null,"layer":null,"building":null,"surface":null,"motor_vehicle":null,"foot":null,"bicycle":null,"name":null,"type":null},"geometry":{"type":"MultiPolygon","coordinates":[[[[80.2723405,13.0816259],[80.2723486,13.0815913],[80.2723631,13.0815294],[80.2723687,13.0815052],[80.2723902,13.0815325],[80.272411,13.0815497],[80.2724291,13.0815608],[80.2724443,13.0815655],[80.2724604,13.0815686],[80.2724929,13.0815678],[80.2724922,13.0815898],[80.2724916,13.0816083],[80.2724666,13.0816114],[80.2724251,13.0816228],[80.2723878,13.0816275],[80.2723564,13.0816275],[80.2723405,13.0816259]]]]}},
{"type":"Feature","properties":{"full_id":"w1115399660","osm_id":"1115399660","osm_type":"way","highway":"pedestrian","horse":null,"covered":null,"layer":null,"building":null,"surface":null,"motor_vehicle":null,"foot":null,"bicycle":null,"name":null,"type":null},"geometry":{"type":"MultiPolygon","coordinates":[[[[80.2725227,13.0814238],[80.2725151,13.0814022],[80.2725073,13.081382],[80.2724196,13.0813689],[80.2724045,13.0813839],[80.2723891,13.0813993],[80.2724297,13.0814036],[80.2724737,13.0814098],[80.2724986,13.081416],[80.2725227,13.0814238]]]]}},
{"type":"Feature","properties":{"full_id":"w1115399683","osm_id":"1115399683","osm_type":"way","highway":"pedestrian","horse":null,"covered":null,"layer":null,"building":null,"surface":"paving_stones","motor_vehicle":null,"foot":null,"bicycle":null,"name":null,"type":null},"geometry":{"type":"MultiPolygon","coordinates":[[[[80.2728801,13.0815365],[80.2728706,13.0814998],[80.2728611,13.0814631],[80.2727451,13.0814361],[80.2726152,13.0814071],[80.2725938,13.0814256],[80.2725759,13.0814411],[80.2726152,13.0814538],[80.2727588,13.0814982],[80.2728235,13.0815181],[80.2728801,13.0815365]]]]}},
{"type":"Feature","properties":{"full_id":"w1115399691","osm_id":"1115399691","osm_type":"way","highway":"pedestrian","horse":null,"covered":null,"layer":null,"building":null,"surface":null,"motor_vehicle":null,"foot":null,"bicycle":null,"name":null,"type":null},"geometry":{"type":"MultiPolygon","coordinates":[[[[80.2728905,13.0816931],[80.2728966,13.081675],[80.2729032,13.0816553],[80.2729478,13.081691],[80.2729994,13.0817408],[80.2730196,13.0817615],[80.2730425,13.0817745],[80.2730654,13.0817792],[80.2730878,13.081775],[80.2731144,13.081761],[80.2731494,13.0817425],[80.2731347,13.0818012],[80.2730962,13.0819521],[80.2730766,13.0819004],[80.2730433,13.0818404],[80.2730074,13.0817893],[80.2729667,13.0817469],[80.2729261,13.0817161],[80.2728905,13.0816931]]]]}},
{"type":"Feature","properties":{"full_id":"w1115399695","osm_id":"1115399695","osm_type":"way","highway":"pedestrian","horse":null,"covered":null,"layer":null,"building":null,"surface":null,"motor_vehicle":null,"foot":null,"bicycle":null,"name":null,"type":null},"geometry":{"type":"MultiPolygon","coordinates":[[[[80.2730828,13.0820246],[80.2731088,13.0820098],[80.2731324,13.0819962],[80.2732281,13.081583],[80.2732288,13.0815641],[80.2732194,13.0815458],[80.2731919,13.0815301],[80.2729983,13.0814881],[80.272965,13.0815244],[80.272937,13.081555],[80.272969,13.0815655],[80.2730422,13.0815903],[80.2731316,13.0816172],[80.2731771,13.081632],[80.2731494,13.0817425],[80.2731347,13.0818012],[80.2730962,13.0819521],[80.2730868,13.0820012],[80.2730828,13.0820246]]]]}},
{"type":"Feature","properties":{"full_id":"w1124765721","osm_id":"1124765721","osm_type":"way","highway":"pedestrian","horse":null,"covered":null,"layer":null,"building":null,"surface":null,"motor_vehicle":null,"foot":null,"bicycle":null,"name":null,"type":null},"geometry":{"type":"MultiPolygon","coordinates":[[[[80.2707955,12.9974799],[80.2707619,12.9971951],[80.2707076,12.9967365],[80.270673,12.9964442],[80.2706316,12.9964488],[80.2706338,12.9964677],[80.2707539,12.9974845],[80.2707718,12.9974825],[80.2707955,12.9974799]]]]}},
{"type":"Feature","properties":{"full_id":"w1124765729","osm_id":"1124765729","osm_type":"way","highway":"pedestrian","horse":null,"covered":null,"layer":null,"building":null,"surface":null,"motor_vehicle":null,"foot":null,"bicycle":null,"name":null,"type":null},"geometry":{"type":"MultiPolygon","coordinates":[[[[80.2707633,12.9975457],[80.2707805,12.997544],[80.2708195,12.9975401],[80.270852,12.9975369],[80.2708984,12.9979835],[80.2709664,12.998638],[80.2711318,13.0001338],[80.2711401,13.0002084],[80.2711923,13.0006807],[80.2711935,13.0006931],[80.271199,13.0007401],[80.2712036,13.0007645],[80.2712169,13.0008045],[80.2712477,13.0008606],[80.2712988,13.0009348],[80.271323,13.0009725],[80.2716546,13.0014886],[80.2723395,13.0025546],[80.2723664,13.0026381],[80.2723519,13.0026424],[80.2723293,13.0026487],[80.2723099,13.0026533],[80.2722778,13.0025707],[80.2719385,13.0020303],[80.2711841,13.0008885],[80.2711517,13.0008372],[80.2711466,13.0008292],[80.2711303,13.0007889],[80.2711204,13.0007465],[80.2711084,13.0006648],[80.2710473,13.0001304],[80.2708775,12.9986473],[80.2707633,12.9975457]]]]}},
{"type":"Feature","properties":{"full_id":"w1188874037","osm_id":"1188874037","osm_type":"way","highway":"pedestrian","horse":null,"covered":null,"layer":null,"building":null,"surface":null,"motor_vehicle":null,"foot":null,"bicycle":null,"name":null,"type":null},"geometry":{"type":"MultiPolygon","coordinates":[[[[80.2742642,13.0820291],[80.2737958,13.0819354],[80.2737428,13.0818819],[80.2735805,13.0816363],[80.2735497,13.0818074],[80.2735819,13.081814],[80.273563,13.0819166],[80.2735967,13.0819232],[80.2735841,13.0819847],[80.2738719,13.0820428],[80.2739651,13.0820617],[80.2741747,13.082104],[80.274357,13.0821379],[80.2744416,13.0821544],[80.2744597,13.0820662],[80.2743069,13.0820376],[80.2742642,13.0820291]]]]}},
{"type":"Feature","properties":{"full_id":"w1188874063","osm_id":"1188874063","osm_type":"way","highway":"pedestrian","horse":null,"covered":null,"layer":null,"building":null,"surface":null,"motor_vehicle":null,"foot":null,"bicycle":null,"name":null,"type":null},"geometry":{"type":"MultiPolygon","coordinates":[[[[80.2743069,13.0820376],[80.2743222,13.0819622],[80.2744,13.0819759],[80.274412,13.0819113],[80.2745408,13.0819354],[80.2745247,13.0819942],[80.2745037,13.0819968],[80.2744899,13.0820714],[80.2745379,13.0820814],[80.2745082,13.0822261],[80.2745609,13.0822359],[80.2745676,13.0822085],[80.274691,13.082232],[80.2746682,13.0821601],[80.2746293,13.0820857],[80.2746186,13.0820612],[80.2745944,13.082006],[80.2745931,13.0819759],[80.2746186,13.0817526],[80.274526,13.081746],[80.2745073,13.0817565],[80.2743202,13.0818936],[80.274284,13.0819041],[80.2742397,13.0819087],[80.273887,13.0818381],[80.2738535,13.0818159],[80.2738333,13.0817904],[80.2737831,13.0817081],[80.2737267,13.0817108],[80.2738119,13.081842],[80.2738447,13.0818682],[80.2738823,13.0818865],[80.2742786,13.0819616],[80.2742699,13.0820021],[80.2742642,13.0820291],[80.2743069,13.0820376]]]]}},
{"type":"Feature","properties":{"full_id":"w1188874077","osm_id":"1188874077","osm_type":"way","highway":"pedestrian","horse":null,"covered":"yes","layer":null,"building":"roof","surface":null,"motor_vehicle":null,"foot":null,"bicycle":null,"name":null,"type":null},"geometry":{"type":"MultiPolygon","coordinates":[[[[80.2738719,13.0820428],[80.2738534,13.0821294],[80.2739466,13.0821483],[80.2739651,13.0820617],[80.2738719,13.0820428]]]]}},
{"type":"Feature","properties":{"full_id":"w1395430746","osm_id":"1395430746","osm_type":"way","highway":"pedestrian","horse":"no","covered":null,"layer":null,"building":null,"surface":"concrete","motor_vehicle":null,"foot":null,"bicycle":"yes","name":null,"type":null},"geometry":{"type":"MultiPolygon","coordinates":[[[[80.3129195,13.1618047],[80.3124845,13.1613152],[80.3116865,13.1604055],[80.31164,13.160354],[80.3116199,13.1603339],[80.3115985,13.1603207],[80.3115519,13.1603062],[80.311508,13.1602978],[80.3114754,13.1602972],[80.3114394,13.1603053],[80.3113882,13.160323],[80.3111318,13.1604283],[80.3097975,13.16098],[80.3081695,13.1616684],[80.3081813,13.1616919],[80.3081919,13.161713],[80.3098273,13.1610437],[80.3111576,13.1604871],[80.3114151,13.1603827],[80.3114543,13.1603705],[80.311479,13.1603656],[80.3115007,13.1603653],[80.3115323,13.160369],[80.311565,13.1603803],[80.3115867,13.1603969],[80.3116355,13.1604463],[80.3124344,13.1613536],[80.3128659,13.1618464],[80.3142012,13.1633687],[80.3142101,13.1633793],[80.3142164,13.1633891],[80.3142204,13.1634015],[80.314225,13.1634138],[80.3142338,13.1634288],[80.3142456,13.1634437],[80.3142545,13.1634524],[80.3142633,13.1634601],[80.3142746,13.1634676],[80.3142861,13.1634719],[80.3142984,13.163471],[80.3143063,13.1634693],[80.3143194,13.1634636],[80.3143264,13.1634588],[80.3143328,13.1634514],[80.3143376,13.1634423],[80.3143406,13.1634328],[80.3143398,13.1634223],[80.3143367,13.1634119],[80.3143322,13.1634035],[80.3143277,13.1633988],[80.3143123,13.1633853],[80.3142961,13.1633721],[80.3142859,13.1633627],[80.3142734,13.1633488],[80.3142526,13.1633256],[80.3129195,13.1618047]]]]}},
{"type":"Feature","properties":{"full_id":"w1395430749","osm_id":"1395430749","osm_type":"way","highway":"pedestrian","horse":"no","covered":null,"layer":null,"building":null,"surface":"concrete","motor_vehicle":null,"foot":null,"bicycle":"yes","name":null,"type":null},"geometry":{"type":"MultiPolygon","coordinates":[[[[80.3131955,13.1642386],[80.3131846,13.1642279],[80.3131787,13.1642066],[80.3131804,13.1641853],[80.3131913,13.1641698],[80.3132073,13.1641616],[80.313225,13.16416],[80.3132401,13.1641657],[80.3132544,13.1641763],[80.313262,13.1641903],[80.3132653,13.1642066],[80.313262,13.1642198],[80.3132544,13.1642304],[80.313277,13.1644842],[80.3133605,13.1657399],[80.3133619,13.165824],[80.3133473,13.1658811],[80.3133048,13.1659552],[80.3132506,13.1660052],[80.3131862,13.1660422],[80.3130968,13.1660807],[80.3107308,13.1670635],[80.3107172,13.1670386],[80.3107005,13.1670082],[80.3130751,13.1660216],[80.3131762,13.1659788],[80.3132274,13.1659431],[80.3132611,13.1659089],[80.313286,13.1658575],[80.3132992,13.1658048],[80.3132977,13.1657477],[80.3131955,13.1642386]]]]}}
]
}
