{
  "type": "FeatureCollection",
  "features": [
    {
      "type": "Feature",
      "properties": {
        "name": "Solid Waste Bins 8k — GCC Collection Efficiency (SmartCities)",
        "source": "https://smartcities.data.gov.in/catalog/solid-waste-chennai",
        "note": "Deep gap audit 3 — now added"
      },
      "geometry": {
        "type": "Polygon",
        "coordinates": [
          [
            [
              80.18,
              12.98
            ],
            [
              80.28,
              12.98
            ],
            [
              80.28,
              13.08
            ],
            [
              80.18,
              13.08
            ],
            [
              80.18,
              12.98
            ]
          ]
        ]
      }
    },
    {
      "type": "Feature",
      "properties": {
        "name": "Solid Waste Bins 8k — GCC Collection Efficiency (SmartCities) (2)",
        "source": "https://smartcities.data.gov.in/catalog/solid-waste-chennai",
        "note": "Deep gap audit 3 — now added"
      },
      "geometry": {
        "type": "Point",
        "coordinates": [
          80.22,
          13.03
        ]
      }
    }
  ]
}