{
  "type": "FeatureCollection",
  "features": [
    {
      "type": "Feature",
      "properties": {
        "name": "Drone DSM Adyar — 12 km 10 cm (Anna Univ 2023)",
        "source": "https://www.annauniv.edu/iRS/",
        "note": "Deep gap audit 3 — now added"
      },
      "geometry": {
        "type": "Polygon",
        "coordinates": [
          [
            [
              80.18,
              12.98
            ],
            [
              80.28,
              12.98
            ],
            [
              80.28,
              13.08
            ],
            [
              80.18,
              13.08
            ],
            [
              80.18,
              12.98
            ]
          ]
        ]
      }
    },
    {
      "type": "Feature",
      "properties": {
        "name": "Drone DSM Adyar — 12 km 10 cm (Anna Univ 2023) (2)",
        "source": "https://www.annauniv.edu/iRS/",
        "note": "Deep gap audit 3 — now added"
      },
      "geometry": {
        "type": "Point",
        "coordinates": [
          80.22,
          13.03
        ]
      }
    }
  ]
}