{
  "type": "FeatureCollection",
  "features": [
    {
      "type": "Feature",
      "properties": {
        "name": "Adyar/Cooum Flood Plain — Lost Waterbodies Counterfactual (ScienceDirect)",
        "source": "https://www.sciencedirect.com/science/article/pii/S2212095525001701",
        "note": "Final gap audit — now added"
      },
      "geometry": {
        "type": "Polygon",
        "coordinates": [
          [
            [
              80.18,
              12.98
            ],
            [
              80.28,
              12.98
            ],
            [
              80.28,
              13.08
            ],
            [
              80.18,
              13.08
            ],
            [
              80.18,
              12.98
            ]
          ]
        ]
      }
    },
    {
      "type": "Feature",
      "properties": {
        "name": "Adyar/Cooum Flood Plain — Lost Waterbodies Counterfactual (ScienceDirect) (2)",
        "source": "https://www.sciencedirect.com/science/article/pii/S2212095525001701",
        "note": "Final gap audit — now added"
      },
      "geometry": {
        "type": "Point",
        "coordinates": [
          80.22,
          13.03
        ]
      }
    }
  ]
}