{"type": "FeatureCollection", "name": "stagnation", "crs": {"type": "name", "properties": {"name": "urn:ogc:def:crs:OGC:1.3:CRS84"}}, "features": [{"type": "Feature", "properties": {"source": "GCC"}, "geometry": {"type": "Point", "coordinates": [80.2437705, 13.1043701]}}, {"type": "Feature", "properties": {"source": "GCC"}, "geometry": {"type": "Point", "coordinates": [80.2698898, 13.1002112]}}, {"type": "Feature", "properties": {"source": "GCC"}, "geometry": {"type": "Point", "coordinates": [80.2642679, 13.1083618]}}, {"type": "Feature", "properties": {"source": "GCC"}, "geometry": {"type": "Point", "coordinates": [80.2632487, 13.1036073]}}, {"type": "Feature", "properties": {"source": "GCC"}, "geometry": {"type": "Point", "coordinates": [80.2646434, 13.1021026]}}, {"type": "Feature", "properties": {"source": "GCC"}, "geometry": {"type": "Point", "coordinates": [80.2644289, 13.1046836]}}, {"type": "Feature", "properties": {"source": "GCC"}, "geometry": {"type": "Point", "coordinates": [80.2622938, 13.1089887]}}, {"type": "Feature", "properties": {"source": "GCC"}, "geometry": {"type": "Point", "coordinates": [80.26577, 13.1048717]}}, {"type": "Feature", "properties": {"source": "GCC"}, "geometry": {"type": "Point", "coordinates": [80.2615428, 13.1009427]}}, {"type": "Feature", "properties": {"source": "GCC"}, "geometry": {"type": "Point", "coordinates": [80.2610707, 13.1015801]}}, {"type": "Feature", "properties": {"source": "GCC"}, "geometry": {"type": "Point", "coordinates": [80.2619934, 13.1013189]}}, {"type": "Feature", "properties": {"source": "GCC"}, "geometry": {"type": "Point", "coordinates": [80.2624655, 13.1014233]}}, {"type": "Feature", "properties": {"source": "GCC"}, "geometry": {"type": "Point", "coordinates": [80.2631521, 13.1005978]}}, {"type": "Feature", "properties": {"source": "GCC"}, "geometry": {"type": "Point", "coordinates": [80.2647078, 13.0999134]}}, {"type": "Feature", "properties": {"source": "GCC"}, "geometry": {"type": "Point", "coordinates": [80.2629, 13.1012457]}}, {"type": "Feature", "properties": {"source": "GCC"}, "geometry": {"type": "Point", "coordinates": [80.2414155, 13.0950281]}}, {"type": "Feature", "properties": {"source": "GCC"}, "geometry": {"type": "Point", "coordinates": [80.2452135, 13.0962455]}}, {"type": "Feature", "properties": {"source": "GCC"}, "geometry": {"type": "Point", "coordinates": [80.2440012, 13.092144]}}, {"type": "Feature", "properties": {"source": "GCC"}, "geometry": {"type": "Point", "coordinates": [80.2531743, 13.0972121]}}, {"type": "Feature", "properties": {"source": "GCC"}, "geometry": {"type": "Point", "coordinates": [80.2538395, 13.0960627]}}, {"type": "Feature", "properties": {"source": "GCC"}, "geometry": {"type": "Point", "coordinates": [80.2525628, 13.0967001]}}, {"type": "Feature", "properties": {"source": "GCC"}, "geometry": {"type": "Point", "coordinates": [80.259161, 13.0968255]}}, {"type": "Feature", "properties": {"source": "GCC"}, "geometry": {"type": "Point", "coordinates": [80.2600944, 13.1010367]}}, {"type": "Feature", "properties": {"source": "GCC"}, "geometry": {"type": "Point", "coordinates": [80.260824, 13.0970763]}}, {"type": "Feature", "properties": {"source": "GCC"}, "geometry": {"type": "Point", "coordinates": [80.2601588, 13.0982885]}}, {"type": "Feature", "properties": {"source": "GCC"}, "geometry": {"type": "Point", "coordinates": [80.2630877, 13.0968673]}}, {"type": "Feature", "properties": {"source": "GCC"}, "geometry": {"type": "Point", "coordinates": [80.2716815, 13.0926664]}}, {"type": "Feature", "properties": {"source": "GCC"}, "geometry": {"type": "Point", "coordinates": [80.2673149, 13.0905347]}}, {"type": "Feature", "properties": {"source": "GCC"}, "geometry": {"type": "Point", "coordinates": [80.2612424, 13.0934815]}}, {"type": "Feature", "properties": {"source": "GCC"}, "geometry": {"type": "Point", "coordinates": [80.2699757, 13.0899704]}}, {"type": "Feature", "properties": {"source": "GCC"}, "geometry": {"type": "Point", "coordinates": [80.2513504, 13.1071914]}}, {"type": "Feature", "properties": {"source": "GCC"}, "geometry": {"type": "Point", "coordinates": [80.2047658, 13.1133774]}}, {"type": "Feature", "properties": {"source": "GCC"}, "geometry": {"type": "Point", "coordinates": [80.189752, 13.117143]}}, {"type": "Feature", "properties": {"source": "GCC"}, "geometry": {"type": "Point", "coordinates": [80.1850442, 13.1096243]}}, {"type": "Feature", "properties": {"source": "GCC"}, "geometry": {"type": "Point", "coordinates": [80.183569, 13.1093073]}}, {"type": "Feature", "properties": {"source": "GCC"}, "geometry": {"type": "Point", "coordinates": [80.1824587, 13.1092926]}}, {"type": "Feature", "properties": {"source": "GCC"}, "geometry": {"type": "Point", "coordinates": [80.1814829, 13.1089876]}}, {"type": "Feature", "properties": {"source": "GCC"}, "geometry": {"type": "Point", "coordinates": [80.1809558, 13.1093912]}}, {"type": "Feature", "properties": {"source": "GCC"}, "geometry": {"type": "Point", "coordinates": [80.1816352, 13.1096943]}}, {"type": "Feature", "properties": {"source": "GCC"}, "geometry": {"type": "Point", "coordinates": [80.1803479, 13.1095298]}}, {"type": "Feature", "properties": {"source": "GCC"}, "geometry": {"type": "Point", "coordinates": [80.1820224, 13.1092701]}}, {"type": "Feature", "properties": {"source": "GCC"}, "geometry": {"type": "Point", "coordinates": [80.1924747, 13.1183353]}}, {"type": "Feature", "properties": {"source": "GCC"}, "geometry": {"type": "Point", "coordinates": [80.1833998, 13.1076947]}}, {"type": "Feature", "properties": {"source": "GCC"}, "geometry": {"type": "Point", "coordinates": [80.2578735, 13.1412538]}}, {"type": "Feature", "properties": {"source": "GCC"}, "geometry": {"type": "Point", "coordinates": [80.2517152, 13.132791]}}, {"type": "Feature", "properties": {"source": "GCC"}, "geometry": {"type": "Point", "coordinates": [80.2592897, 13.1230321]}}, {"type": "Feature", "properties": {"source": "GCC"}, "geometry": {"type": "Point", "coordinates": [80.2490759, 13.1257487]}}, {"type": "Feature", "properties": {"source": "GCC"}, "geometry": {"type": "Point", "coordinates": [80.2518976, 13.1217783]}}, {"type": "Feature", "properties": {"source": "GCC"}, "geometry": {"type": "Point", "coordinates": [80.2553415, 13.1231993]}}, {"type": "Feature", "properties": {"source": "GCC"}, "geometry": {"type": "Point", "coordinates": [80.2595901, 13.1342328]}}, {"type": "Feature", "properties": {"source": "GCC"}, "geometry": {"type": "Point", "coordinates": [80.2599335, 13.1346716]}}, {"type": "Feature", "properties": {"source": "GCC"}, "geometry": {"type": "Point", "coordinates": [80.259161, 13.134588]}}, {"type": "Feature", "properties": {"source": "GCC"}, "geometry": {"type": "Point", "coordinates": [80.2666712, 13.1235336]}}, {"type": "Feature", "properties": {"source": "GCC"}, "geometry": {"type": "Point", "coordinates": [80.2668428, 13.1227395]}}, {"type": "Feature", "properties": {"source": "GCC"}, "geometry": {"type": "Point", "coordinates": [80.2674222, 13.1251845]}}, {"type": "Feature", "properties": {"source": "GCC"}, "geometry": {"type": "Point", "coordinates": [80.2681947, 13.1282982]}}, {"type": "Feature", "properties": {"source": "GCC"}, "geometry": {"type": "Point", "coordinates": [80.2565861, 13.1335641]}}, {"type": "Feature", "properties": {"source": "GCC"}, "geometry": {"type": "Point", "coordinates": [80.2746105, 13.1271071]}}, {"type": "Feature", "properties": {"source": "GCC"}, "geometry": {"type": "Point", "coordinates": [80.2772927, 13.1266473]}}, {"type": "Feature", "properties": {"source": "GCC"}, "geometry": {"type": "Point", "coordinates": [80.2845669, 13.1261458]}}, {"type": "Feature", "properties": {"source": "GCC"}, "geometry": {"type": "Point", "coordinates": [80.2791381, 13.1353194]}}, {"type": "Feature", "properties": {"source": "GCC"}, "geometry": {"type": "Point", "coordinates": [80.288558, 13.1344]}}, {"type": "Feature", "properties": {"source": "GCC"}, "geometry": {"type": "Point", "coordinates": [80.2899313, 13.1336477]}}, {"type": "Feature", "properties": {"source": "GCC"}, "geometry": {"type": "Point", "coordinates": [80.2877856, 13.1334387]}}, {"type": "Feature", "properties": {"source": "GCC"}, "geometry": {"type": "Point", "coordinates": [80.290103, 13.1364896]}}, {"type": "Feature", "properties": {"source": "GCC"}, "geometry": {"type": "Point", "coordinates": [80.2793312, 13.1266264]}}, {"type": "Feature", "properties": {"source": "GCC"}, "geometry": {"type": "Point", "coordinates": [80.2787733, 13.1255816]}}, {"type": "Feature", "properties": {"source": "GCC"}, "geometry": {"type": "Point", "coordinates": [80.273838, 13.1307222]}}, {"type": "Feature", "properties": {"source": "GCC"}, "geometry": {"type": "Point", "coordinates": [80.2784729, 13.1246203]}}, {"type": "Feature", "properties": {"source": "GCC"}, "geometry": {"type": "Point", "coordinates": [80.2955961, 13.1232829]}}, {"type": "Feature", "properties": {"source": "GCC"}, "geometry": {"type": "Point", "coordinates": [80.2927208, 13.1233874]}}, {"type": "Feature", "properties": {"source": "GCC"}, "geometry": {"type": "Point", "coordinates": [80.2481532, 13.1172644]}}, {"type": "Feature", "properties": {"source": "GCC"}, "geometry": {"type": "Point", "coordinates": [80.2486897, 13.120608]}}, {"type": "Feature", "properties": {"source": "GCC"}, "geometry": {"type": "Point", "coordinates": [80.257144, 13.1119981]}}, {"type": "Feature", "properties": {"source": "GCC"}, "geometry": {"type": "Point", "coordinates": [80.2580237, 13.1096992]}}, {"type": "Feature", "properties": {"source": "GCC"}, "geometry": {"type": "Point", "coordinates": [80.2608991, 13.1099083]}}, {"type": "Feature", "properties": {"source": "GCC"}, "geometry": {"type": "Point", "coordinates": [80.2633882, 13.1112666]}}, {"type": "Feature", "properties": {"source": "GCC"}, "geometry": {"type": "Point", "coordinates": [80.2606845, 13.1121235]}}, {"type": "Feature", "properties": {"source": "GCC"}, "geometry": {"type": "Point", "coordinates": [80.2587855, 13.1146939]}}, {"type": "Feature", "properties": {"source": "GCC"}, "geometry": {"type": "Point", "coordinates": [80.2587372, 13.1153522]}}, {"type": "Feature", "properties": {"source": "GCC"}, "geometry": {"type": "Point", "coordinates": [80.2596545, 13.1156082]}}, {"type": "Feature", "properties": {"source": "GCC"}, "geometry": {"type": "Point", "coordinates": [80.2662849, 13.1194586]}}, {"type": "Feature", "properties": {"source": "GCC"}, "geometry": {"type": "Point", "coordinates": [80.2746534, 13.1162195]}}, {"type": "Feature", "properties": {"source": "GCC"}, "geometry": {"type": "Point", "coordinates": [80.2764559, 13.1187481]}}, {"type": "Feature", "properties": {"source": "GCC"}, "geometry": {"type": "Point", "coordinates": [80.2617359, 13.1156761]}}, {"type": "Feature", "properties": {"source": "GCC"}, "geometry": {"type": "Point", "coordinates": [80.1862835, 13.1037108]}}, {"type": "Feature", "properties": {"source": "GCC"}, "geometry": {"type": "Point", "coordinates": [80.1855849, 13.1037744]}}, {"type": "Feature", "properties": {"source": "GCC"}, "geometry": {"type": "Point", "coordinates": [80.1855107, 13.105865]}}, {"type": "Feature", "properties": {"source": "GCC"}, "geometry": {"type": "Point", "coordinates": [80.1832679, 13.106438]}}, {"type": "Feature", "properties": {"source": "GCC"}, "geometry": {"type": "Point", "coordinates": [80.1823306, 13.107704]}}, {"type": "Feature", "properties": {"source": "GCC"}, "geometry": {"type": "Point", "coordinates": [80.1857152, 13.1010599]}}, {"type": "Feature", "properties": {"source": "GCC"}, "geometry": {"type": "Point", "coordinates": [80.1704135, 13.1058202]}}, {"type": "Feature", "properties": {"source": "GCC"}, "geometry": {"type": "Point", "coordinates": [80.298452, 13.165205]}}, {"type": "Feature", "properties": {"source": "GCC"}, "geometry": {"type": "Point", "coordinates": [80.298665, 13.170495]}}, {"type": "Feature", "properties": {"source": "GCC"}, "geometry": {"type": "Point", "coordinates": [80.295193, 13.171062]}}, {"type": "Feature", "properties": {"source": "GCC"}, "geometry": {"type": "Point", "coordinates": [80.291363, 13.17199]}}, {"type": "Feature", "properties": {"source": "GCC"}, "geometry": {"type": "Point", "coordinates": [80.301936, 13.173871]}}, {"type": "Feature", "properties": {"source": "GCC"}, "geometry": {"type": "Point", "coordinates": [80.290768, 13.163506]}}, {"type": "Feature", "properties": {"source": "GCC"}, "geometry": {"type": "Point", "coordinates": [80.300026, 13.169985]}}, {"type": "Feature", "properties": {"source": "GCC"}, "geometry": {"type": "Point", "coordinates": [80.298724, 13.160194]}}, {"type": "Feature", "properties": {"source": "GCC"}, "geometry": {"type": "Point", "coordinates": [80.324509, 13.224343]}}, {"type": "Feature", "properties": {"source": "GCC"}, "geometry": {"type": "Point", "coordinates": [80.324751, 13.22542]}}, {"type": "Feature", "properties": {"source": "GCC"}, "geometry": {"type": "Point", "coordinates": [80.32347, 13.211646]}}, {"type": "Feature", "properties": {"source": "GCC"}, "geometry": {"type": "Point", "coordinates": [80.312552, 13.189592]}}, {"type": "Feature", "properties": {"source": "GCC"}, "geometry": {"type": "Point", "coordinates": [80.317739, 13.197836]}}, {"type": "Feature", "properties": {"source": "GCC"}, "geometry": {"type": "Point", "coordinates": [80.307265, 13.191289]}}, {"type": "Feature", "properties": {"source": "GCC"}, "geometry": {"type": "Point", "coordinates": [80.305639, 13.18806]}}, {"type": "Feature", "properties": {"source": "GCC"}, "geometry": {"type": "Point", "coordinates": [80.295672, 13.179024]}}, {"type": "Feature", "properties": {"source": "GCC"}, "geometry": {"type": "Point", "coordinates": [80.29629, 13.17956]}}, {"type": "Feature", "properties": {"source": "GCC"}, "geometry": {"type": "Point", "coordinates": [80.29937, 13.179782]}}, {"type": "Feature", "properties": {"source": "GCC"}, "geometry": {"type": "Point", "coordinates": [80.297522, 13.180765]}}, {"type": "Feature", "properties": {"source": "GCC"}, "geometry": {"type": "Point", "coordinates": [80.312169, 13.175622]}}, {"type": "Feature", "properties": {"source": "GCC"}, "geometry": {"type": "Point", "coordinates": [80.311202, 13.17876]}}, {"type": "Feature", "properties": {"source": "GCC"}, "geometry": {"type": "Point", "coordinates": [80.30686, 13.180185]}}, {"type": "Feature", "properties": {"source": "GCC"}, "geometry": {"type": "Point", "coordinates": [80.305585, 13.172978]}}, {"type": "Feature", "properties": {"source": "GCC"}, "geometry": {"type": "Point", "coordinates": [80.30719, 13.181177]}}, {"type": "Feature", "properties": {"source": "GCC"}, "geometry": {"type": "Point", "coordinates": [80.300195, 13.172369]}}, {"type": "Feature", "properties": {"source": "GCC"}, "geometry": {"type": "Point", "coordinates": [80.293318, 13.176602]}}, {"type": "Feature", "properties": {"source": "GCC"}, "geometry": {"type": "Point", "coordinates": [80.292813, 13.171757]}}, {"type": "Feature", "properties": {"source": "GCC"}, "geometry": {"type": "Point", "coordinates": [80.30171, 13.166316]}}, {"type": "Feature", "properties": {"source": "GCC"}, "geometry": {"type": "Point", "coordinates": [80.307045, 13.161937]}}, {"type": "Feature", "properties": {"source": "GCC"}, "geometry": {"type": "Point", "coordinates": [80.307007, 13.161616]}}, {"type": "Feature", "properties": {"source": "GCC"}, "geometry": {"type": "Point", "coordinates": [80.2945, 13.151079]}}, {"type": "Feature", "properties": {"source": "GCC"}, "geometry": {"type": "Point", "coordinates": [80.295203, 13.153956]}}, {"type": "Feature", "properties": {"source": "GCC"}, "geometry": {"type": "Point", "coordinates": [80.291179, 13.144404]}}, {"type": "Feature", "properties": {"source": "GCC"}, "geometry": {"type": "Point", "coordinates": [80.291385, 13.145869]}}, {"type": "Feature", "properties": {"source": "GCC"}, "geometry": {"type": "Point", "coordinates": [80.2984001, 13.1610854]}}, {"type": "Feature", "properties": {"source": "GCC"}, "geometry": {"type": "Point", "coordinates": [80.277436, 13.186982]}}, {"type": "Feature", "properties": {"source": "GCC"}, "geometry": {"type": "Point", "coordinates": [80.277939, 13.225626]}}, {"type": "Feature", "properties": {"source": "GCC"}, "geometry": {"type": "Point", "coordinates": [80.274896, 13.224493]}}, {"type": "Feature", "properties": {"source": "GCC"}, "geometry": {"type": "Point", "coordinates": [80.274606, 13.206018]}}, {"type": "Feature", "properties": {"source": "GCC"}, "geometry": {"type": "Point", "coordinates": [80.255135, 13.194465]}}, {"type": "Feature", "properties": {"source": "GCC"}, "geometry": {"type": "Point", "coordinates": [80.228932, 13.183276]}}, {"type": "Feature", "properties": {"source": "GCC"}, "geometry": {"type": "Point", "coordinates": [80.234987, 13.184206]}}, {"type": "Feature", "properties": {"source": "GCC"}, "geometry": {"type": "Point", "coordinates": [80.211169, 13.174733]}}, {"type": "Feature", "properties": {"source": "GCC"}, "geometry": {"type": "Point", "coordinates": [80.23778, 13.192631]}}, {"type": "Feature", "properties": {"source": "GCC"}, "geometry": {"type": "Point", "coordinates": [80.257114, 13.174364]}}, {"type": "Feature", "properties": {"source": "GCC"}, "geometry": {"type": "Point", "coordinates": [80.263606, 13.166252]}}, {"type": "Feature", "properties": {"source": "GCC"}, "geometry": {"type": "Point", "coordinates": [80.261174, 13.172787]}}, {"type": "Feature", "properties": {"source": "GCC"}, "geometry": {"type": "Point", "coordinates": [80.261973, 13.172145]}}, {"type": "Feature", "properties": {"source": "GCC"}, "geometry": {"type": "Point", "coordinates": [80.259481, 13.17065]}}, {"type": "Feature", "properties": {"source": "GCC"}, "geometry": {"type": "Point", "coordinates": [80.243, 13.169531]}}, {"type": "Feature", "properties": {"source": "GCC"}, "geometry": {"type": "Point", "coordinates": [80.253873, 13.169027]}}, {"type": "Feature", "properties": {"source": "GCC"}, "geometry": {"type": "Point", "coordinates": [80.256084, 13.171105]}}, {"type": "Feature", "properties": {"source": "GCC"}, "geometry": {"type": "Point", "coordinates": [80.253534, 13.169916]}}, {"type": "Feature", "properties": {"source": "GCC"}, "geometry": {"type": "Point", "coordinates": [80.255127, 13.172223]}}, {"type": "Feature", "properties": {"source": "GCC"}, "geometry": {"type": "Point", "coordinates": [80.2627, 13.164963]}}, {"type": "Feature", "properties": {"source": "GCC"}, "geometry": {"type": "Point", "coordinates": [80.261937, 13.163462]}}, {"type": "Feature", "properties": {"source": "GCC"}, "geometry": {"type": "Point", "coordinates": [80.26302, 13.164114]}}, {"type": "Feature", "properties": {"source": "GCC"}, "geometry": {"type": "Point", "coordinates": [80.264379, 13.163958]}}, {"type": "Feature", "properties": {"source": "GCC"}, "geometry": {"type": "Point", "coordinates": [80.257551, 13.163673]}}, {"type": "Feature", "properties": {"source": "GCC"}, "geometry": {"type": "Point", "coordinates": [80.201509, 13.137541]}}, {"type": "Feature", "properties": {"source": "GCC"}, "geometry": {"type": "Point", "coordinates": [80.202262, 13.149587]}}, {"type": "Feature", "properties": {"source": "GCC"}, "geometry": {"type": "Point", "coordinates": [80.197978, 13.170176]}}, {"type": "Feature", "properties": {"source": "GCC"}, "geometry": {"type": "Point", "coordinates": [80.20536, 13.16666]}}, {"type": "Feature", "properties": {"source": "GCC"}, "geometry": {"type": "Point", "coordinates": [80.205867, 13.161221]}}, {"type": "Feature", "properties": {"source": "GCC"}, "geometry": {"type": "Point", "coordinates": [80.208799, 13.162033]}}, {"type": "Feature", "properties": {"source": "GCC"}, "geometry": {"type": "Point", "coordinates": [80.185421, 13.140838]}}, {"type": "Feature", "properties": {"source": "GCC"}, "geometry": {"type": "Point", "coordinates": [80.183796, 13.141783]}}, {"type": "Feature", "properties": {"source": "GCC"}, "geometry": {"type": "Point", "coordinates": [80.21299, 13.157101]}}, {"type": "Feature", "properties": {"source": "GCC"}, "geometry": {"type": "Point", "coordinates": [80.20911, 13.152712]}}, {"type": "Feature", "properties": {"source": "GCC"}, "geometry": {"type": "Point", "coordinates": [80.219218, 13.13255]}}, {"type": "Feature", "properties": {"source": "GCC"}, "geometry": {"type": "Point", "coordinates": [80.216448, 13.147233]}}, {"type": "Feature", "properties": {"source": "GCC"}, "geometry": {"type": "Point", "coordinates": [80.258552, 13.154402]}}, {"type": "Feature", "properties": {"source": "GCC"}, "geometry": {"type": "Point", "coordinates": [80.203206, 13.134059]}}, {"type": "Feature", "properties": {"source": "GCC"}, "geometry": {"type": "Point", "coordinates": [80.226192, 13.134242]}}, {"type": "Feature", "properties": {"source": "GCC"}, "geometry": {"type": "Point", "coordinates": [80.221685, 13.136554]}}, {"type": "Feature", "properties": {"source": "GCC"}, "geometry": {"type": "Point", "coordinates": [80.224405, 13.137588]}}, {"type": "Feature", "properties": {"source": "GCC"}, "geometry": {"type": "Point", "coordinates": [80.234699, 13.129704]}}, {"type": "Feature", "properties": {"source": "GCC"}, "geometry": {"type": "Point", "coordinates": [80.2565002, 13.1460599]}}, {"type": "Feature", "properties": {"source": "GCC"}, "geometry": {"type": "Point", "coordinates": [80.256114, 13.1440121]}}, {"type": "Feature", "properties": {"source": "GCC"}, "geometry": {"type": "Point", "coordinates": [80.2544832, 13.1446599]}}, {"type": "Feature", "properties": {"source": "GCC"}, "geometry": {"type": "Point", "coordinates": [80.259886, 13.076293]}}, {"type": "Feature", "properties": {"source": "GCC"}, "geometry": {"type": "Point", "coordinates": [80.270467, 13.071143]}}, {"type": "Feature", "properties": {"source": "GCC"}, "geometry": {"type": "Point", "coordinates": [80.270251, 13.075223]}}, {"type": "Feature", "properties": {"source": "GCC"}, "geometry": {"type": "Point", "coordinates": [80.266843, 13.062479]}}, {"type": "Feature", "properties": {"source": "GCC"}, "geometry": {"type": "Point", "coordinates": [80.265007, 13.067308]}}, {"type": "Feature", "properties": {"source": "GCC"}, "geometry": {"type": "Point", "coordinates": [80.263308, 13.090253]}}, {"type": "Feature", "properties": {"source": "GCC"}, "geometry": {"type": "Point", "coordinates": [80.217576, 13.127013]}}, {"type": "Feature", "properties": {"source": "GCC"}, "geometry": {"type": "Point", "coordinates": [80.2137351, 13.1214753]}}, {"type": "Feature", "properties": {"source": "GCC"}, "geometry": {"type": "Point", "coordinates": [80.2153552, 13.1213185]}}, {"type": "Feature", "properties": {"source": "GCC"}, "geometry": {"type": "Point", "coordinates": [80.215559, 13.1208588]}}, {"type": "Feature", "properties": {"source": "GCC"}, "geometry": {"type": "Point", "coordinates": [80.2172863, 13.1209319]}}, {"type": "Feature", "properties": {"source": "GCC"}, "geometry": {"type": "Point", "coordinates": [80.2162457, 13.1229172]}}, {"type": "Feature", "properties": {"source": "GCC"}, "geometry": {"type": "Point", "coordinates": [80.2077484, 13.1235754]}}, {"type": "Feature", "properties": {"source": "GCC"}, "geometry": {"type": "Point", "coordinates": [80.2107096, 13.1252211]}}, {"type": "Feature", "properties": {"source": "GCC"}, "geometry": {"type": "Point", "coordinates": [80.1995087, 13.1227813]}}, {"type": "Feature", "properties": {"source": "GCC"}, "geometry": {"type": "Point", "coordinates": [80.2032959, 13.1249651]}}, {"type": "Feature", "properties": {"source": "GCC"}, "geometry": {"type": "Point", "coordinates": [80.202899, 13.1271488]}}, {"type": "Feature", "properties": {"source": "GCC"}, "geometry": {"type": "Point", "coordinates": [80.2023518, 13.1226664]}}, {"type": "Feature", "properties": {"source": "GCC"}, "geometry": {"type": "Point", "coordinates": [80.2024376, 13.1222067]}}, {"type": "Feature", "properties": {"source": "GCC"}, "geometry": {"type": "Point", "coordinates": [80.2027595, 13.1231575]}}, {"type": "Feature", "properties": {"source": "GCC"}, "geometry": {"type": "Point", "coordinates": [80.2019709, 13.1250121]}}, {"type": "Feature", "properties": {"source": "GCC"}, "geometry": {"type": "Point", "coordinates": [80.2046531, 13.1275616]}}, {"type": "Feature", "properties": {"source": "GCC"}, "geometry": {"type": "Point", "coordinates": [80.2057368, 13.1236904]}}, {"type": "Feature", "properties": {"source": "GCC"}, "geometry": {"type": "Point", "coordinates": [80.2087355, 13.1164807]}}, {"type": "Feature", "properties": {"source": "GCC"}, "geometry": {"type": "Point", "coordinates": [80.2112246, 13.1128131]}}, {"type": "Feature", "properties": {"source": "GCC"}, "geometry": {"type": "Point", "coordinates": [80.2287555, 13.122447]}}, {"type": "Feature", "properties": {"source": "GCC"}, "geometry": {"type": "Point", "coordinates": [80.2305794, 13.1250173]}}, {"type": "Feature", "properties": {"source": "GCC"}, "geometry": {"type": "Point", "coordinates": [80.2214813, 13.1142342]}}, {"type": "Feature", "properties": {"source": "GCC"}, "geometry": {"type": "Point", "coordinates": [80.2249789, 13.1175361]}}, {"type": "Feature", "properties": {"source": "GCC"}, "geometry": {"type": "Point", "coordinates": [80.2250004, 13.1107233]}}, {"type": "Feature", "properties": {"source": "GCC"}, "geometry": {"type": "Point", "coordinates": [80.2333689, 13.1209006]}}, {"type": "Feature", "properties": {"source": "GCC"}, "geometry": {"type": "Point", "coordinates": [80.2425098, 13.1226142]}}, {"type": "Feature", "properties": {"source": "GCC"}, "geometry": {"type": "Point", "coordinates": [80.2419949, 13.1112039]}}, {"type": "Feature", "properties": {"source": "GCC"}, "geometry": {"type": "Point", "coordinates": [80.2401388, 13.1132311]}}, {"type": "Feature", "properties": {"source": "GCC"}, "geometry": {"type": "Point", "coordinates": [80.2450097, 13.1198139]}}, {"type": "Feature", "properties": {"source": "GCC"}, "geometry": {"type": "Point", "coordinates": [80.2427029, 13.0992289]}}, {"type": "Feature", "properties": {"source": "GCC"}, "geometry": {"type": "Point", "coordinates": [80.2413511, 13.1190616]}}, {"type": "Feature", "properties": {"source": "GCC"}, "geometry": {"type": "Point", "coordinates": [80.2355844, 13.099255]}}, {"type": "Feature", "properties": {"source": "GCC"}, "geometry": {"type": "Point", "coordinates": [80.2457714, 13.0970345]}}, {"type": "Feature", "properties": {"source": "GCC"}, "geometry": {"type": "Point", "coordinates": [80.245707, 13.1047672]}}, {"type": "Feature", "properties": {"source": "GCC"}, "geometry": {"type": "Point", "coordinates": [80.245825, 13.1032834]}}, {"type": "Feature", "properties": {"source": "GCC"}, "geometry": {"type": "Point", "coordinates": [80.2433681, 13.1061047]}}, {"type": "Feature", "properties": {"source": "GCC"}, "geometry": {"type": "Point", "coordinates": [80.2442372, 13.1060525]}}, {"type": "Feature", "properties": {"source": "GCC"}, "geometry": {"type": "Point", "coordinates": [80.2679576, 13.0426179]}}, {"type": "Feature", "properties": {"source": "GCC"}, "geometry": {"type": "Point", "coordinates": [80.2804316, 13.0447328]}}, {"type": "Feature", "properties": {"source": "GCC"}, "geometry": {"type": "Point", "coordinates": [80.2480248, 13.0291358]}}, {"type": "Feature", "properties": {"source": "GCC"}, "geometry": {"type": "Point", "coordinates": [80.2479126, 13.0345626]}}, {"type": "Feature", "properties": {"source": "GCC"}, "geometry": {"type": "Point", "coordinates": [80.2502733, 13.0353294]}}, {"type": "Feature", "properties": {"source": "GCC"}, "geometry": {"type": "Point", "coordinates": [80.2449688, 13.0274775]}}, {"type": "Feature", "properties": {"source": "GCC"}, "geometry": {"type": "Point", "coordinates": [80.2446751, 13.0347865]}}, {"type": "Feature", "properties": {"source": "GCC"}, "geometry": {"type": "Point", "coordinates": [80.2535429, 13.0355487]}}, {"type": "Feature", "properties": {"source": "GCC"}, "geometry": {"type": "Point", "coordinates": [80.2521198, 13.0386808]}}, {"type": "Feature", "properties": {"source": "GCC"}, "geometry": {"type": "Point", "coordinates": [80.2539425, 13.0367126]}}, {"type": "Feature", "properties": {"source": "GCC"}, "geometry": {"type": "Point", "coordinates": [80.2692133, 13.0360504]}}, {"type": "Feature", "properties": {"source": "GCC"}, "geometry": {"type": "Point", "coordinates": [80.2512199, 13.0220601]}}, {"type": "Feature", "properties": {"source": "GCC"}, "geometry": {"type": "Point", "coordinates": [80.2639453, 13.0305035]}}, {"type": "Feature", "properties": {"source": "GCC"}, "geometry": {"type": "Point", "coordinates": [80.2734441, 13.0382953]}}, {"type": "Feature", "properties": {"source": "GCC"}, "geometry": {"type": "Point", "coordinates": [80.2677207, 13.0329982]}}, {"type": "Feature", "properties": {"source": "GCC"}, "geometry": {"type": "Point", "coordinates": [80.2755362, 13.035805]}}, {"type": "Feature", "properties": {"source": "GCC"}, "geometry": {"type": "Point", "coordinates": [80.2767525, 13.0299328]}}, {"type": "Feature", "properties": {"source": "GCC"}, "geometry": {"type": "Point", "coordinates": [80.2773422, 13.0433252]}}, {"type": "Feature", "properties": {"source": "GCC"}, "geometry": {"type": "Point", "coordinates": [80.2730241, 13.0344218]}}, {"type": "Feature", "properties": {"source": "GCC"}, "geometry": {"type": "Point", "coordinates": [80.2661683, 13.0263818]}}, {"type": "Feature", "properties": {"source": "GCC"}, "geometry": {"type": "Point", "coordinates": [80.2715835, 13.0324181]}}, {"type": "Feature", "properties": {"source": "GCC"}, "geometry": {"type": "Point", "coordinates": [80.2760552, 13.0253875]}}, {"type": "Feature", "properties": {"source": "GCC"}, "geometry": {"type": "Point", "coordinates": [80.2629411, 13.0266686]}}, {"type": "Feature", "properties": {"source": "GCC"}, "geometry": {"type": "Point", "coordinates": [80.2637602, 13.0282986]}}, {"type": "Feature", "properties": {"source": "GCC"}, "geometry": {"type": "Point", "coordinates": [80.2751802, 13.0259288]}}, {"type": "Feature", "properties": {"source": "GCC"}, "geometry": {"type": "Point", "coordinates": [80.1957994, 13.0603446]}}, {"type": "Feature", "properties": {"source": "GCC"}, "geometry": {"type": "Point", "coordinates": [80.2064161, 13.070086]}}, {"type": "Feature", "properties": {"source": "GCC"}, "geometry": {"type": "Point", "coordinates": [80.1946627, 13.0597441]}}, {"type": "Feature", "properties": {"source": "GCC"}, "geometry": {"type": "Point", "coordinates": [80.196365, 13.0711264]}}, {"type": "Feature", "properties": {"source": "GCC"}, "geometry": {"type": "Point", "coordinates": [80.1868668, 13.048318]}}, {"type": "Feature", "properties": {"source": "GCC"}, "geometry": {"type": "Point", "coordinates": [80.1973073, 13.0636821]}}, {"type": "Feature", "properties": {"source": "GCC"}, "geometry": {"type": "Point", "coordinates": [80.2033719, 13.062329]}}, {"type": "Feature", "properties": {"source": "GCC"}, "geometry": {"type": "Point", "coordinates": [80.2040962, 13.0537343]}}, {"type": "Feature", "properties": {"source": "GCC"}, "geometry": {"type": "Point", "coordinates": [80.199106, 13.0492]}}, {"type": "Feature", "properties": {"source": "GCC"}, "geometry": {"type": "Point", "coordinates": [80.1983397, 13.0566272]}}, {"type": "Feature", "properties": {"source": "GCC"}, "geometry": {"type": "Point", "coordinates": [80.2080617, 13.0594187]}}, {"type": "Feature", "properties": {"source": "GCC"}, "geometry": {"type": "Point", "coordinates": [80.2010916, 13.0568472]}}, {"type": "Feature", "properties": {"source": "GCC"}, "geometry": {"type": "Point", "coordinates": [80.1900576, 13.0351167]}}, {"type": "Feature", "properties": {"source": "GCC"}, "geometry": {"type": "Point", "coordinates": [80.1923524, 13.0534115]}}, {"type": "Feature", "properties": {"source": "GCC"}, "geometry": {"type": "Point", "coordinates": [80.1909904, 13.0542115]}}, {"type": "Feature", "properties": {"source": "GCC"}, "geometry": {"type": "Point", "coordinates": [80.194832, 13.0482825]}}, {"type": "Feature", "properties": {"source": "GCC"}, "geometry": {"type": "Point", "coordinates": [80.1949225, 13.0548291]}}, {"type": "Feature", "properties": {"source": "GCC"}, "geometry": {"type": "Point", "coordinates": [80.1918657, 13.0536352]}}, {"type": "Feature", "properties": {"source": "GCC"}, "geometry": {"type": "Point", "coordinates": [80.26577, 13.1151746]}}, {"type": "Feature", "properties": {"source": "GCC"}, "geometry": {"type": "Point", "coordinates": [80.2789235, 13.1124265]}}, {"type": "Feature", "properties": {"source": "GCC"}, "geometry": {"type": "Point", "coordinates": [80.2794009, 13.1130064]}}, {"type": "Feature", "properties": {"source": "GCC"}, "geometry": {"type": "Point", "coordinates": [80.2597702, 13.1134923]}}, {"type": "Feature", "properties": {"source": "GCC"}, "geometry": {"type": "Point", "coordinates": [80.2672572, 13.1183643]}}, {"type": "Feature", "properties": {"source": "GCC"}, "geometry": {"type": "Point", "coordinates": [80.280189, 13.109505]}}, {"type": "Feature", "properties": {"source": "GCC"}, "geometry": {"type": "Point", "coordinates": [80.278287, 13.1049]}}, {"type": "Feature", "properties": {"source": "GCC"}, "geometry": {"type": "Point", "coordinates": [80.272756, 13.108109]}}, {"type": "Feature", "properties": {"source": "GCC"}, "geometry": {"type": "Point", "coordinates": [80.278098, 13.096947]}}, {"type": "Feature", "properties": {"source": "GCC"}, "geometry": {"type": "Point", "coordinates": [80.278402, 13.099034]}}, {"type": "Feature", "properties": {"source": "GCC"}, "geometry": {"type": "Point", "coordinates": [80.275282, 13.097865]}}, {"type": "Feature", "properties": {"source": "GCC"}, "geometry": {"type": "Point", "coordinates": [80.27627, 13.100457]}}, {"type": "Feature", "properties": {"source": "GCC"}, "geometry": {"type": "Point", "coordinates": [80.262524, 13.076115]}}, {"type": "Feature", "properties": {"source": "GCC"}, "geometry": {"type": "Point", "coordinates": [80.255893, 13.078419]}}, {"type": "Feature", "properties": {"source": "GCC"}, "geometry": {"type": "Point", "coordinates": [80.257305, 13.066778]}}, {"type": "Feature", "properties": {"source": "GCC"}, "geometry": {"type": "Point", "coordinates": [80.2089701, 13.03298]}}, {"type": "Feature", "properties": {"source": "GCC"}, "geometry": {"type": "Point", "coordinates": [80.2050539, 13.032686]}}, {"type": "Feature", "properties": {"source": "GCC"}, "geometry": {"type": "Point", "coordinates": [80.2226798, 13.0313341]}}, {"type": "Feature", "properties": {"source": "GCC"}, "geometry": {"type": "Point", "coordinates": [80.2255753, 13.0319803]}}, {"type": "Feature", "properties": {"source": "GCC"}, "geometry": {"type": "Point", "coordinates": [80.2233112, 13.0326387]}}, {"type": "Feature", "properties": {"source": "GCC"}, "geometry": {"type": "Point", "coordinates": [80.224764, 13.0335718]}}, {"type": "Feature", "properties": {"source": "GCC"}, "geometry": {"type": "Point", "coordinates": [80.2320253, 13.0309807]}}, {"type": "Feature", "properties": {"source": "GCC"}, "geometry": {"type": "Point", "coordinates": [80.2244063, 13.020732]}}, {"type": "Feature", "properties": {"source": "GCC"}, "geometry": {"type": "Point", "coordinates": [80.2190414, 13.0233448]}}, {"type": "Feature", "properties": {"source": "GCC"}, "geometry": {"type": "Point", "coordinates": [80.2182507, 13.0274443]}}, {"type": "Feature", "properties": {"source": "GCC"}, "geometry": {"type": "Point", "coordinates": [80.2197417, 13.0370228]}}, {"type": "Feature", "properties": {"source": "GCC"}, "geometry": {"type": "Point", "coordinates": [80.2196757, 13.0359349]}}, {"type": "Feature", "properties": {"source": "GCC"}, "geometry": {"type": "Point", "coordinates": [80.2362259, 13.0428061]}}, {"type": "Feature", "properties": {"source": "GCC"}, "geometry": {"type": "Point", "coordinates": [80.2135475, 13.0568208]}}, {"type": "Feature", "properties": {"source": "GCC"}, "geometry": {"type": "Point", "coordinates": [80.2137022, 13.0562556]}}, {"type": "Feature", "properties": {"source": "GCC"}, "geometry": {"type": "Point", "coordinates": [80.2137082, 13.0570736]}}, {"type": "Feature", "properties": {"source": "GCC"}, "geometry": {"type": "Point", "coordinates": [80.2028893, 13.0593554]}}, {"type": "Feature", "properties": {"source": "GCC"}, "geometry": {"type": "Point", "coordinates": [80.2018483, 13.0574984]}}, {"type": "Feature", "properties": {"source": "GCC"}, "geometry": {"type": "Point", "coordinates": [80.2136992, 13.0565709]}}, {"type": "Feature", "properties": {"source": "GCC"}, "geometry": {"type": "Point", "coordinates": [80.1645885, 13.0771905]}}, {"type": "Feature", "properties": {"source": "GCC"}, "geometry": {"type": "Point", "coordinates": [80.1673082, 13.0733612]}}, {"type": "Feature", "properties": {"source": "GCC"}, "geometry": {"type": "Point", "coordinates": [80.1772957, 13.0674891]}}, {"type": "Feature", "properties": {"source": "GCC"}, "geometry": {"type": "Point", "coordinates": [80.1754623, 13.0632848]}}, {"type": "Feature", "properties": {"source": "GCC"}, "geometry": {"type": "Point", "coordinates": [80.175273, 13.0639687]}}, {"type": "Feature", "properties": {"source": "GCC"}, "geometry": {"type": "Point", "coordinates": [80.1840192, 13.0696016]}}, {"type": "Feature", "properties": {"source": "GCC"}, "geometry": {"type": "Point", "coordinates": [80.1864332, 13.0631635]}}, {"type": "Feature", "properties": {"source": "GCC"}, "geometry": {"type": "Point", "coordinates": [80.180473, 13.0616002]}}, {"type": "Feature", "properties": {"source": "GCC"}, "geometry": {"type": "Point", "coordinates": [80.1672423, 13.0764466]}}, {"type": "Feature", "properties": {"source": "GCC"}, "geometry": {"type": "Point", "coordinates": [80.1870188, 13.0595165]}}, {"type": "Feature", "properties": {"source": "GCC"}, "geometry": {"type": "Point", "coordinates": [80.1837167, 13.0621431]}}, {"type": "Feature", "properties": {"source": "GCC"}, "geometry": {"type": "Point", "coordinates": [80.1826575, 13.0616308]}}, {"type": "Feature", "properties": {"source": "GCC"}, "geometry": {"type": "Point", "coordinates": [80.1623993, 13.0578952]}}, {"type": "Feature", "properties": {"source": "GCC"}, "geometry": {"type": "Point", "coordinates": [80.1634641, 13.0457029]}}, {"type": "Feature", "properties": {"source": "GCC"}, "geometry": {"type": "Point", "coordinates": [80.1660272, 13.0488229]}}, {"type": "Feature", "properties": {"source": "GCC"}, "geometry": {"type": "Point", "coordinates": [80.1664351, 13.0532182]}}, {"type": "Feature", "properties": {"source": "GCC"}, "geometry": {"type": "Point", "coordinates": [80.1636382, 13.0382545]}}, {"type": "Feature", "properties": {"source": "GCC"}, "geometry": {"type": "Point", "coordinates": [80.1690088, 13.0467543]}}, {"type": "Feature", "properties": {"source": "GCC"}, "geometry": {"type": "Point", "coordinates": [80.170005, 13.046611]}}, {"type": "Feature", "properties": {"source": "GCC"}, "geometry": {"type": "Point", "coordinates": [80.1744181, 13.0625337]}}, {"type": "Feature", "properties": {"source": "GCC"}, "geometry": {"type": "Point", "coordinates": [80.1691168, 13.0505813]}}, {"type": "Feature", "properties": {"source": "GCC"}, "geometry": {"type": "Point", "coordinates": [80.1665882, 13.0468611]}}, {"type": "Feature", "properties": {"source": "GCC"}, "geometry": {"type": "Point", "coordinates": [80.1857496, 13.0543367]}}, {"type": "Feature", "properties": {"source": "GCC"}, "geometry": {"type": "Point", "coordinates": [80.1795001, 13.0619332]}}, {"type": "Feature", "properties": {"source": "GCC"}, "geometry": {"type": "Point", "coordinates": [80.1822734, 13.053501]}}, {"type": "Feature", "properties": {"source": "GCC"}, "geometry": {"type": "Point", "coordinates": [80.1794922, 13.0534075]}}, {"type": "Feature", "properties": {"source": "GCC"}, "geometry": {"type": "Point", "coordinates": [80.1836719, 13.0528222]}}, {"type": "Feature", "properties": {"source": "GCC"}, "geometry": {"type": "Point", "coordinates": [80.1775601, 13.0435385]}}, {"type": "Feature", "properties": {"source": "GCC"}, "geometry": {"type": "Point", "coordinates": [80.1830544, 13.0441874]}}, {"type": "Feature", "properties": {"source": "GCC"}, "geometry": {"type": "Point", "coordinates": [80.1810558, 13.043277]}}, {"type": "Feature", "properties": {"source": "GCC"}, "geometry": {"type": "Point", "coordinates": [80.1831114, 13.0514075]}}, {"type": "Feature", "properties": {"source": "GCC"}, "geometry": {"type": "Point", "coordinates": [80.1733018, 13.0447205]}}, {"type": "Feature", "properties": {"source": "GCC"}, "geometry": {"type": "Point", "coordinates": [80.1787932, 13.051236]}}, {"type": "Feature", "properties": {"source": "GCC"}, "geometry": {"type": "Point", "coordinates": [80.1753616, 13.046519]}}, {"type": "Feature", "properties": {"source": "GCC"}, "geometry": {"type": "Point", "coordinates": [80.185412, 13.0474804]}}, {"type": "Feature", "properties": {"source": "GCC"}, "geometry": {"type": "Point", "coordinates": [80.1818542, 13.049548]}}, {"type": "Feature", "properties": {"source": "GCC"}, "geometry": {"type": "Point", "coordinates": [80.1817795, 13.0472545]}}, {"type": "Feature", "properties": {"source": "GCC"}, "geometry": {"type": "Point", "coordinates": [80.1599245, 13.0384055]}}, {"type": "Feature", "properties": {"source": "GCC"}, "geometry": {"type": "Point", "coordinates": [80.1565155, 13.0355914]}}, {"type": "Feature", "properties": {"source": "GCC"}, "geometry": {"type": "Point", "coordinates": [80.1551426, 13.0400996]}}, {"type": "Feature", "properties": {"source": "GCC"}, "geometry": {"type": "Point", "coordinates": [80.1548812, 13.0409585]}}, {"type": "Feature", "properties": {"source": "GCC"}, "geometry": {"type": "Point", "coordinates": [80.1685903, 13.0344533]}}, {"type": "Feature", "properties": {"source": "GCC"}, "geometry": {"type": "Point", "coordinates": [80.1644016, 13.0375083]}}, {"type": "Feature", "properties": {"source": "GCC"}, "geometry": {"type": "Point", "coordinates": [80.157585, 13.036461]}}, {"type": "Feature", "properties": {"source": "GCC"}, "geometry": {"type": "Point", "coordinates": [80.169716, 13.0405696]}}, {"type": "Feature", "properties": {"source": "GCC"}, "geometry": {"type": "Point", "coordinates": [80.1853041, 13.0378088]}}, {"type": "Feature", "properties": {"source": "GCC"}, "geometry": {"type": "Point", "coordinates": [80.1530296, 13.0302654]}}, {"type": "Feature", "properties": {"source": "GCC"}, "geometry": {"type": "Point", "coordinates": [80.1637946, 13.0248841]}}, {"type": "Feature", "properties": {"source": "GCC"}, "geometry": {"type": "Point", "coordinates": [80.1581495, 13.0265442]}}, {"type": "Feature", "properties": {"source": "GCC"}, "geometry": {"type": "Point", "coordinates": [80.1640776, 13.0265143]}}, {"type": "Feature", "properties": {"source": "GCC"}, "geometry": {"type": "Point", "coordinates": [80.1589614, 13.0306245]}}, {"type": "Feature", "properties": {"source": "GCC"}, "geometry": {"type": "Point", "coordinates": [80.1757739, 13.0349216]}}, {"type": "Feature", "properties": {"source": "GCC"}, "geometry": {"type": "Point", "coordinates": [80.1752293, 13.02877]}}, {"type": "Feature", "properties": {"source": "GCC"}, "geometry": {"type": "Point", "coordinates": [80.1767268, 13.0271416]}}, {"type": "Feature", "properties": {"source": "GCC"}, "geometry": {"type": "Point", "coordinates": [80.1765167, 13.0331368]}}, {"type": "Feature", "properties": {"source": "GCC"}, "geometry": {"type": "Point", "coordinates": [80.1753858, 13.0341796]}}, {"type": "Feature", "properties": {"source": "GCC"}, "geometry": {"type": "Point", "coordinates": [80.1850225, 13.0343337]}}, {"type": "Feature", "properties": {"source": "GCC"}, "geometry": {"type": "Point", "coordinates": [80.1847124, 13.0323882]}}, {"type": "Feature", "properties": {"source": "GCC"}, "geometry": {"type": "Point", "coordinates": [80.185395, 13.0297172]}}, {"type": "Feature", "properties": {"source": "GCC"}, "geometry": {"type": "Point", "coordinates": [80.1861772, 13.0347534]}}, {"type": "Feature", "properties": {"source": "GCC"}, "geometry": {"type": "Point", "coordinates": [80.1818729, 13.0347803]}}, {"type": "Feature", "properties": {"source": "GCC"}, "geometry": {"type": "Point", "coordinates": [80.1672927, 13.0205888]}}, {"type": "Feature", "properties": {"source": "GCC"}, "geometry": {"type": "Point", "coordinates": [80.1489022, 13.022147]}}, {"type": "Feature", "properties": {"source": "GCC"}, "geometry": {"type": "Point", "coordinates": [80.1425033, 13.0189299]}}, {"type": "Feature", "properties": {"source": "GCC"}, "geometry": {"type": "Point", "coordinates": [80.1435563, 13.023704]}}, {"type": "Feature", "properties": {"source": "GCC"}, "geometry": {"type": "Point", "coordinates": [80.1731998, 13.0161586]}}, {"type": "Feature", "properties": {"source": "GCC"}, "geometry": {"type": "Point", "coordinates": [80.1725247, 13.0140923]}}, {"type": "Feature", "properties": {"source": "GCC"}, "geometry": {"type": "Point", "coordinates": [80.1949797, 13.027716]}}, {"type": "Feature", "properties": {"source": "GCC"}, "geometry": {"type": "Point", "coordinates": [80.1491312, 13.107194]}}, {"type": "Feature", "properties": {"source": "GCC"}, "geometry": {"type": "Point", "coordinates": [80.1527936, 13.1080448]}}, {"type": "Feature", "properties": {"source": "GCC"}, "geometry": {"type": "Point", "coordinates": [80.165874, 13.1031988]}}, {"type": "Feature", "properties": {"source": "GCC"}, "geometry": {"type": "Point", "coordinates": [80.1601526, 13.1014195]}}, {"type": "Feature", "properties": {"source": "GCC"}, "geometry": {"type": "Point", "coordinates": [80.1594284, 13.1002302]}}, {"type": "Feature", "properties": {"source": "GCC"}, "geometry": {"type": "Point", "coordinates": [80.1869322, 13.0954838]}}, {"type": "Feature", "properties": {"source": "GCC"}, "geometry": {"type": "Point", "coordinates": [80.1929465, 13.1010119]}}, {"type": "Feature", "properties": {"source": "GCC"}, "geometry": {"type": "Point", "coordinates": [80.1920396, 13.0977407]}}, {"type": "Feature", "properties": {"source": "GCC"}, "geometry": {"type": "Point", "coordinates": [80.1927212, 13.098113]}}, {"type": "Feature", "properties": {"source": "GCC"}, "geometry": {"type": "Point", "coordinates": [80.1941255, 13.0945952]}}, {"type": "Feature", "properties": {"source": "GCC"}, "geometry": {"type": "Point", "coordinates": [80.1937199, 13.0916817]}}, {"type": "Feature", "properties": {"source": "GCC"}, "geometry": {"type": "Point", "coordinates": [80.1881531, 13.0917044]}}, {"type": "Feature", "properties": {"source": "GCC"}, "geometry": {"type": "Point", "coordinates": [80.1788868, 13.0928566]}}, {"type": "Feature", "properties": {"source": "GCC"}, "geometry": {"type": "Point", "coordinates": [80.1808971, 13.0898545]}}, {"type": "Feature", "properties": {"source": "GCC"}, "geometry": {"type": "Point", "coordinates": [80.1784392, 13.0893244]}}, {"type": "Feature", "properties": {"source": "GCC"}, "geometry": {"type": "Point", "coordinates": [80.1919978, 13.0859296]}}, {"type": "Feature", "properties": {"source": "GCC"}, "geometry": {"type": "Point", "coordinates": [80.190507, 13.0865907]}}, {"type": "Feature", "properties": {"source": "GCC"}, "geometry": {"type": "Point", "coordinates": [80.1931501, 13.0870466]}}, {"type": "Feature", "properties": {"source": "GCC"}, "geometry": {"type": "Point", "coordinates": [80.1982099, 13.0871554]}}, {"type": "Feature", "properties": {"source": "GCC"}, "geometry": {"type": "Point", "coordinates": [80.1756978, 13.0766208]}}, {"type": "Feature", "properties": {"source": "GCC"}, "geometry": {"type": "Point", "coordinates": [80.1773189, 13.0774372]}}, {"type": "Feature", "properties": {"source": "GCC"}, "geometry": {"type": "Point", "coordinates": [80.1818474, 13.0812479]}}, {"type": "Feature", "properties": {"source": "GCC"}, "geometry": {"type": "Point", "coordinates": [80.1808808, 13.0783723]}}, {"type": "Feature", "properties": {"source": "GCC"}, "geometry": {"type": "Point", "coordinates": [80.1754029, 13.0834806]}}, {"type": "Feature", "properties": {"source": "GCC"}, "geometry": {"type": "Point", "coordinates": [80.1846328, 13.0847807]}}, {"type": "Feature", "properties": {"source": "GCC"}, "geometry": {"type": "Point", "coordinates": [80.1554627, 13.1373481]}}, {"type": "Feature", "properties": {"source": "GCC"}, "geometry": {"type": "Point", "coordinates": [80.1730641, 13.133056]}}, {"type": "Feature", "properties": {"source": "GCC"}, "geometry": {"type": "Point", "coordinates": [80.19804, 13.123037]}}, {"type": "Feature", "properties": {"source": "GCC"}, "geometry": {"type": "Point", "coordinates": [80.155877, 13.138609]}}, {"type": "Feature", "properties": {"source": "GCC"}, "geometry": {"type": "Point", "coordinates": [80.155795, 13.135882]}}, {"type": "Feature", "properties": {"source": "GCC"}, "geometry": {"type": "Point", "coordinates": [80.156689, 13.138647]}}, {"type": "Feature", "properties": {"source": "GCC"}, "geometry": {"type": "Point", "coordinates": [80.148761, 13.126965]}}, {"type": "Feature", "properties": {"source": "GCC"}, "geometry": {"type": "Point", "coordinates": [80.150086, 13.126289]}}, {"type": "Feature", "properties": {"source": "GCC"}, "geometry": {"type": "Point", "coordinates": [80.150519, 13.126209]}}, {"type": "Feature", "properties": {"source": "GCC"}, "geometry": {"type": "Point", "coordinates": [80.165378, 13.116992]}}, {"type": "Feature", "properties": {"source": "GCC"}, "geometry": {"type": "Point", "coordinates": [80.16764, 13.119172]}}, {"type": "Feature", "properties": {"source": "GCC"}, "geometry": {"type": "Point", "coordinates": [80.1851302, 13.1086772]}}, {"type": "Feature", "properties": {"source": "GCC"}, "geometry": {"type": "Point", "coordinates": [80.1852201, 13.1093519]}}, {"type": "Feature", "properties": {"source": "GCC"}, "geometry": {"type": "Point", "coordinates": [80.1848325, 13.1090411]}}, {"type": "Feature", "properties": {"source": "GCC"}, "geometry": {"type": "Point", "coordinates": [80.186711, 13.111126]}}, {"type": "Feature", "properties": {"source": "GCC"}, "geometry": {"type": "Point", "coordinates": [80.1900006, 13.100479]}}, {"type": "Feature", "properties": {"source": "GCC"}, "geometry": {"type": "Point", "coordinates": [80.1847239, 13.1084367]}}, {"type": "Feature", "properties": {"source": "GCC"}, "geometry": {"type": "Point", "coordinates": [80.2007888, 13.1033637]}}, {"type": "Feature", "properties": {"source": "GCC"}, "geometry": {"type": "Point", "coordinates": [80.1959234, 13.1026754]}}, {"type": "Feature", "properties": {"source": "GCC"}, "geometry": {"type": "Point", "coordinates": [80.2069508, 13.105606]}}, {"type": "Feature", "properties": {"source": "GCC"}, "geometry": {"type": "Point", "coordinates": [80.2051723, 13.1169504]}}, {"type": "Feature", "properties": {"source": "GCC"}, "geometry": {"type": "Point", "coordinates": [80.2037132, 13.1117673]}}, {"type": "Feature", "properties": {"source": "GCC"}, "geometry": {"type": "Point", "coordinates": [80.2012238, 13.1124071]}}, {"type": "Feature", "properties": {"source": "GCC"}, "geometry": {"type": "Point", "coordinates": [80.2003428, 13.1133651]}}, {"type": "Feature", "properties": {"source": "GCC"}, "geometry": {"type": "Point", "coordinates": [80.2051743, 13.1168544]}}, {"type": "Feature", "properties": {"source": "GCC"}, "geometry": {"type": "Point", "coordinates": [80.1967775, 13.1076819]}}, {"type": "Feature", "properties": {"source": "GCC"}, "geometry": {"type": "Point", "coordinates": [80.2042144, 13.105099]}}, {"type": "Feature", "properties": {"source": "GCC"}, "geometry": {"type": "Point", "coordinates": [80.2111808, 13.1048035]}}, {"type": "Feature", "properties": {"source": "GCC"}, "geometry": {"type": "Point", "coordinates": [80.2094026, 13.1034957]}}, {"type": "Feature", "properties": {"source": "GCC"}, "geometry": {"type": "Point", "coordinates": [80.2134775, 13.1060419]}}, {"type": "Feature", "properties": {"source": "GCC"}, "geometry": {"type": "Point", "coordinates": [80.2120853, 13.102922]}}, {"type": "Feature", "properties": {"source": "GCC"}, "geometry": {"type": "Point", "coordinates": [80.2065683, 13.0949912]}}, {"type": "Feature", "properties": {"source": "GCC"}, "geometry": {"type": "Point", "coordinates": [80.2014954, 13.0948018]}}, {"type": "Feature", "properties": {"source": "GCC"}, "geometry": {"type": "Point", "coordinates": [80.2035516, 13.1016758]}}, {"type": "Feature", "properties": {"source": "GCC"}, "geometry": {"type": "Point", "coordinates": [80.1970185, 13.0970604]}}, {"type": "Feature", "properties": {"source": "GCC"}, "geometry": {"type": "Point", "coordinates": [80.2091965, 13.1025547]}}, {"type": "Feature", "properties": {"source": "GCC"}, "geometry": {"type": "Point", "coordinates": [80.2091606, 13.1005823]}}, {"type": "Feature", "properties": {"source": "GCC"}, "geometry": {"type": "Point", "coordinates": [80.1963636, 13.0950481]}}, {"type": "Feature", "properties": {"source": "GCC"}, "geometry": {"type": "Point", "coordinates": [80.2214943, 13.0987695]}}, {"type": "Feature", "properties": {"source": "GCC"}, "geometry": {"type": "Point", "coordinates": [80.2163196, 13.0979749]}}, {"type": "Feature", "properties": {"source": "GCC"}, "geometry": {"type": "Point", "coordinates": [80.2306787, 13.0983489]}}, {"type": "Feature", "properties": {"source": "GCC"}, "geometry": {"type": "Point", "coordinates": [80.2340258, 13.0968607]}}, {"type": "Feature", "properties": {"source": "GCC"}, "geometry": {"type": "Point", "coordinates": [80.2235798, 13.0960096]}}, {"type": "Feature", "properties": {"source": "GCC"}, "geometry": {"type": "Point", "coordinates": [80.2244686, 13.0953875]}}, {"type": "Feature", "properties": {"source": "GCC"}, "geometry": {"type": "Point", "coordinates": [80.2232684, 13.0954484]}}, {"type": "Feature", "properties": {"source": "GCC"}, "geometry": {"type": "Point", "coordinates": [80.2356497, 13.0938748]}}, {"type": "Feature", "properties": {"source": "GCC"}, "geometry": {"type": "Point", "coordinates": [80.2361462, 13.0928544]}}, {"type": "Feature", "properties": {"source": "GCC"}, "geometry": {"type": "Point", "coordinates": [80.2347547, 13.0933607]}}, {"type": "Feature", "properties": {"source": "GCC"}, "geometry": {"type": "Point", "coordinates": [80.2328397, 13.094163]}}, {"type": "Feature", "properties": {"source": "GCC"}, "geometry": {"type": "Point", "coordinates": [80.2317054, 13.0906524]}}, {"type": "Feature", "properties": {"source": "GCC"}, "geometry": {"type": "Point", "coordinates": [80.2364303, 13.0936461]}}, {"type": "Feature", "properties": {"source": "GCC"}, "geometry": {"type": "Point", "coordinates": [80.2365026, 13.0863659]}}, {"type": "Feature", "properties": {"source": "GCC"}, "geometry": {"type": "Point", "coordinates": [80.1974666, 13.0857663]}}, {"type": "Feature", "properties": {"source": "GCC"}, "geometry": {"type": "Point", "coordinates": [80.1972769, 13.0841148]}}, {"type": "Feature", "properties": {"source": "GCC"}, "geometry": {"type": "Point", "coordinates": [80.2009905, 13.0865056]}}, {"type": "Feature", "properties": {"source": "GCC"}, "geometry": {"type": "Point", "coordinates": [80.1988563, 13.0820949]}}, {"type": "Feature", "properties": {"source": "GCC"}, "geometry": {"type": "Point", "coordinates": [80.2026947, 13.0862686]}}, {"type": "Feature", "properties": {"source": "GCC"}, "geometry": {"type": "Point", "coordinates": [80.2012838, 13.0915471]}}, {"type": "Feature", "properties": {"source": "GCC"}, "geometry": {"type": "Point", "coordinates": [80.1967399, 13.0930316]}}, {"type": "Feature", "properties": {"source": "GCC"}, "geometry": {"type": "Point", "coordinates": [80.2117975, 13.091847]}}, {"type": "Feature", "properties": {"source": "GCC"}, "geometry": {"type": "Point", "coordinates": [80.2126275, 13.0911001]}}, {"type": "Feature", "properties": {"source": "GCC"}, "geometry": {"type": "Point", "coordinates": [80.2132134, 13.0885593]}}, {"type": "Feature", "properties": {"source": "GCC"}, "geometry": {"type": "Point", "coordinates": [80.212328, 13.084819]}}, {"type": "Feature", "properties": {"source": "GCC"}, "geometry": {"type": "Point", "coordinates": [80.2101905, 13.0852899]}}, {"type": "Feature", "properties": {"source": "GCC"}, "geometry": {"type": "Point", "coordinates": [80.2103133, 13.082432]}}, {"type": "Feature", "properties": {"source": "GCC"}, "geometry": {"type": "Point", "coordinates": [80.2136655, 13.0924168]}}, {"type": "Feature", "properties": {"source": "GCC"}, "geometry": {"type": "Point", "coordinates": [80.2135114, 13.0805405]}}, {"type": "Feature", "properties": {"source": "GCC"}, "geometry": {"type": "Point", "coordinates": [80.2143753, 13.0917724]}}, {"type": "Feature", "properties": {"source": "GCC"}, "geometry": {"type": "Point", "coordinates": [80.2225527, 13.0844408]}}, {"type": "Feature", "properties": {"source": "GCC"}, "geometry": {"type": "Point", "coordinates": [80.2161219, 13.0884699]}}, {"type": "Feature", "properties": {"source": "GCC"}, "geometry": {"type": "Point", "coordinates": [80.2170345, 13.0930607]}}, {"type": "Feature", "properties": {"source": "GCC"}, "geometry": {"type": "Point", "coordinates": [80.2221476, 13.0801738]}}, {"type": "Feature", "properties": {"source": "GCC"}, "geometry": {"type": "Point", "coordinates": [80.2171399, 13.0911625]}}, {"type": "Feature", "properties": {"source": "GCC"}, "geometry": {"type": "Point", "coordinates": [80.2250431, 13.0768357]}}, {"type": "Feature", "properties": {"source": "GCC"}, "geometry": {"type": "Point", "coordinates": [80.2236868, 13.090787]}}, {"type": "Feature", "properties": {"source": "GCC"}, "geometry": {"type": "Point", "coordinates": [80.2267479, 13.0780297]}}, {"type": "Feature", "properties": {"source": "GCC"}, "geometry": {"type": "Point", "coordinates": [80.2297608, 13.0831023]}}, {"type": "Feature", "properties": {"source": "GCC"}, "geometry": {"type": "Point", "coordinates": [80.2301905, 13.0810759]}}, {"type": "Feature", "properties": {"source": "GCC"}, "geometry": {"type": "Point", "coordinates": [80.230436, 13.080789]}}, {"type": "Feature", "properties": {"source": "GCC"}, "geometry": {"type": "Point", "coordinates": [80.2271915, 13.0848269]}}, {"type": "Feature", "properties": {"source": "GCC"}, "geometry": {"type": "Point", "coordinates": [80.2282071, 13.0869743]}}, {"type": "Feature", "properties": {"source": "GCC"}, "geometry": {"type": "Point", "coordinates": [80.2291401, 13.0870938]}}, {"type": "Feature", "properties": {"source": "GCC"}, "geometry": {"type": "Point", "coordinates": [80.228123, 13.0875806]}}, {"type": "Feature", "properties": {"source": "GCC"}, "geometry": {"type": "Point", "coordinates": [80.2229386, 13.0757784]}}, {"type": "Feature", "properties": {"source": "GCC"}, "geometry": {"type": "Point", "coordinates": [80.2241232, 13.0887494]}}, {"type": "Feature", "properties": {"source": "GCC"}, "geometry": {"type": "Point", "coordinates": [80.2464273, 13.0836737]}}, {"type": "Feature", "properties": {"source": "GCC"}, "geometry": {"type": "Point", "coordinates": [80.2499238, 13.0831538]}}, {"type": "Feature", "properties": {"source": "GCC"}, "geometry": {"type": "Point", "coordinates": [80.2476562, 13.0857631]}}, {"type": "Feature", "properties": {"source": "GCC"}, "geometry": {"type": "Point", "coordinates": [80.2477112, 13.0822491]}}, {"type": "Feature", "properties": {"source": "GCC"}, "geometry": {"type": "Point", "coordinates": [80.2445874, 13.0840894]}}, {"type": "Feature", "properties": {"source": "GCC"}, "geometry": {"type": "Point", "coordinates": [80.2428875, 13.0831819]}}, {"type": "Feature", "properties": {"source": "GCC"}, "geometry": {"type": "Point", "coordinates": [80.252324, 13.0874176]}}, {"type": "Feature", "properties": {"source": "GCC"}, "geometry": {"type": "Point", "coordinates": [80.2439759, 13.0761461]}}, {"type": "Feature", "properties": {"source": "GCC"}, "geometry": {"type": "Point", "coordinates": [80.2449824, 13.0751685]}}, {"type": "Feature", "properties": {"source": "GCC"}, "geometry": {"type": "Point", "coordinates": [80.2519615, 13.0891543]}}, {"type": "Feature", "properties": {"source": "GCC"}, "geometry": {"type": "Point", "coordinates": [80.2511587, 13.0813184]}}, {"type": "Feature", "properties": {"source": "GCC"}, "geometry": {"type": "Point", "coordinates": [80.2117692, 13.0703391]}}, {"type": "Feature", "properties": {"source": "GCC"}, "geometry": {"type": "Point", "coordinates": [80.2115663, 13.0696367]}}, {"type": "Feature", "properties": {"source": "GCC"}, "geometry": {"type": "Point", "coordinates": [80.2140537, 13.0687348]}}, {"type": "Feature", "properties": {"source": "GCC"}, "geometry": {"type": "Point", "coordinates": [80.2089874, 13.0626307]}}, {"type": "Feature", "properties": {"source": "GCC"}, "geometry": {"type": "Point", "coordinates": [80.214399, 13.0719775]}}, {"type": "Feature", "properties": {"source": "GCC"}, "geometry": {"type": "Point", "coordinates": [80.2155456, 13.0714898]}}, {"type": "Feature", "properties": {"source": "GCC"}, "geometry": {"type": "Point", "coordinates": [80.2124298, 13.0687602]}}, {"type": "Feature", "properties": {"source": "GCC"}, "geometry": {"type": "Point", "coordinates": [80.2105666, 13.0699344]}}, {"type": "Feature", "properties": {"source": "GCC"}, "geometry": {"type": "Point", "coordinates": [80.2212982, 13.0706827]}}, {"type": "Feature", "properties": {"source": "GCC"}, "geometry": {"type": "Point", "coordinates": [80.2224463, 13.0682063]}}, {"type": "Feature", "properties": {"source": "GCC"}, "geometry": {"type": "Point", "coordinates": [80.2264303, 13.0708168]}}, {"type": "Feature", "properties": {"source": "GCC"}, "geometry": {"type": "Point", "coordinates": [80.227053, 13.0679466]}}, {"type": "Feature", "properties": {"source": "GCC"}, "geometry": {"type": "Point", "coordinates": [80.2409339, 13.0725696]}}, {"type": "Feature", "properties": {"source": "GCC"}, "geometry": {"type": "Point", "coordinates": [80.217889, 13.0587098]}}, {"type": "Feature", "properties": {"source": "GCC"}, "geometry": {"type": "Point", "coordinates": [80.2165362, 13.0589104]}}, {"type": "Feature", "properties": {"source": "GCC"}, "geometry": {"type": "Point", "coordinates": [80.2159203, 13.0687687]}}, {"type": "Feature", "properties": {"source": "GCC"}, "geometry": {"type": "Point", "coordinates": [80.2206199, 13.0671586]}}, {"type": "Feature", "properties": {"source": "GCC"}, "geometry": {"type": "Point", "coordinates": [80.226562, 13.0851367]}}, {"type": "Feature", "properties": {"source": "GCC"}, "geometry": {"type": "Point", "coordinates": [80.2218278, 13.0617349]}}, {"type": "Feature", "properties": {"source": "GCC"}, "geometry": {"type": "Point", "coordinates": [80.2296881, 13.0667179]}}, {"type": "Feature", "properties": {"source": "GCC"}, "geometry": {"type": "Point", "coordinates": [80.224321, 13.064023]}}, {"type": "Feature", "properties": {"source": "GCC"}, "geometry": {"type": "Point", "coordinates": [80.2408421, 13.0568122]}}, {"type": "Feature", "properties": {"source": "GCC"}, "geometry": {"type": "Point", "coordinates": [80.2433478, 13.0664915]}}, {"type": "Feature", "properties": {"source": "GCC"}, "geometry": {"type": "Point", "coordinates": [80.2384296, 13.0692727]}}, {"type": "Feature", "properties": {"source": "GCC"}, "geometry": {"type": "Point", "coordinates": [80.2389829, 13.0649867]}}, {"type": "Feature", "properties": {"source": "GCC"}, "geometry": {"type": "Point", "coordinates": [80.2404004, 13.0585815]}}, {"type": "Feature", "properties": {"source": "GCC"}, "geometry": {"type": "Point", "coordinates": [80.2406446, 13.0539412]}}, {"type": "Feature", "properties": {"source": "GCC"}, "geometry": {"type": "Point", "coordinates": [80.2544165, 13.0604894]}}, {"type": "Feature", "properties": {"source": "GCC"}, "geometry": {"type": "Point", "coordinates": [80.2530946, 13.0593647]}}, {"type": "Feature", "properties": {"source": "GCC"}, "geometry": {"type": "Point", "coordinates": [80.2561479, 13.050352]}}, {"type": "Feature", "properties": {"source": "GCC"}, "geometry": {"type": "Point", "coordinates": [80.2503645, 13.0674576]}}, {"type": "Feature", "properties": {"source": "GCC"}, "geometry": {"type": "Point", "coordinates": [80.2219541, 13.0559077]}}, {"type": "Feature", "properties": {"source": "GCC"}, "geometry": {"type": "Point", "coordinates": [80.2227246, 13.0560591]}}, {"type": "Feature", "properties": {"source": "GCC"}, "geometry": {"type": "Point", "coordinates": [80.2276614, 13.056506]}}, {"type": "Feature", "properties": {"source": "GCC"}, "geometry": {"type": "Point", "coordinates": [80.2240048, 13.0554243]}}, {"type": "Feature", "properties": {"source": "GCC"}, "geometry": {"type": "Point", "coordinates": [80.2260579, 13.0560845]}}, {"type": "Feature", "properties": {"source": "GCC"}, "geometry": {"type": "Point", "coordinates": [80.245699, 13.0528113]}}, {"type": "Feature", "properties": {"source": "GCC"}, "geometry": {"type": "Point", "coordinates": [80.2368994, 13.0542852]}}, {"type": "Feature", "properties": {"source": "GCC"}, "geometry": {"type": "Point", "coordinates": [80.24049, 13.0509194]}}, {"type": "Feature", "properties": {"source": "GCC"}, "geometry": {"type": "Point", "coordinates": [80.2426782, 13.0582522]}}, {"type": "Feature", "properties": {"source": "GCC"}, "geometry": {"type": "Point", "coordinates": [80.2431091, 13.0493759]}}, {"type": "Feature", "properties": {"source": "GCC"}, "geometry": {"type": "Point", "coordinates": [80.2486011, 13.057381]}}, {"type": "Feature", "properties": {"source": "GCC"}, "geometry": {"type": "Point", "coordinates": [80.2825944, 13.0595162]}}, {"type": "Feature", "properties": {"source": "GCC"}, "geometry": {"type": "Point", "coordinates": [80.282313, 13.0589483]}}, {"type": "Feature", "properties": {"source": "GCC"}, "geometry": {"type": "Point", "coordinates": [80.2748619, 13.0590189]}}, {"type": "Feature", "properties": {"source": "GCC"}, "geometry": {"type": "Point", "coordinates": [80.2765047, 13.0597545]}}, {"type": "Feature", "properties": {"source": "GCC"}, "geometry": {"type": "Point", "coordinates": [80.28142, 13.0660909]}}, {"type": "Feature", "properties": {"source": "GCC"}, "geometry": {"type": "Point", "coordinates": [80.2612714, 13.0541101]}}, {"type": "Feature", "properties": {"source": "GCC"}, "geometry": {"type": "Point", "coordinates": [80.2645178, 13.0556634]}}, {"type": "Feature", "properties": {"source": "GCC"}, "geometry": {"type": "Point", "coordinates": [80.2721635, 13.0577523]}}, {"type": "Feature", "properties": {"source": "GCC"}, "geometry": {"type": "Point", "coordinates": [80.2727818, 13.0565614]}}, {"type": "Feature", "properties": {"source": "GCC"}, "geometry": {"type": "Point", "coordinates": [80.2715945, 13.0531869]}}, {"type": "Feature", "properties": {"source": "GCC"}, "geometry": {"type": "Point", "coordinates": [80.2711325, 13.0583307]}}, {"type": "Feature", "properties": {"source": "GCC"}, "geometry": {"type": "Point", "coordinates": [80.2773068, 13.0581262]}}, {"type": "Feature", "properties": {"source": "GCC"}, "geometry": {"type": "Point", "coordinates": [80.2786066, 13.0509254]}}, {"type": "Feature", "properties": {"source": "GCC"}, "geometry": {"type": "Point", "coordinates": [80.2451519, 13.0478259]}}, {"type": "Feature", "properties": {"source": "GCC"}, "geometry": {"type": "Point", "coordinates": [80.2435705, 13.0356755]}}, {"type": "Feature", "properties": {"source": "GCC"}, "geometry": {"type": "Point", "coordinates": [80.2398014, 13.0474681]}}, {"type": "Feature", "properties": {"source": "GCC"}, "geometry": {"type": "Point", "coordinates": [80.2359824, 13.0480415]}}, {"type": "Feature", "properties": {"source": "GCC"}, "geometry": {"type": "Point", "coordinates": [80.2379259, 13.0474112]}}, {"type": "Feature", "properties": {"source": "GCC"}, "geometry": {"type": "Point", "coordinates": [80.2384847, 13.0480223]}}, {"type": "Feature", "properties": {"source": "GCC"}, "geometry": {"type": "Point", "coordinates": [80.2388917, 13.0487952]}}, {"type": "Feature", "properties": {"source": "GCC"}, "geometry": {"type": "Point", "coordinates": [80.2376793, 13.0492009]}}, {"type": "Feature", "properties": {"source": "GCC"}, "geometry": {"type": "Point", "coordinates": [80.2636775, 13.045435]}}, {"type": "Feature", "properties": {"source": "GCC"}, "geometry": {"type": "Point", "coordinates": [80.262168, 13.0426466]}}, {"type": "Feature", "properties": {"source": "GCC"}, "geometry": {"type": "Point", "coordinates": [80.265389, 13.0477382]}}, {"type": "Feature", "properties": {"source": "GCC"}, "geometry": {"type": "Point", "coordinates": [80.2651837, 13.0487902]}}, {"type": "Feature", "properties": {"source": "GCC"}, "geometry": {"type": "Point", "coordinates": [80.2744791, 13.0494448]}}, {"type": "Feature", "properties": {"source": "GCC"}, "geometry": {"type": "Point", "coordinates": [80.2729348, 13.0507202]}}, {"type": "Feature", "properties": {"source": "GCC"}, "geometry": {"type": "Point", "coordinates": [80.2704202, 13.0441458]}}, {"type": "Feature", "properties": {"source": "GCC"}, "geometry": {"type": "Point", "coordinates": [80.2526808, 13.0037215]}}, {"type": "Feature", "properties": {"source": "GCC"}, "geometry": {"type": "Point", "coordinates": [80.2525091, 13.0055195]}}, {"type": "Feature", "properties": {"source": "GCC"}, "geometry": {"type": "Point", "coordinates": [80.2527237, 12.9958183]}}, {"type": "Feature", "properties": {"source": "GCC"}, "geometry": {"type": "Point", "coordinates": [80.2520585, 13.001892]}}, {"type": "Feature", "properties": {"source": "GCC"}, "geometry": {"type": "Point", "coordinates": [80.2541399, 13.0002194]}}, {"type": "Feature", "properties": {"source": "GCC"}, "geometry": {"type": "Point", "coordinates": [80.2560925, 12.998965]}}, {"type": "Feature", "properties": {"source": "GCC"}, "geometry": {"type": "Point", "coordinates": [80.2558887, 13.0047146]}}, {"type": "Feature", "properties": {"source": "GCC"}, "geometry": {"type": "Point", "coordinates": [80.2552986, 13.0036796]}}, {"type": "Feature", "properties": {"source": "GCC"}, "geometry": {"type": "Point", "coordinates": [80.2569938, 12.9999163]}}, {"type": "Feature", "properties": {"source": "GCC"}, "geometry": {"type": "Point", "coordinates": [80.2596116, 12.9990381]}}, {"type": "Feature", "properties": {"source": "GCC"}, "geometry": {"type": "Point", "coordinates": [80.2073193, 12.9891277]}}, {"type": "Feature", "properties": {"source": "GCC"}, "geometry": {"type": "Point", "coordinates": [80.2063751, 12.9839423]}}, {"type": "Feature", "properties": {"source": "GCC"}, "geometry": {"type": "Point", "coordinates": [80.2119541, 12.9823114]}}, {"type": "Feature", "properties": {"source": "GCC"}, "geometry": {"type": "Point", "coordinates": [80.208478, 12.9770422]}}, {"type": "Feature", "properties": {"source": "GCC"}, "geometry": {"type": "Point", "coordinates": [80.2119541, 12.9919294]}}, {"type": "Feature", "properties": {"source": "GCC"}, "geometry": {"type": "Point", "coordinates": [80.2142179, 12.9790704]}}, {"type": "Feature", "properties": {"source": "GCC"}, "geometry": {"type": "Point", "coordinates": [80.2208376, 12.987225]}}, {"type": "Feature", "properties": {"source": "GCC"}, "geometry": {"type": "Point", "coordinates": [80.2114606, 12.9776904]}}, {"type": "Feature", "properties": {"source": "GCC"}, "geometry": {"type": "Point", "coordinates": [80.2208805, 12.9755367]}}, {"type": "Feature", "properties": {"source": "GCC"}, "geometry": {"type": "Point", "coordinates": [80.2193034, 12.9815691]}}, {"type": "Feature", "properties": {"source": "GCC"}, "geometry": {"type": "Point", "coordinates": [80.2262878, 12.9862422]}}, {"type": "Feature", "properties": {"source": "GCC"}, "geometry": {"type": "Point", "coordinates": [80.2234769, 12.9787149]}}, {"type": "Feature", "properties": {"source": "GCC"}, "geometry": {"type": "Point", "coordinates": [80.2253437, 12.9809313]}}, {"type": "Feature", "properties": {"source": "GCC"}, "geometry": {"type": "Point", "coordinates": [80.2403212, 12.9814332]}}, {"type": "Feature", "properties": {"source": "GCC"}, "geometry": {"type": "Point", "coordinates": [80.2271032, 12.9812659]}}, {"type": "Feature", "properties": {"source": "GCC"}, "geometry": {"type": "Point", "coordinates": [80.2210737, 12.9689918]}}, {"type": "Feature", "properties": {"source": "GCC"}, "geometry": {"type": "Point", "coordinates": [80.2218676, 12.9722747]}}, {"type": "Feature", "properties": {"source": "GCC"}, "geometry": {"type": "Point", "coordinates": [80.2180051, 12.9819769]}}, {"type": "Feature", "properties": {"source": "GCC"}, "geometry": {"type": "Point", "coordinates": [80.2270603, 12.9741984]}}, {"type": "Feature", "properties": {"source": "GCC"}, "geometry": {"type": "Point", "coordinates": [80.2224255, 12.9774185]}}, {"type": "Feature", "properties": {"source": "GCC"}, "geometry": {"type": "Point", "coordinates": [80.2548265, 12.9830641]}}, {"type": "Feature", "properties": {"source": "GCC"}, "geometry": {"type": "Point", "coordinates": [80.2425528, 12.9879568]}}, {"type": "Feature", "properties": {"source": "GCC"}, "geometry": {"type": "Point", "coordinates": [80.2420806, 12.9951388]}}, {"type": "Feature", "properties": {"source": "GCC"}, "geometry": {"type": "Point", "coordinates": [80.1896084, 13.0356611]}}, {"type": "Feature", "properties": {"source": "GCC"}, "geometry": {"type": "Point", "coordinates": [80.213671, 13.0568282]}}, {"type": "Feature", "properties": {"source": "GCC"}, "geometry": {"type": "Point", "coordinates": [80.2108028, 13.0530591]}}, {"type": "Feature", "properties": {"source": "GCC"}, "geometry": {"type": "Point", "coordinates": [80.2128651, 13.0551555]}}, {"type": "Feature", "properties": {"source": "GCC"}, "geometry": {"type": "Point", "coordinates": [80.2162112, 13.0551027]}}, {"type": "Feature", "properties": {"source": "GCC"}, "geometry": {"type": "Point", "coordinates": [80.2138265, 13.0580718]}}, {"type": "Feature", "properties": {"source": "GCC"}, "geometry": {"type": "Point", "coordinates": [80.211589, 13.0537124]}}, {"type": "Feature", "properties": {"source": "GCC"}, "geometry": {"type": "Point", "coordinates": [80.2019466, 13.0399134]}}, {"type": "Feature", "properties": {"source": "GCC"}, "geometry": {"type": "Point", "coordinates": [80.2028253, 13.0384271]}}, {"type": "Feature", "properties": {"source": "GCC"}, "geometry": {"type": "Point", "coordinates": [80.2106319, 13.0441287]}}, {"type": "Feature", "properties": {"source": "GCC"}, "geometry": {"type": "Point", "coordinates": [80.1994323, 13.0435928]}}, {"type": "Feature", "properties": {"source": "GCC"}, "geometry": {"type": "Point", "coordinates": [80.2150628, 13.0404443]}}, {"type": "Feature", "properties": {"source": "GCC"}, "geometry": {"type": "Point", "coordinates": [80.2147784, 13.0444777]}}, {"type": "Feature", "properties": {"source": "GCC"}, "geometry": {"type": "Point", "coordinates": [80.2163032, 13.0365316]}}, {"type": "Feature", "properties": {"source": "GCC"}, "geometry": {"type": "Point", "coordinates": [80.2108812, 13.0414729]}}, {"type": "Feature", "properties": {"source": "GCC"}, "geometry": {"type": "Point", "coordinates": [80.2117642, 13.0415834]}}, {"type": "Feature", "properties": {"source": "GCC"}, "geometry": {"type": "Point", "coordinates": [80.2079167, 13.0412082]}}, {"type": "Feature", "properties": {"source": "GCC"}, "geometry": {"type": "Point", "coordinates": [80.2101601, 13.0314999]}}, {"type": "Feature", "properties": {"source": "GCC"}, "geometry": {"type": "Point", "coordinates": [80.2139525, 13.0438099]}}, {"type": "Feature", "properties": {"source": "GCC"}, "geometry": {"type": "Point", "coordinates": [80.2171477, 13.0313272]}}, {"type": "Feature", "properties": {"source": "GCC"}, "geometry": {"type": "Point", "coordinates": [80.2169811, 13.0309815]}}, {"type": "Feature", "properties": {"source": "GCC"}, "geometry": {"type": "Point", "coordinates": [80.2181567, 13.044885]}}, {"type": "Feature", "properties": {"source": "GCC"}, "geometry": {"type": "Point", "coordinates": [80.2178248, 13.04342]}}, {"type": "Feature", "properties": {"source": "GCC"}, "geometry": {"type": "Point", "coordinates": [80.2177481, 13.0515355]}}, {"type": "Feature", "properties": {"source": "GCC"}, "geometry": {"type": "Point", "coordinates": [80.2145365, 13.0487976]}}, {"type": "Feature", "properties": {"source": "GCC"}, "geometry": {"type": "Point", "coordinates": [80.2176998, 13.0353131]}}, {"type": "Feature", "properties": {"source": "GCC"}, "geometry": {"type": "Point", "coordinates": [80.2188863, 13.0412296]}}, {"type": "Feature", "properties": {"source": "GCC"}, "geometry": {"type": "Point", "coordinates": [80.2201818, 13.0480112]}}, {"type": "Feature", "properties": {"source": "GCC"}, "geometry": {"type": "Point", "coordinates": [80.2231097, 13.0474226]}}, {"type": "Feature", "properties": {"source": "GCC"}, "geometry": {"type": "Point", "coordinates": [80.2303638, 13.0520989]}}, {"type": "Feature", "properties": {"source": "GCC"}, "geometry": {"type": "Point", "coordinates": [80.2268147, 13.0459715]}}, {"type": "Feature", "properties": {"source": "GCC"}, "geometry": {"type": "Point", "coordinates": [80.2250713, 13.0535254]}}, {"type": "Feature", "properties": {"source": "GCC"}, "geometry": {"type": "Point", "coordinates": [80.2196216, 13.03646]}}, {"type": "Feature", "properties": {"source": "GCC"}, "geometry": {"type": "Point", "coordinates": [80.2238515, 13.0395335]}}, {"type": "Feature", "properties": {"source": "GCC"}, "geometry": {"type": "Point", "coordinates": [80.2222325, 13.0394819]}}, {"type": "Feature", "properties": {"source": "GCC"}, "geometry": {"type": "Point", "coordinates": [80.2245148, 13.0422293]}}, {"type": "Feature", "properties": {"source": "GCC"}, "geometry": {"type": "Point", "coordinates": [80.2329206, 13.0458911]}}, {"type": "Feature", "properties": {"source": "GCC"}, "geometry": {"type": "Point", "coordinates": [80.2356725, 13.0431993]}}, {"type": "Feature", "properties": {"source": "GCC"}, "geometry": {"type": "Point", "coordinates": [80.1961706, 13.0414249]}}, {"type": "Feature", "properties": {"source": "GCC"}, "geometry": {"type": "Point", "coordinates": [80.1962585, 13.0394127]}}, {"type": "Feature", "properties": {"source": "GCC"}, "geometry": {"type": "Point", "coordinates": [80.1954957, 13.0441499]}}, {"type": "Feature", "properties": {"source": "GCC"}, "geometry": {"type": "Point", "coordinates": [80.189121, 13.0322606]}}, {"type": "Feature", "properties": {"source": "GCC"}, "geometry": {"type": "Point", "coordinates": [80.2077838, 13.0345278]}}, {"type": "Feature", "properties": {"source": "GCC"}, "geometry": {"type": "Point", "coordinates": [80.2553952, 12.9890127]}}, {"type": "Feature", "properties": {"source": "GCC"}, "geometry": {"type": "Point", "coordinates": [80.2372393, 12.9827243]}}, {"type": "Feature", "properties": {"source": "GCC"}, "geometry": {"type": "Point", "coordinates": [80.263238, 12.9961947]}}, {"type": "Feature", "properties": {"source": "GCC"}, "geometry": {"type": "Point", "coordinates": [80.2585173, 12.9937275]}}, {"type": "Feature", "properties": {"source": "GCC"}, "geometry": {"type": "Point", "coordinates": [80.2599549, 12.9881868]}}, {"type": "Feature", "properties": {"source": "GCC"}, "geometry": {"type": "Point", "coordinates": [80.2593648, 12.9897314]}}, {"type": "Feature", "properties": {"source": "GCC"}, "geometry": {"type": "Point", "coordinates": [80.2637529, 12.9775858]}}, {"type": "Feature", "properties": {"source": "GCC"}, "geometry": {"type": "Point", "coordinates": [80.2603626, 12.9743657]}}, {"type": "Feature", "properties": {"source": "GCC"}, "geometry": {"type": "Point", "coordinates": [80.2602929, 12.9824473]}}, {"type": "Feature", "properties": {"source": "GCC"}, "geometry": {"type": "Point", "coordinates": [80.2545798, 12.9767808]}}, {"type": "Feature", "properties": {"source": "GCC"}, "geometry": {"type": "Point", "coordinates": [80.2549124, 12.985615]}}, {"type": "Feature", "properties": {"source": "GCC"}, "geometry": {"type": "Point", "coordinates": [80.2602741, 12.9902541]}}, {"type": "Feature", "properties": {"source": "GCC"}, "geometry": {"type": "Point", "coordinates": [80.2606523, 12.9901313]}}, {"type": "Feature", "properties": {"source": "GCC"}, "geometry": {"type": "Point", "coordinates": [80.2418232, 12.9929748]}}, {"type": "Feature", "properties": {"source": "GCC"}, "geometry": {"type": "Point", "coordinates": [80.2644396, 12.9825623]}}, {"type": "Feature", "properties": {"source": "GCC"}, "geometry": {"type": "Point", "coordinates": [80.2573264, 12.9790181]}}, {"type": "Feature", "properties": {"source": "GCC"}, "geometry": {"type": "Point", "coordinates": [80.198534, 12.9229209]}}, {"type": "Feature", "properties": {"source": "GCC"}, "geometry": {"type": "Point", "coordinates": [80.1925237, 12.975297]}}, {"type": "Feature", "properties": {"source": "GCC"}, "geometry": {"type": "Point", "coordinates": [80.2072046, 12.9675075]}}, {"type": "Feature", "properties": {"source": "GCC"}, "geometry": {"type": "Point", "coordinates": [80.2131342, 12.9689757]}}, {"type": "Feature", "properties": {"source": "GCC"}, "geometry": {"type": "Point", "coordinates": [80.2083035, 12.9674871]}}, {"type": "Feature", "properties": {"source": "GCC"}, "geometry": {"type": "Point", "coordinates": [80.2031459, 12.9759995]}}, {"type": "Feature", "properties": {"source": "GCC"}, "geometry": {"type": "Point", "coordinates": [80.1982628, 12.9745387]}}, {"type": "Feature", "properties": {"source": "GCC"}, "geometry": {"type": "Point", "coordinates": [80.2134652, 12.9662325]}}, {"type": "Feature", "properties": {"source": "GCC"}, "geometry": {"type": "Point", "coordinates": [80.2502228, 12.9707985]}}, {"type": "Feature", "properties": {"source": "GCC"}, "geometry": {"type": "Point", "coordinates": [80.2446572, 12.976116]}}, {"type": "Feature", "properties": {"source": "GCC"}, "geometry": {"type": "Point", "coordinates": [80.252732, 12.9623816]}}, {"type": "Feature", "properties": {"source": "GCC"}, "geometry": {"type": "Point", "coordinates": [80.2549611, 12.9665205]}}, {"type": "Feature", "properties": {"source": "GCC"}, "geometry": {"type": "Point", "coordinates": [80.2456652, 12.9516577]}}, {"type": "Feature", "properties": {"source": "GCC"}, "geometry": {"type": "Point", "coordinates": [80.2365904, 12.9578251]}}, {"type": "Feature", "properties": {"source": "GCC"}, "geometry": {"type": "Point", "coordinates": [80.2383534, 12.9605789]}}, {"type": "Feature", "properties": {"source": "GCC"}, "geometry": {"type": "Point", "coordinates": [80.2021516, 12.9535858]}}, {"type": "Feature", "properties": {"source": "GCC"}, "geometry": {"type": "Point", "coordinates": [80.2016435, 12.9573376]}}, {"type": "Feature", "properties": {"source": "GCC"}, "geometry": {"type": "Point", "coordinates": [80.206614, 12.9435771]}}, {"type": "Feature", "properties": {"source": "GCC"}, "geometry": {"type": "Point", "coordinates": [80.2118597, 12.9532314]}}, {"type": "Feature", "properties": {"source": "GCC"}, "geometry": {"type": "Point", "coordinates": [80.2159564, 12.9414412]}}, {"type": "Feature", "properties": {"source": "GCC"}, "geometry": {"type": "Point", "coordinates": [80.2027471, 12.9342386]}}, {"type": "Feature", "properties": {"source": "GCC"}, "geometry": {"type": "Point", "coordinates": [80.2105417, 12.9248036]}}, {"type": "Feature", "properties": {"source": "GCC"}, "geometry": {"type": "Point", "coordinates": [80.1995915, 12.9559558]}}, {"type": "Feature", "properties": {"source": "GCC"}, "geometry": {"type": "Point", "coordinates": [80.2468501, 12.9595364]}}, {"type": "Feature", "properties": {"source": "GCC"}, "geometry": {"type": "Point", "coordinates": [80.245375, 12.922495]}}, {"type": "Feature", "properties": {"source": "GCC"}, "geometry": {"type": "Point", "coordinates": [80.23526, 12.94522]}}, {"type": "Feature", "properties": {"source": "GCC"}, "geometry": {"type": "Point", "coordinates": [80.210582, 12.875609]}}, {"type": "Feature", "properties": {"source": "GCC"}, "geometry": {"type": "Point", "coordinates": [80.251153, 12.95685]}}, {"type": "Feature", "properties": {"source": "GCC"}, "geometry": {"type": "Point", "coordinates": [80.253312, 12.950851]}}, {"type": "Feature", "properties": {"source": "GCC"}, "geometry": {"type": "Point", "coordinates": [80.250953, 12.946804]}}, {"type": "Feature", "properties": {"source": "GCC"}, "geometry": {"type": "Point", "coordinates": [80.25328, 12.946968]}}, {"type": "Feature", "properties": {"source": "GCC"}, "geometry": {"type": "Point", "coordinates": [80.250133, 12.948359]}}, {"type": "Feature", "properties": {"source": "GCC"}, "geometry": {"type": "Point", "coordinates": [80.250253, 12.948982]}}, {"type": "Feature", "properties": {"source": "GCC"}, "geometry": {"type": "Point", "coordinates": [80.236313, 12.940731]}}, {"type": "Feature", "properties": {"source": "GCC"}, "geometry": {"type": "Point", "coordinates": [80.231078, 12.926788]}}, {"type": "Feature", "properties": {"source": "GCC"}, "geometry": {"type": "Point", "coordinates": [80.234262, 12.933197]}}, {"type": "Feature", "properties": {"source": "GCC"}, "geometry": {"type": "Point", "coordinates": [80.231693, 12.925807]}}, {"type": "Feature", "properties": {"source": "GCC"}, "geometry": {"type": "Point", "coordinates": [80.238555, 12.929063]}}, {"type": "Feature", "properties": {"source": "GCC"}, "geometry": {"type": "Point", "coordinates": [80.240489, 12.927402]}}, {"type": "Feature", "properties": {"source": "GCC"}, "geometry": {"type": "Point", "coordinates": [80.250349, 12.914269]}}, {"type": "Feature", "properties": {"source": "GCC"}, "geometry": {"type": "Point", "coordinates": [80.247905, 12.931268]}}, {"type": "Feature", "properties": {"source": "GCC"}, "geometry": {"type": "Point", "coordinates": [80.253754, 12.923057]}}, {"type": "Feature", "properties": {"source": "GCC"}, "geometry": {"type": "Point", "coordinates": [80.2310988, 12.9215733]}}, {"type": "Feature", "properties": {"source": "GCC"}, "geometry": {"type": "Point", "coordinates": [80.2292257, 12.9193045]}}, {"type": "Feature", "properties": {"source": "GCC"}, "geometry": {"type": "Point", "coordinates": [80.2298509, 12.9182574]}}, {"type": "Feature", "properties": {"source": "GCC"}, "geometry": {"type": "Point", "coordinates": [80.2278836, 12.900009]}}, {"type": "Feature", "properties": {"source": "GCC"}, "geometry": {"type": "Point", "coordinates": [80.2306405, 12.9066129]}}, {"type": "Feature", "properties": {"source": "GCC"}, "geometry": {"type": "Point", "coordinates": [80.2310427, 12.9155374]}}, {"type": "Feature", "properties": {"source": "GCC"}, "geometry": {"type": "Point", "coordinates": [80.2291075, 12.9108014]}}, {"type": "Feature", "properties": {"source": "GCC"}, "geometry": {"type": "Point", "coordinates": [80.2496298, 12.8752439]}}, {"type": "Feature", "properties": {"source": "GCC"}, "geometry": {"type": "Point", "coordinates": [80.2262855, 12.8729893]}}, {"type": "Feature", "properties": {"source": "GCC"}, "geometry": {"type": "Point", "coordinates": [80.2037505, 13.0033234]}}, {"type": "Feature", "properties": {"source": "GCC"}, "geometry": {"type": "Point", "coordinates": [80.207586, 13.0033651]}}, {"type": "Feature", "properties": {"source": "GCC"}, "geometry": {"type": "Point", "coordinates": [80.2029034, 13.0050252]}}, {"type": "Feature", "properties": {"source": "GCC"}, "geometry": {"type": "Point", "coordinates": [80.1970465, 12.9911343]}}, {"type": "Feature", "properties": {"source": "GCC"}, "geometry": {"type": "Point", "coordinates": [80.2030013, 12.9953711]}}, {"type": "Feature", "properties": {"source": "GCC"}, "geometry": {"type": "Point", "coordinates": [80.1999224, 12.9960133]}}, {"type": "Feature", "properties": {"source": "GCC"}, "geometry": {"type": "Point", "coordinates": [80.2012486, 12.994742]}}, {"type": "Feature", "properties": {"source": "GCC"}, "geometry": {"type": "Point", "coordinates": [80.1999678, 12.9981924]}}, {"type": "Feature", "properties": {"source": "GCC"}, "geometry": {"type": "Point", "coordinates": [80.1938006, 12.9881932]}}, {"type": "Feature", "properties": {"source": "GCC"}, "geometry": {"type": "Point", "coordinates": [80.1939968, 12.9876878]}}, {"type": "Feature", "properties": {"source": "GCC"}, "geometry": {"type": "Point", "coordinates": [80.1937481, 12.9872604]}}, {"type": "Feature", "properties": {"source": "GCC"}, "geometry": {"type": "Point", "coordinates": [80.1882264, 12.9928833]}}, {"type": "Feature", "properties": {"source": "GCC"}, "geometry": {"type": "Point", "coordinates": [80.1993574, 12.9872065]}}, {"type": "Feature", "properties": {"source": "GCC"}, "geometry": {"type": "Point", "coordinates": [80.1846674, 12.9874089]}}, {"type": "Feature", "properties": {"source": "GCC"}, "geometry": {"type": "Point", "coordinates": [80.2025285, 12.9831083]}}, {"type": "Feature", "properties": {"source": "GCC"}, "geometry": {"type": "Point", "coordinates": [80.2020994, 12.9816841]}}, {"type": "Feature", "properties": {"source": "GCC"}, "geometry": {"type": "Point", "coordinates": [80.201269, 12.982766]}}, {"type": "Feature", "properties": {"source": "GCC"}, "geometry": {"type": "Point", "coordinates": [80.20323, 12.9844394]}}, {"type": "Feature", "properties": {"source": "GCC"}, "geometry": {"type": "Point", "coordinates": [80.2034472, 12.9804586]}}, {"type": "Feature", "properties": {"source": "GCC"}, "geometry": {"type": "Point", "coordinates": [80.203851, 12.980517]}}, {"type": "Feature", "properties": {"source": "GCC"}, "geometry": {"type": "Point", "coordinates": [80.2058121, 12.9794938]}}, {"type": "Feature", "properties": {"source": "GCC"}, "geometry": {"type": "Point", "coordinates": [80.2005876, 12.9832378]}}, {"type": "Feature", "properties": {"source": "GCC"}, "geometry": {"type": "Point", "coordinates": [80.2038093, 12.9773675]}}, {"type": "Feature", "properties": {"source": "GCC"}, "geometry": {"type": "Point", "coordinates": [80.2003735, 12.9852001]}}, {"type": "Feature", "properties": {"source": "GCC"}, "geometry": {"type": "Point", "coordinates": [80.1779757, 12.9812408]}}, {"type": "Feature", "properties": {"source": "GCC"}, "geometry": {"type": "Point", "coordinates": [80.1870485, 12.9820184]}}, {"type": "Feature", "properties": {"source": "GCC"}, "geometry": {"type": "Point", "coordinates": [80.1870634, 12.9798224]}}, {"type": "Feature", "properties": {"source": "GCC"}, "geometry": {"type": "Point", "coordinates": [80.187919, 12.9800751]}}, {"type": "Feature", "properties": {"source": "GCC"}, "geometry": {"type": "Point", "coordinates": [80.1892889, 12.9800083]}}, {"type": "Feature", "properties": {"source": "GCC"}, "geometry": {"type": "Point", "coordinates": [80.1892051, 12.9795358]}}, {"type": "Feature", "properties": {"source": "GCC"}, "geometry": {"type": "Point", "coordinates": [80.2024792, 12.9818435]}}, {"type": "Feature", "properties": {"source": "GCC"}, "geometry": {"type": "Point", "coordinates": [80.1954614, 12.9841993]}}, {"type": "Feature", "properties": {"source": "GCC"}, "geometry": {"type": "Point", "coordinates": [80.2046049, 13.0150426]}}, {"type": "Feature", "properties": {"source": "GCC"}, "geometry": {"type": "Point", "coordinates": [80.206461, 13.0263553]}}, {"type": "Feature", "properties": {"source": "GCC"}, "geometry": {"type": "Point", "coordinates": [80.2048302, 13.0233318]}}, {"type": "Feature", "properties": {"source": "GCC"}, "geometry": {"type": "Point", "coordinates": [80.2112031, 13.0183353]}}, {"type": "Feature", "properties": {"source": "GCC"}, "geometry": {"type": "Point", "coordinates": [80.2404284, 13.0129833]}}, {"type": "Feature", "properties": {"source": "GCC"}, "geometry": {"type": "Point", "coordinates": [80.2306867, 13.0141958]}}, {"type": "Feature", "properties": {"source": "GCC"}, "geometry": {"type": "Point", "coordinates": [80.2301663, 13.028621]}}, {"type": "Feature", "properties": {"source": "GCC"}, "geometry": {"type": "Point", "coordinates": [80.2322853, 13.0200391]}}, {"type": "Feature", "properties": {"source": "GCC"}, "geometry": {"type": "Point", "coordinates": [80.2250004, 13.013046]}}, {"type": "Feature", "properties": {"source": "GCC"}, "geometry": {"type": "Point", "coordinates": [80.2450955, 13.0232691]}}, {"type": "Feature", "properties": {"source": "GCC"}, "geometry": {"type": "Point", "coordinates": [80.2399349, 13.0240426]}}, {"type": "Feature", "properties": {"source": "GCC"}, "geometry": {"type": "Point", "coordinates": [80.2460289, 13.0127533]}}, {"type": "Feature", "properties": {"source": "GCC"}, "geometry": {"type": "Point", "coordinates": [80.2688813, 13.0216175]}}, {"type": "Feature", "properties": {"source": "GCC"}, "geometry": {"type": "Point", "coordinates": [80.2658558, 13.0186489]}}, {"type": "Feature", "properties": {"source": "GCC"}, "geometry": {"type": "Point", "coordinates": [80.270555, 13.0189207]}}, {"type": "Feature", "properties": {"source": "GCC"}, "geometry": {"type": "Point", "coordinates": [80.2605772, 13.0218371]}}, {"type": "Feature", "properties": {"source": "GCC"}, "geometry": {"type": "Point", "coordinates": [80.2607596, 13.0230182]}}, {"type": "Feature", "properties": {"source": "GCC"}, "geometry": {"type": "Point", "coordinates": [80.2536034, 13.0203005]}}, {"type": "Feature", "properties": {"source": "GCC"}, "geometry": {"type": "Point", "coordinates": [80.2144432, 12.9944384]}}, {"type": "Feature", "properties": {"source": "GCC"}, "geometry": {"type": "Point", "coordinates": [80.2166855, 12.9932884]}}, {"type": "Feature", "properties": {"source": "GCC"}, "geometry": {"type": "Point", "coordinates": [80.212394, 13.0010348]}}, {"type": "Feature", "properties": {"source": "GCC"}, "geometry": {"type": "Point", "coordinates": [80.2133703, 13.0006585]}}, {"type": "Feature", "properties": {"source": "GCC"}, "geometry": {"type": "Point", "coordinates": [80.2107418, 12.999749]}}, {"type": "Feature", "properties": {"source": "GCC"}, "geometry": {"type": "Point", "coordinates": [80.2110529, 12.997146]}}, {"type": "Feature", "properties": {"source": "GCC"}, "geometry": {"type": "Point", "coordinates": [80.212394, 13.0046727]}}, {"type": "Feature", "properties": {"source": "GCC"}, "geometry": {"type": "Point", "coordinates": [80.207963, 12.9966128]}}, {"type": "Feature", "properties": {"source": "GCC"}, "geometry": {"type": "Point", "coordinates": [80.2181125, 12.9935185]}}]}