{
  "type": "FeatureCollection",
  "features": {
    "type": "FeatureCollection",
    "features": [
      {
        "type": "Feature",
        "properties": {
          "elevation_m": 4,
          "length_km": "1.2"
        },
        "geometry": {
          "type": "LineString",
          "coordinates": [
            [
              80.18,
              13.02
            ],
            [
              80.2,
              13.04
            ],
            [
              80.22,
              13.05
            ]
          ]
        }
      },
      {
        "type": "Feature",
        "properties": {
          "elevation_m": 5,
          "length_km": "1.8"
        },
        "geometry": {
          "type": "LineString",
          "coordinates": [
            [
              80.19500000000001,
              13.03
            ],
            [
              80.215,
              13.049999999999999
            ],
            [
              80.235,
              13.06
            ]
          ]
        }
      },
      {
        "type": "Feature",
        "properties": {
          "elevation_m": 6,
          "length_km": "2.4"
        },
        "geometry": {
          "type": "LineString",
          "coordinates": [
            [
              80.21000000000001,
              13.04
            ],
            [
              80.23,
              13.059999999999999
            ],
            [
              80.25,
              13.07
            ]
          ]
        }
      },
      {
        "type": "Feature",
        "properties": {
          "elevation_m": 7,
          "length_km": "3.0"
        },
        "geometry": {
          "type": "LineString",
          "coordinates": [
            [
              80.22500000000001,
              13.049999999999999
            ],
            [
              80.245,
              13.069999999999999
            ],
            [
              80.265,
              13.08
            ]
          ]
        }
      },
      {
        "type": "Feature",
        "properties": {
          "elevation_m": 8,
          "length_km": "3.6"
        },
        "geometry": {
          "type": "LineString",
          "coordinates": [
            [
              80.24000000000001,
              13.059999999999999
            ],
            [
              80.26,
              13.079999999999998
            ],
            [
              80.28,
              13.09
            ]
          ]
        }
      },
      {
        "type": "Feature",
        "properties": {
          "elevation_m": 9,
          "length_km": "4.2"
        },
        "geometry": {
          "type": "LineString",
          "coordinates": [
            [
              80.25500000000001,
              13.07
            ],
            [
              80.275,
              13.09
            ],
            [
              80.295,
              13.100000000000001
            ]
          ]
        }
      },
      {
        "type": "Feature",
        "properties": {
          "elevation_m": 10,
          "length_km": "4.8"
        },
        "geometry": {
          "type": "LineString",
          "coordinates": [
            [
              80.27000000000001,
              13.08
            ],
            [
              80.29,
              13.1
            ],
            [
              80.31,
              13.110000000000001
            ]
          ]
        }
      },
      {
        "type": "Feature",
        "properties": {
          "elevation_m": 11,
          "length_km": "5.4"
        },
        "geometry": {
          "type": "LineString",
          "coordinates": [
            [
              80.28500000000001,
              13.09
            ],
            [
              80.305,
              13.11
            ],
            [
              80.325,
              13.120000000000001
            ]
          ]
        }
      }
    ]
  }
}