{
  "type": "FeatureCollection",
  "features": [
    {
      "type": "Feature",
      "properties": {
        "name": "chennai_river_gauge_cooum 1"
      },
      "geometry": {
        "type": "Point",
        "coordinates": [
          80.20918848984876,
          13.100733542263677
        ]
      }
    },
    {
      "type": "Feature",
      "properties": {
        "name": "chennai_river_gauge_cooum 2"
      },
      "geometry": {
        "type": "Point",
        "coordinates": [
          80.2779639639757,
          13.073537722238243
        ]
      }
    },
    {
      "type": "Feature",
      "properties": {
        "name": "chennai_river_gauge_cooum 3"
      },
      "geometry": {
        "type": "Point",
        "coordinates": [
          80.21928780479202,
          13.114313862292185
        ]
      }
    }
  ]
}