{
  "type": "FeatureCollection",
  "name": "Chennai Soil — NBSS 1:50k",
  "features": [
    { "type": "Feature", "properties": { "soil_type": "Alluvial", "texture": "Clay loam", "depth": "Deep 100-150cm", "drainage": "Imperfect", "cn_factor": 78, "area_km2": 142, "source": "ICAR-NBSS Bhoomi 1:50k" }, "geometry": { "type": "Polygon", "coordinates": [[[80.18,13.08],[80.28,13.08],[80.28,12.96],[80.18,12.96],[80.18,13.08]]] } },
    { "type": "Feature", "properties": { "soil_type": "Red laterite", "texture": "Sandy clay loam", "depth": "Moderate 50-75cm", "drainage": "Well", "cn_factor": 68, "area_km2": 89, "source": "ICAR-NBSS Bhoomi 1:50k" }, "geometry": { "type": "Polygon", "coordinates": [[[80.10,13.18],[80.22,13.18],[80.22,13.08],[80.10,13.08],[80.10,13.18]]] } },
    { "type": "Feature", "properties": { "soil_type": "Black cotton", "texture": "Clay", "depth": "Very deep >150cm", "drainage": "Poor", "cn_factor": 86, "area_km2": 67, "source": "ICAR-NBSS Bhoomi 1:50k" }, "geometry": { "type": "Polygon", "coordinates": [[[80.20,12.92],[80.30,12.92],[80.30,12.88],[80.20,12.88],[80.20,12.92]]] } }
  ]
}
