{
  "type": "FeatureCollection",
  "features": [
    {
      "type": "Feature",
      "properties": {
        "name": "chennai_flood_all_030 1"
      },
      "geometry": {
        "type": "Point",
        "coordinates": [
          80.27874053914637,
          13.104743645062246
        ]
      }
    },
    {
      "type": "Feature",
      "properties": {
        "name": "chennai_flood_all_030 2"
      },
      "geometry": {
        "type": "Point",
        "coordinates": [
          80.26319359186756,
          13.094517403418251
        ]
      }
    },
    {
      "type": "Feature",
      "properties": {
        "name": "chennai_flood_all_030 3"
      },
      "geometry": {
        "type": "Point",
        "coordinates": [
          80.2140590121693,
          13.09823011032602
        ]
      }
    }
  ]
}