{
  "type": "FeatureCollection",
  "features": [
    {
      "type": "Feature",
      "properties": {
        "name": "chennai_flood_all_036 1"
      },
      "geometry": {
        "type": "Point",
        "coordinates": [
          80.24941286119598,
          13.097149484490616
        ]
      }
    },
    {
      "type": "Feature",
      "properties": {
        "name": "chennai_flood_all_036 2"
      },
      "geometry": {
        "type": "Point",
        "coordinates": [
          80.24342520276844,
          13.050558991595
        ]
      }
    },
    {
      "type": "Feature",
      "properties": {
        "name": "chennai_flood_all_036 3"
      },
      "geometry": {
        "type": "Point",
        "coordinates": [
          80.27562137027314,
          13.023069669884281
        ]
      }
    }
  ]
}