{
  "type": "FeatureCollection",
  "features": [
    {
      "type": "Feature",
      "properties": {
        "name": "chennai_extra_003 1"
      },
      "geometry": {
        "type": "Point",
        "coordinates": [
          80.2745471457816,
          13.09248150795661
        ]
      }
    },
    {
      "type": "Feature",
      "properties": {
        "name": "chennai_extra_003 2"
      },
      "geometry": {
        "type": "Point",
        "coordinates": [
          80.22779910808545,
          13.05660356425636
        ]
      }
    },
    {
      "type": "Feature",
      "properties": {
        "name": "chennai_extra_003 3"
      },
      "geometry": {
        "type": "Point",
        "coordinates": [
          80.22547733312643,
          13.061015415619984
        ]
      }
    }
  ]
}