{
  "type": "FeatureCollection",
  "features": [
    {
      "type": "Feature",
      "properties": {
        "name": "chennai_flood_all_033 1"
      },
      "geometry": {
        "type": "Point",
        "coordinates": [
          80.19776384948764,
          13.055872918387985
        ]
      }
    },
    {
      "type": "Feature",
      "properties": {
        "name": "chennai_flood_all_033 2"
      },
      "geometry": {
        "type": "Point",
        "coordinates": [
          80.27197476388585,
          13.08195199585487
        ]
      }
    },
    {
      "type": "Feature",
      "properties": {
        "name": "chennai_flood_all_033 3"
      },
      "geometry": {
        "type": "Point",
        "coordinates": [
          80.19646519189348,
          13.075633140630465
        ]
      }
    }
  ]
}