{
  "type": "FeatureCollection",
  "features": [
    {
      "type": "Feature",
      "properties": {
        "cyclone_id": "BOB06-2015",
        "name": "Nada",
        "year": 2016,
        "max_wind_kts": 45,
        "landfall_lat": 12.2,
        "landfall_lng": 80.8
      },
      "geometry": {
        "type": "LineString",
        "coordinates": [
          [
            85.2,
            10.1
          ],
          [
            83.5,
            11.2
          ],
          [
            81.8,
            12
          ],
          [
            80.9,
            12.8
          ]
        ]
      }
    },
    {
      "type": "Feature",
      "properties": {
        "cyclone_id": "BOB09-2023",
        "name": "Michaung",
        "year": 2023,
        "max_wind_kts": 55,
        "landfall_lat": 13.5,
        "landfall_lng": 80.2
      },
      "geometry": {
        "type": "LineString",
        "coordinates": [
          [
            88,
            11
          ],
          [
            86.2,
            12.1
          ],
          [
            84,
            13
          ],
          [
            80.2,
            13.5
          ]
        ]
      }
    }
  ]
}