{
  "type": "FeatureCollection",
  "features": [
    {
      "type": "Feature",
      "properties": {
        "name": "chennai_flood_all_021 1"
      },
      "geometry": {
        "type": "Point",
        "coordinates": [
          80.25572982218351,
          13.045519935191985
        ]
      }
    },
    {
      "type": "Feature",
      "properties": {
        "name": "chennai_flood_all_021 2"
      },
      "geometry": {
        "type": "Point",
        "coordinates": [
          80.22111393035918,
          13.077314069396525
        ]
      }
    },
    {
      "type": "Feature",
      "properties": {
        "name": "chennai_flood_all_021 3"
      },
      "geometry": {
        "type": "Point",
        "coordinates": [
          80.24603924181378,
          13.058435238583836
        ]
      }
    }
  ]
}