{
  "type": "FeatureCollection",
  "features": [
    {
      "type": "Feature",
      "properties": {
        "name": "chennai_markets 1"
      },
      "geometry": {
        "type": "Point",
        "coordinates": [
          80.22668940206927,
          13.094851160414859
        ]
      }
    },
    {
      "type": "Feature",
      "properties": {
        "name": "chennai_markets 2"
      },
      "geometry": {
        "type": "Point",
        "coordinates": [
          80.23096935440674,
          13.046891143045363
        ]
      }
    },
    {
      "type": "Feature",
      "properties": {
        "name": "chennai_markets 3"
      },
      "geometry": {
        "type": "Point",
        "coordinates": [
          80.28385380579385,
          13.079760334176772
        ]
      }
    },
    {
      "type": "Feature",
      "properties": {
        "name": "chennai_markets 4"
      },
      "geometry": {
        "type": "Point",
        "coordinates": [
          80.2845463490995,
          13.05162043364857
        ]
      }
    }
  ]
}