{
  "type": "FeatureCollection",
  "features": [
    {
      "type": "Feature",
      "properties": {
        "name": "chennai_school_flood_exposure 1"
      },
      "geometry": {
        "type": "Point",
        "coordinates": [
          80.20325565685042,
          13.081519070682393
        ]
      }
    },
    {
      "type": "Feature",
      "properties": {
        "name": "chennai_school_flood_exposure 2"
      },
      "geometry": {
        "type": "Point",
        "coordinates": [
          80.23548499327562,
          13.069234337686797
        ]
      }
    },
    {
      "type": "Feature",
      "properties": {
        "name": "chennai_school_flood_exposure 3"
      },
      "geometry": {
        "type": "Point",
        "coordinates": [
          80.28613876326007,
          13.07641473645755
        ]
      }
    }
  ]
}