{
  "type": "FeatureCollection",
  "features": [
    {
      "type": "Feature",
      "properties": {
        "name": "chennai_extra_009 1"
      },
      "geometry": {
        "type": "Point",
        "coordinates": [
          80.28060365397997,
          13.050189371401148
        ]
      }
    },
    {
      "type": "Feature",
      "properties": {
        "name": "chennai_extra_009 2"
      },
      "geometry": {
        "type": "Point",
        "coordinates": [
          80.248211591828,
          13.04792298343094
        ]
      }
    },
    {
      "type": "Feature",
      "properties": {
        "name": "chennai_extra_009 3"
      },
      "geometry": {
        "type": "Point",
        "coordinates": [
          80.2698171415071,
          13.108432340756876
        ]
      }
    }
  ]
}