{"type":"FeatureCollection","crs":{"type":"name","properties":{"name":"urn:ogc:def:crs:OGC:1.3:CRS84"}},"features":[{"type":"Feature","properties":{"name":"Engangipuram"},"geometry":{"type":"Point","coordinates":[80.24377,13.10437]}},{"type":"Feature","properties":{"name":"Basin Bridge Road"},"geometry":{"type":"Point","coordinates":[80.26989,13.100211]}},{"type":"Feature","properties":{"name":"Doss Nagar Pallam"},"geometry":{"type":"Point","coordinates":[80.264268,13.108362]}},{"type":"Feature","properties":{"name":"Ambedkar Nagar"},"geometry":{"type":"Point","coordinates":[80.263249,13.103607]}},{"type":"Feature","properties":{"name":"Decastor Road"},"geometry":{"type":"Point","coordinates":[80.264643,13.102103]}},{"type":"Feature","properties":{"name":"Nehru Nagar"},"geometry":{"type":"Point","coordinates":[80.264429,13.104684]}},{"type":"Feature","properties":{"name":"Kannikapuram Main Road"},"geometry":{"type":"Point","coordinates":[80.262294,13.108989]}},{"type":"Feature","properties":{"name":"Narasima Nagar"},"geometry":{"type":"Point","coordinates":[80.26577,13.104872]}},{"type":"Feature","properties":{"name":"Mannar Swamy Street"},"geometry":{"type":"Point","coordinates":[80.261543,13.100943]}},{"type":"Feature","properties":{"name":"Thiru Venkadam Street"},"geometry":{"type":"Point","coordinates":[80.261071,13.10158]}},{"type":"Feature","properties":{"name":"Ramaswamy Street"},"geometry":{"type":"Point","coordinates":[80.261993,13.101319]}},{"type":"Feature","properties":{"name":"Narayanaswamy Street"},"geometry":{"type":"Point","coordinates":[80.262466,13.101423]}},{"type":"Feature","properties":{"name":"Ammiyanmal Street"},"geometry":{"type":"Point","coordinates":[80.263152,13.100598]}},{"type":"Feature","properties":{"name":"Lalsingh Street"},"geometry":{"type":"Point","coordinates":[80.264708,13.099913]}},{"type":"Feature","properties":{"name":"Natchiarammal Lane"},"geometry":{"type":"Point","coordinates":[80.2629,13.101246]}},{"type":"Feature","properties":{"name":"M.T.Road"},"geometry":{"type":"Point","coordinates":[80.241416,13.095028]}},{"type":"Feature","properties":{"name":"Subbrayan 5th Street"},"geometry":{"type":"Point","coordinates":[80.245214,13.096246]}},{"type":"Feature","properties":{"name":"Secretariate Colony 6th St"},"geometry":{"type":"Point","coordinates":[80.244001,13.092144]}},{"type":"Feature","properties":{"name":"Kannapa Street"},"geometry":{"type":"Point","coordinates":[80.253174,13.097212]}},{"type":"Feature","properties":{"name":"Edward Park"},"geometry":{"type":"Point","coordinates":[80.253839,13.096063]}},{"type":"Feature","properties":{"name":"Chellppa Street"},"geometry":{"type":"Point","coordinates":[80.252563,13.0967]}},{"type":"Feature","properties":{"name":"Perambur Barackks Road"},"geometry":{"type":"Point","coordinates":[80.259161,13.096825]}},{"type":"Feature","properties":{"name":"Dr.Ambedkar Collage Road"},"geometry":{"type":"Point","coordinates":[80.260094,13.101037]}},{"type":"Feature","properties":{"name":"Strahans Road"},"geometry":{"type":"Point","coordinates":[80.260824,13.097076]}},{"type":"Feature","properties":{"name":"Barracks Gate Road"},"geometry":{"type":"Point","coordinates":[80.260159,13.098289]}},{"type":"Feature","properties":{"name":"Demellous Road"},"geometry":{"type":"Point","coordinates":[80.263088,13.096867]}},{"type":"Feature","properties":{"name":"Elephant Gate Bridge Road"},"geometry":{"type":"Point","coordinates":[80.271681,13.092666]}},{"type":"Feature","properties":{"name":"Choolai High Road"},"geometry":{"type":"Point","coordinates":[80.267315,13.090535]}},{"type":"Feature","properties":{"name":"Astabujam Road"},"geometry":{"type":"Point","coordinates":[80.261242,13.093481]}},{"type":"Feature","properties":{"name":"Sydnams Road"},"geometry":{"type":"Point","coordinates":[80.269976,13.08997]}},{"type":"Feature","properties":{"name":"Arundhathi Nagar"},"geometry":{"type":"Point","coordinates":[80.25135,13.107191]}},{"type":"Feature","properties":{"name":"Raja Mangalam Street"},"geometry":{"type":"Point","coordinates":[80.204766,13.113377]}},{"type":"Feature","properties":{"name":"NAS Garden"},"geometry":{"type":"Point","coordinates":[80.189752,13.117143]}},{"type":"Feature","properties":{"name":"TNEB 30th Street"},"geometry":{"type":"Point","coordinates":[80.185044,13.109624]}},{"type":"Feature","properties":{"name":"TNEB 31th Street"},"geometry":{"type":"Point","coordinates":[80.183569,13.109307]}},{"type":"Feature","properties":{"name":"TNEB 32nd Street"},"geometry":{"type":"Point","coordinates":[80.182459,13.109293]}},{"type":"Feature","properties":{"name":"TNEB 35th Street"},"geometry":{"type":"Point","coordinates":[80.181483,13.108988]}},{"type":"Feature","properties":{"name":"TNEB 36th Street"},"geometry":{"type":"Point","coordinates":[80.180956,13.109391]}},{"type":"Feature","properties":{"name":"TNEB 37th Street"},"geometry":{"type":"Point","coordinates":[80.181635,13.109694]}},{"type":"Feature","properties":{"name":"TNEB 33rd Street"},"geometry":{"type":"Point","coordinates":[80.180348,13.10953]}},{"type":"Feature","properties":{"name":"TNEB 34th Street"},"geometry":{"type":"Point","coordinates":[80.182022,13.10927]}},{"type":"Feature","properties":{"name":"agragaram korattur"},"geometry":{"type":"Point","coordinates":[80.192475,13.118335]}},{"type":"Feature","properties":{"name":"Central Avenue"},"geometry":{"type":"Point","coordinates":[80.1834,13.107695]}},{"type":"Feature","properties":{"name":"Thendral Nagar"},"geometry":{"type":"Point","coordinates":[80.257874,13.141254]}},{"type":"Feature","properties":{"name":"Muthamil Nagar 8th Block"},"geometry":{"type":"Point","coordinates":[80.251715,13.132791]}},{"type":"Feature","properties":{"name":"West Avenue"},"geometry":{"type":"Point","coordinates":[80.25929,13.123032]}},{"type":"Feature","properties":{"name":"Eithiraj Salai"},"geometry":{"type":"Point","coordinates":[80.249076,13.125749]}},{"type":"Feature","properties":{"name":"EH Road"},"geometry":{"type":"Point","coordinates":[80.251898,13.121778]}},{"type":"Feature","properties":{"name":"Sharma Nagar"},"geometry":{"type":"Point","coordinates":[80.255342,13.123199]}},{"type":"Feature","properties":{"name":"Abirami Avenue 14th Street"},"geometry":{"type":"Point","coordinates":[80.25959,13.134233]}},{"type":"Feature","properties":{"name":"Abirami Avenue 16th Street"},"geometry":{"type":"Point","coordinates":[80.259934,13.134672]}},{"type":"Feature","properties":{"name":"Abirami Avenue \u00a015th \u00a0Street"},"geometry":{"type":"Point","coordinates":[80.259161,13.134588]}},{"type":"Feature","properties":{"name":"MGR Nagar"},"geometry":{"type":"Point","coordinates":[80.266671,13.123534]}},{"type":"Feature","properties":{"name":"Debar Nagar"},"geometry":{"type":"Point","coordinates":[80.266843,13.122739]}},{"type":"Feature","properties":{"name":"Damodhar Nagar"},"geometry":{"type":"Point","coordinates":[80.267422,13.125184]}},{"type":"Feature","properties":{"name":"RR Nagar"},"geometry":{"type":"Point","coordinates":[80.268195,13.128298]}},{"type":"Feature","properties":{"name":"Kannadasan Nagar"},"geometry":{"type":"Point","coordinates":[80.256586,13.133564]}},{"type":"Feature","properties":{"name":"Nehru Nagar 13th Street"},"geometry":{"type":"Point","coordinates":[80.27461,13.127107]}},{"type":"Feature","properties":{"name":"Nehru Nagar Main Road"},"geometry":{"type":"Point","coordinates":[80.277293,13.126647]}},{"type":"Feature","properties":{"name":"Ellaya Mudali Street"},"geometry":{"type":"Point","coordinates":[80.284567,13.126146]}},{"type":"Feature","properties":{"name":"Indira Nagar"},"geometry":{"type":"Point","coordinates":[80.279138,13.135319]}},{"type":"Feature","properties":{"name":"Thiruvalluvar Nagar Huts"},"geometry":{"type":"Point","coordinates":[80.288558,13.1344]}},{"type":"Feature","properties":{"name":"Celliamman Koil Street"},"geometry":{"type":"Point","coordinates":[80.289931,13.133648]}},{"type":"Feature","properties":{"name":"VOC Nagar"},"geometry":{"type":"Point","coordinates":[80.287786,13.133439]}},{"type":"Feature","properties":{"name":"Kamaraj Salai Jn of Ellaya Mudali Street"},"geometry":{"type":"Point","coordinates":[80.290103,13.13649]}},{"type":"Feature","properties":{"name":"Kumaran Nagar"},"geometry":{"type":"Point","coordinates":[80.279331,13.126626]}},{"type":"Feature","properties":{"name":"Carnesh Nagar"},"geometry":{"type":"Point","coordinates":[80.278773,13.125582]}},{"type":"Feature","properties":{"name":"MGR Nagar Canal Road"},"geometry":{"type":"Point","coordinates":[80.273838,13.130722]}},{"type":"Feature","properties":{"name":"Seniamman Koil Tenaments"},"geometry":{"type":"Point","coordinates":[80.278473,13.12462]}},{"type":"Feature","properties":{"name":"Singaravelan Nagar ( Palla Pagudhi )"},"geometry":{"type":"Point","coordinates":[80.295596,13.123283]}},{"type":"Feature","properties":{"name":"New Amaranjipuram"},"geometry":{"type":"Point","coordinates":[80.292721,13.123387]}},{"type":"Feature","properties":{"name":"Manicka Vinayagar Koil Street"},"geometry":{"type":"Point","coordinates":[80.248153,13.117264]}},{"type":"Feature","properties":{"name":"Manimegai Street"},"geometry":{"type":"Point","coordinates":[80.24869,13.120608]}},{"type":"Feature","properties":{"name":"Stephens Road"},"geometry":{"type":"Point","coordinates":[80.257144,13.111998]}},{"type":"Feature","properties":{"name":"Stephens Main Road"},"geometry":{"type":"Point","coordinates":[80.258024,13.109699]}},{"type":"Feature","properties":{"name":"Ganesapuram Main Road"},"geometry":{"type":"Point","coordinates":[80.260899,13.109908]}},{"type":"Feature","properties":{"name":"Sundram Power Lane"},"geometry":{"type":"Point","coordinates":[80.263388,13.111267]}},{"type":"Feature","properties":{"name":"Desigananda Puram"},"geometry":{"type":"Point","coordinates":[80.260684,13.112123]}},{"type":"Feature","properties":{"name":"B.V Colony 19 Street"},"geometry":{"type":"Point","coordinates":[80.258786,13.114694]}},{"type":"Feature","properties":{"name":"B.V Colony \u00a020th Street"},"geometry":{"type":"Point","coordinates":[80.258737,13.115352]}},{"type":"Feature","properties":{"name":"Annai Sathya Nagar"},"geometry":{"type":"Point","coordinates":[80.259654,13.115608]}},{"type":"Feature","properties":{"name":"Masuthi Street"},"geometry":{"type":"Point","coordinates":[80.266285,13.119459]}},{"type":"Feature","properties":{"name":"Meenambal Nagar"},"geometry":{"type":"Point","coordinates":[80.274653,13.116219]}},{"type":"Feature","properties":{"name":"KH Road"},"geometry":{"type":"Point","coordinates":[80.276456,13.118748]}},{"type":"Feature","properties":{"name":"Moorthingar Street (Erikarai)"},"geometry":{"type":"Point","coordinates":[80.261736,13.115676]}},{"type":"Feature","properties":{"name":"East Avenue"},"geometry":{"type":"Point","coordinates":[80.186284,13.103711]}},{"type":"Feature","properties":{"name":"TNEB 2nd Street"},"geometry":{"type":"Point","coordinates":[80.185585,13.103774]}},{"type":"Feature","properties":{"name":"TNEB 11th Street"},"geometry":{"type":"Point","coordinates":[80.185511,13.105865]}},{"type":"Feature","properties":{"name":"TNEB 17th Street"},"geometry":{"type":"Point","coordinates":[80.183268,13.106438]}},{"type":"Feature","properties":{"name":"TNEB 18th Street"},"geometry":{"type":"Point","coordinates":[80.182331,13.107704]}},{"type":"Feature","properties":{"name":"Shanthi Nagar"},"geometry":{"type":"Point","coordinates":[80.185715,13.10106]}},{"type":"Feature","properties":{"name":"Bajanai Koil Street"},"geometry":{"type":"Point","coordinates":[80.170413,13.10582]}},{"type":"Feature","properties":{"name":"Anna Nagar"},"geometry":{"type":"Point","coordinates":[80.298452,13.165205]}},{"type":"Feature","properties":{"name":"Annamalai Nagar"},"geometry":{"type":"Point","coordinates":[80.298665,13.170495]}},{"type":"Feature","properties":{"name":"Charles Nagar"},"geometry":{"type":"Point","coordinates":[80.295193,13.171062]}},{"type":"Feature","properties":{"name":"Rajaji Nagar"},"geometry":{"type":"Point","coordinates":[80.291363,13.17199]}},{"type":"Feature","properties":{"name":"DR.Ambedkar Nagar"},"geometry":{"type":"Point","coordinates":[80.301936,13.173871]}},{"type":"Feature","properties":{"name":"Vetri Vinayagar Nagar"},"geometry":{"type":"Point","coordinates":[80.290768,13.163506]}},{"type":"Feature","properties":{"name":"Sivasakthi Nagar"},"geometry":{"type":"Point","coordinates":[80.300026,13.169985]}},{"type":"Feature","properties":{"name":"Nandiodai Kuppam"},"geometry":{"type":"Point","coordinates":[80.298724,13.160194]}},{"type":"Feature","properties":{"name":"Sathyavanimuthu Nagar"},"geometry":{"type":"Point","coordinates":[80.324509,13.224343]}},{"type":"Feature","properties":{"name":"Ulaganathapuram"},"geometry":{"type":"Point","coordinates":[80.324751,13.22542]}},{"type":"Feature","properties":{"name":"Periyakuppam"},"geometry":{"type":"Point","coordinates":[80.32347,13.211646]}},{"type":"Feature","properties":{"name":"KVK Kuppam"},"geometry":{"type":"Point","coordinates":[80.312552,13.189592]}},{"type":"Feature","properties":{"name":"Annai Sivagami Nagar"},"geometry":{"type":"Point","coordinates":[80.317739,13.197836]}},{"type":"Feature","properties":{"name":"Mettu Street"},"geometry":{"type":"Point","coordinates":[80.307265,13.191289]}},{"type":"Feature","properties":{"name":"Brindavan Nagar Extension"},"geometry":{"type":"Point","coordinates":[80.305639,13.18806]}},{"type":"Feature","properties":{"name":"TKP Nagar"},"geometry":{"type":"Point","coordinates":[80.295672,13.179024]}},{"type":"Feature","properties":{"name":"VP Nagar"},"geometry":{"type":"Point","coordinates":[80.29629,13.17956]}},{"type":"Feature","properties":{"name":"Jothi Nagar 2nd Str"},"geometry":{"type":"Point","coordinates":[80.29937,13.179782]}},{"type":"Feature","properties":{"name":"Sadyankuppam Pattai"},"geometry":{"type":"Point","coordinates":[80.297522,13.180765]}},{"type":"Feature","properties":{"name":"Palahai Thotti Kuppam"},"geometry":{"type":"Point","coordinates":[80.312169,13.175622]}},{"type":"Feature","properties":{"name":"Sakthipuram"},"geometry":{"type":"Point","coordinates":[80.311202,13.17876]}},{"type":"Feature","properties":{"name":"Chinaernavur"},"geometry":{"type":"Point","coordinates":[80.30686,13.180185]}},{"type":"Feature","properties":{"name":"Wimco Nagar Ajax"},"geometry":{"type":"Point","coordinates":[80.305585,13.172978]}},{"type":"Feature","properties":{"name":"Kalaignar Nagar"},"geometry":{"type":"Point","coordinates":[80.30719,13.181177]}},{"type":"Feature","properties":{"name":"Raja Shanmugam Nagar"},"geometry":{"type":"Point","coordinates":[80.300195,13.172369]}},{"type":"Feature","properties":{"name":"Sathyamurthy Nagar"},"geometry":{"type":"Point","coordinates":[80.293318,13.176602]}},{"type":"Feature","properties":{"name":"Karkil Nagar"},"geometry":{"type":"Point","coordinates":[80.292813,13.171757]}},{"type":"Feature","properties":{"name":"Srinivasa Perumal Koil First Cross Street"},"geometry":{"type":"Point","coordinates":[80.30171,13.166316]}},{"type":"Feature","properties":{"name":"Thiruvottiyur Kuppam"},"geometry":{"type":"Point","coordinates":[80.307045,13.161937]}},{"type":"Feature","properties":{"name":"KiliJosiam Nagar"},"geometry":{"type":"Point","coordinates":[80.307007,13.161616]}},{"type":"Feature","properties":{"name":"Thilagar Nagar"},"geometry":{"type":"Point","coordinates":[80.2945,13.151079]}},{"type":"Feature","properties":{"name":"Balakrishna Colony"},"geometry":{"type":"Point","coordinates":[80.295203,13.153956]}},{"type":"Feature","properties":{"name":"Othai vadai Street"},"geometry":{"type":"Point","coordinates":[80.291179,13.144404]}},{"type":"Feature","properties":{"name":"Gandhi Nagar"},"geometry":{"type":"Point","coordinates":[80.291385,13.145869]}},{"type":"Feature","properties":{"name":"West Mada Str"},"geometry":{"type":"Point","coordinates":[80.2984,13.161085]}},{"type":"Feature","properties":{"name":"Sadayan Kuppam"},"geometry":{"type":"Point","coordinates":[80.277436,13.186982]}},{"type":"Feature","properties":{"name":"Old Napalyam Salai"},"geometry":{"type":"Point","coordinates":[80.277939,13.225626]}},{"type":"Feature","properties":{"name":"Lakshmi Nagar"},"geometry":{"type":"Point","coordinates":[80.274896,13.224493]}},{"type":"Feature","properties":{"name":"Manali New Town 58 th Block"},"geometry":{"type":"Point","coordinates":[80.274606,13.206018]}},{"type":"Feature","properties":{"name":"Kanniamman Pettai"},"geometry":{"type":"Point","coordinates":[80.255135,13.194465]}},{"type":"Feature","properties":{"name":"Chetty Medu"},"geometry":{"type":"Point","coordinates":[80.228932,13.183276]}},{"type":"Feature","properties":{"name":"Thiyagi Viswanatha Dass Nagar"},"geometry":{"type":"Point","coordinates":[80.234987,13.184206]}},{"type":"Feature","properties":{"name":"Thirupathi Devasthanam Nagar"},"geometry":{"type":"Point","coordinates":[80.211169,13.174733]}},{"type":"Feature","properties":{"name":"Periyar Nagar"},"geometry":{"type":"Point","coordinates":[80.23778,13.192631]}},{"type":"Feature","properties":{"name":"Neduncheliyan Street Extension"},"geometry":{"type":"Point","coordinates":[80.257114,13.174364]}},{"type":"Feature","properties":{"name":"Dr.Zhakirhussian Street"},"geometry":{"type":"Point","coordinates":[80.263606,13.166252]}},{"type":"Feature","properties":{"name":"Ekambaram Street"},"geometry":{"type":"Point","coordinates":[80.261174,13.172787]}},{"type":"Feature","properties":{"name":"Harikrishnapuram"},"geometry":{"type":"Point","coordinates":[80.261973,13.172145]}},{"type":"Feature","properties":{"name":"Bharathiyar Street"},"geometry":{"type":"Point","coordinates":[80.259481,13.17065]}},{"type":"Feature","properties":{"name":"Ponniamman Koil Street"},"geometry":{"type":"Point","coordinates":[80.243,13.169531]}},{"type":"Feature","properties":{"name":"Balaraman Street"},"geometry":{"type":"Point","coordinates":[80.253873,13.169027]}},{"type":"Feature","properties":{"name":"Chinna Mattur Road"},"geometry":{"type":"Point","coordinates":[80.256084,13.171105]}},{"type":"Feature","properties":{"name":"J J Nagar"},"geometry":{"type":"Point","coordinates":[80.253534,13.169916]}},{"type":"Feature","properties":{"name":"M.G.R. Nagar"},"geometry":{"type":"Point","coordinates":[80.255127,13.172223]}},{"type":"Feature","properties":{"name":"Poongavanam Street"},"geometry":{"type":"Point","coordinates":[80.2627,13.164963]}},{"type":"Feature","properties":{"name":"Thiru vi Ka Street"},"geometry":{"type":"Point","coordinates":[80.261937,13.163462]}},{"type":"Feature","properties":{"name":"Jalagandamariamman Kovil Street"},"geometry":{"type":"Point","coordinates":[80.26302,13.164114]}},{"type":"Feature","properties":{"name":"Police Quarters"},"geometry":{"type":"Point","coordinates":[80.264379,13.163958]}},{"type":"Feature","properties":{"name":"Kamaraj Salai"},"geometry":{"type":"Point","coordinates":[80.257551,13.163673]}},{"type":"Feature","properties":{"name":"Iyyan Thiruvalluvar Salai"},"geometry":{"type":"Point","coordinates":[80.201509,13.137541]}},{"type":"Feature","properties":{"name":"Collector Nagar"},"geometry":{"type":"Point","coordinates":[80.202262,13.149587]}},{"type":"Feature","properties":{"name":"Kanappasamy Nagar"},"geometry":{"type":"Point","coordinates":[80.197978,13.170176]}},{"type":"Feature","properties":{"name":"Mahalakshmi Nagar"},"geometry":{"type":"Point","coordinates":[80.20536,13.16666]}},{"type":"Feature","properties":{"name":"Punitha Anthoniyar Street"},"geometry":{"type":"Point","coordinates":[80.205867,13.161221]}},{"type":"Feature","properties":{"name":"Othai vadai Street"},"geometry":{"type":"Point","coordinates":[80.208799,13.162033]}},{"type":"Feature","properties":{"name":"Surapet sivaprakasam Nagar"},"geometry":{"type":"Point","coordinates":[80.185421,13.140838]}},{"type":"Feature","properties":{"name":"Ambattur Redhills Road"},"geometry":{"type":"Point","coordinates":[80.183796,13.141783]}},{"type":"Feature","properties":{"name":"Aringar Anna Nagar"},"geometry":{"type":"Point","coordinates":[80.21299,13.157101]}},{"type":"Feature","properties":{"name":"GNT Road"},"geometry":{"type":"Point","coordinates":[80.20911,13.152712]}},{"type":"Feature","properties":{"name":"Devaki Nagar"},"geometry":{"type":"Point","coordinates":[80.219218,13.13255]}},{"type":"Feature","properties":{"name":"Truck Terminal, GNT Road"},"geometry":{"type":"Point","coordinates":[80.216448,13.147233]}},{"type":"Feature","properties":{"name":"Perumal Koil St, Balji Palayam"},"geometry":{"type":"Point","coordinates":[80.258552,13.154402]}},{"type":"Feature","properties":{"name":"Sarathi Nagar"},"geometry":{"type":"Point","coordinates":[80.203206,13.134059]}},{"type":"Feature","properties":{"name":"Prakah Nagar"},"geometry":{"type":"Point","coordinates":[80.226192,13.134242]}},{"type":"Feature","properties":{"name":"Munusamy Nagar"},"geometry":{"type":"Point","coordinates":[80.221685,13.136554]}},{"type":"Feature","properties":{"name":"Annapoorna Nagar"},"geometry":{"type":"Point","coordinates":[80.224405,13.137588]}},{"type":"Feature","properties":{"name":"Dr.Ambedkar Nagar"},"geometry":{"type":"Point","coordinates":[80.234699,13.129704]}},{"type":"Feature","properties":{"name":"Ishwariya Nagar"},"geometry":{"type":"Point","coordinates":[80.2565,13.14606]}},{"type":"Feature","properties":{"name":"Annai Avenue"},"geometry":{"type":"Point","coordinates":[80.256114,13.144012]}},{"type":"Feature","properties":{"name":"Durgai Avenue"},"geometry":{"type":"Point","coordinates":[80.254483,13.14466]}},{"type":"Feature","properties":{"name":"Gandhi - Irwin Road"},"geometry":{"type":"Point","coordinates":[80.259886,13.076293]}},{"type":"Feature","properties":{"name":"Singana Chetty St"},"geometry":{"type":"Point","coordinates":[80.270467,13.071143]}},{"type":"Feature","properties":{"name":"ArunaChala Road"},"geometry":{"type":"Point","coordinates":[80.270251,13.075223]}},{"type":"Feature","properties":{"name":"G.P Road"},"geometry":{"type":"Point","coordinates":[80.266843,13.062479]}},{"type":"Feature","properties":{"name":"South Coovam Road"},"geometry":{"type":"Point","coordinates":[80.265007,13.067308]}},{"type":"Feature","properties":{"name":"Avadhana papaiah road"},"geometry":{"type":"Point","coordinates":[80.263308,13.090253]}},{"type":"Feature","properties":{"name":"Vivek Nagar"},"geometry":{"type":"Point","coordinates":[80.217576,13.127013]}},{"type":"Feature","properties":{"name":"Poombugaar Nagar 11th Street"},"geometry":{"type":"Point","coordinates":[80.213735,13.121475]}},{"type":"Feature","properties":{"name":"Poombugaar Nagar 20th Street"},"geometry":{"type":"Point","coordinates":[80.215355,13.121318]}},{"type":"Feature","properties":{"name":"Poombugaar Nagar 21st Street"},"geometry":{"type":"Point","coordinates":[80.215559,13.120859]}},{"type":"Feature","properties":{"name":"Poombugaar Nagar 28th Street"},"geometry":{"type":"Point","coordinates":[80.217286,13.120932]}},{"type":"Feature","properties":{"name":"Kaveri Nagar"},"geometry":{"type":"Point","coordinates":[80.216246,13.122917]}},{"type":"Feature","properties":{"name":"Then Palani Nagar"},"geometry":{"type":"Point","coordinates":[80.207748,13.123575]}},{"type":"Feature","properties":{"name":"Siva Sakthi 4th Street"},"geometry":{"type":"Point","coordinates":[80.21071,13.125221]}},{"type":"Feature","properties":{"name":"Vivekanadan Nagar Main Road"},"geometry":{"type":"Point","coordinates":[80.199509,13.122781]}},{"type":"Feature","properties":{"name":"Thirumalai Nagar"},"geometry":{"type":"Point","coordinates":[80.203296,13.124965]}},{"type":"Feature","properties":{"name":"Bharath Rajeev Ganthi Nagar"},"geometry":{"type":"Point","coordinates":[80.202899,13.127149]}},{"type":"Feature","properties":{"name":"Senthi Nagar 14 Street"},"geometry":{"type":"Point","coordinates":[80.202352,13.122666]}},{"type":"Feature","properties":{"name":"Senthi Nagar 13th Street"},"geometry":{"type":"Point","coordinates":[80.202438,13.122207]}},{"type":"Feature","properties":{"name":"Senthi Nagar 15th Street"},"geometry":{"type":"Point","coordinates":[80.202759,13.123157]}},{"type":"Feature","properties":{"name":"Ussain Colony"},"geometry":{"type":"Point","coordinates":[80.201971,13.125012]}},{"type":"Feature","properties":{"name":"Venus Nagar"},"geometry":{"type":"Point","coordinates":[80.204653,13.127562]}},{"type":"Feature","properties":{"name":"Selvi Nagar 3rd Street"},"geometry":{"type":"Point","coordinates":[80.205737,13.12369]}},{"type":"Feature","properties":{"name":"Teacher Street"},"geometry":{"type":"Point","coordinates":[80.208736,13.116481]}},{"type":"Feature","properties":{"name":"Kavery Street"},"geometry":{"type":"Point","coordinates":[80.211225,13.112813]}},{"type":"Feature","properties":{"name":"Sivalingam Salai"},"geometry":{"type":"Point","coordinates":[80.228756,13.122447]}},{"type":"Feature","properties":{"name":"Ragavan Salai"},"geometry":{"type":"Point","coordinates":[80.230579,13.125017]}},{"type":"Feature","properties":{"name":"Periyar Nagar 18th Street"},"geometry":{"type":"Point","coordinates":[80.221481,13.114234]}},{"type":"Feature","properties":{"name":"SRP. Koil Street"},"geometry":{"type":"Point","coordinates":[80.224979,13.117536]}},{"type":"Feature","properties":{"name":"GKM Colony"},"geometry":{"type":"Point","coordinates":[80.225,13.110723]}},{"type":"Feature","properties":{"name":"Pallavan Salai"},"geometry":{"type":"Point","coordinates":[80.233369,13.120901]}},{"type":"Feature","properties":{"name":"M.H.Road"},"geometry":{"type":"Point","coordinates":[80.24251,13.122614]}},{"type":"Feature","properties":{"name":"Bunder Garden Street"},"geometry":{"type":"Point","coordinates":[80.241995,13.111204]}},{"type":"Feature","properties":{"name":"Ragavan Street"},"geometry":{"type":"Point","coordinates":[80.240139,13.113231]}},{"type":"Feature","properties":{"name":"Jawahar Road"},"geometry":{"type":"Point","coordinates":[80.24501,13.119814]}},{"type":"Feature","properties":{"name":"Anderson Road"},"geometry":{"type":"Point","coordinates":[80.242703,13.099229]}},{"type":"Feature","properties":{"name":"Shanthi Nagar"},"geometry":{"type":"Point","coordinates":[80.241351,13.119062]}},{"type":"Feature","properties":{"name":"Aynavaram Ganambal Garden"},"geometry":{"type":"Point","coordinates":[80.235584,13.099255]}},{"type":"Feature","properties":{"name":"K.H.Road"},"geometry":{"type":"Point","coordinates":[80.245771,13.097034]}},{"type":"Feature","properties":{"name":"C.Y.S Road"},"geometry":{"type":"Point","coordinates":[80.245707,13.104767]}},{"type":"Feature","properties":{"name":"Jothi Nagar"},"geometry":{"type":"Point","coordinates":[80.245825,13.103283]}},{"type":"Feature","properties":{"name":"Raju Ganthi Nagar"},"geometry":{"type":"Point","coordinates":[80.243368,13.106105]}},{"type":"Feature","properties":{"name":"Semethamman Koil Street"},"geometry":{"type":"Point","coordinates":[80.244237,13.106053]}},{"type":"Feature","properties":{"name":"Thiru.Vi.ka Salai"},"geometry":{"type":"Point","coordinates":[80.267958,13.042618]}},{"type":"Feature","properties":{"name":"Marina Service Road"},"geometry":{"type":"Point","coordinates":[80.280432,13.044733]}},{"type":"Feature","properties":{"name":"Chamiers Road"},"geometry":{"type":"Point","coordinates":[80.248025,13.029136]}},{"type":"Feature","properties":{"name":"Seethamal colony 2nd main road"},"geometry":{"type":"Point","coordinates":[80.247913,13.034563]}},{"type":"Feature","properties":{"name":"K.B. Dasan Road"},"geometry":{"type":"Point","coordinates":[80.250273,13.035329]}},{"type":"Feature","properties":{"name":"Trunbulls Road"},"geometry":{"type":"Point","coordinates":[80.244969,13.027477]}},{"type":"Feature","properties":{"name":"Ranga street"},"geometry":{"type":"Point","coordinates":[80.244675,13.034786]}},{"type":"Feature","properties":{"name":"Seethamal colony 1st main road"},"geometry":{"type":"Point","coordinates":[80.253543,13.035549]}},{"type":"Feature","properties":{"name":"Eldams Road"},"geometry":{"type":"Point","coordinates":[80.25212,13.038681]}},{"type":"Feature","properties":{"name":"Seethammal Road"},"geometry":{"type":"Point","coordinates":[80.253942,13.036713]}},{"type":"Feature","properties":{"name":"Kutcheri Road"},"geometry":{"type":"Point","coordinates":[80.269213,13.03605]}},{"type":"Feature","properties":{"name":"Sundharam Salai"},"geometry":{"type":"Point","coordinates":[80.25122,13.02206]}},{"type":"Feature","properties":{"name":"V.C.Garden Street"},"geometry":{"type":"Point","coordinates":[80.263945,13.030504]}},{"type":"Feature","properties":{"name":"Thiyagaraya Puram"},"geometry":{"type":"Point","coordinates":[80.273444,13.038295]}},{"type":"Feature","properties":{"name":"R.K.Mutt Road"},"geometry":{"type":"Point","coordinates":[80.267721,13.032998]}},{"type":"Feature","properties":{"name":"Papanasam Sivan Road"},"geometry":{"type":"Point","coordinates":[80.275536,13.035805]}},{"type":"Feature","properties":{"name":"Santhome High Road"},"geometry":{"type":"Point","coordinates":[80.276753,13.029933]}},{"type":"Feature","properties":{"name":"R.K.Salai"},"geometry":{"type":"Point","coordinates":[80.277342,13.043325]}},{"type":"Feature","properties":{"name":"M.G.R.Salai"},"geometry":{"type":"Point","coordinates":[80.273024,13.034422]}},{"type":"Feature","properties":{"name":"Mandeveli bus depot"},"geometry":{"type":"Point","coordinates":[80.266168,13.026382]}},{"type":"Feature","properties":{"name":"Sundershwarer Swamy Street"},"geometry":{"type":"Point","coordinates":[80.271584,13.032418]}},{"type":"Feature","properties":{"name":"Pattinam pakkam Road"},"geometry":{"type":"Point","coordinates":[80.276055,13.025388]}},{"type":"Feature","properties":{"name":"Venkata krishna Road"},"geometry":{"type":"Point","coordinates":[80.262941,13.026669]}},{"type":"Feature","properties":{"name":"Devanathen street"},"geometry":{"type":"Point","coordinates":[80.26376,13.028299]}},{"type":"Feature","properties":{"name":"Santhome High Road"},"geometry":{"type":"Point","coordinates":[80.27518,13.025929]}},{"type":"Feature","properties":{"name":"KALIAMMAN KOIL STREET"},"geometry":{"type":"Point","coordinates":[80.195799,13.060345]}},{"type":"Feature","properties":{"name":"JAI NAGAR"},"geometry":{"type":"Point","coordinates":[80.206416,13.070086]}},{"type":"Feature","properties":{"name":"RAGAVENDRA COLONY"},"geometry":{"type":"Point","coordinates":[80.194663,13.059744]}},{"type":"Feature","properties":{"name":"SRINIVASA NAGAR"},"geometry":{"type":"Point","coordinates":[80.196365,13.071126]}},{"type":"Feature","properties":{"name":"NEW COLONY"},"geometry":{"type":"Point","coordinates":[80.186867,13.048318]}},{"type":"Feature","properties":{"name":"SRI IYAPPA NAGAR"},"geometry":{"type":"Point","coordinates":[80.197307,13.063682]}},{"type":"Feature","properties":{"name":"KULASEKARAPURAM"},"geometry":{"type":"Point","coordinates":[80.203372,13.062329]}},{"type":"Feature","properties":{"name":"ARUNACHALAM ROAD"},"geometry":{"type":"Point","coordinates":[80.204096,13.053734]}},{"type":"Feature","properties":{"name":"ABUSALI SALAI"},"geometry":{"type":"Point","coordinates":[80.199106,13.0492]}},{"type":"Feature","properties":{"name":"BALAJI NAGAR"},"geometry":{"type":"Point","coordinates":[80.19834,13.056627]}},{"type":"Feature","properties":{"name":"THIRUVALLUVAR STREET"},"geometry":{"type":"Point","coordinates":[80.208062,13.059419]}},{"type":"Feature","properties":{"name":"Mathiazhaghan Nagar"},"geometry":{"type":"Point","coordinates":[80.201092,13.056847]}},{"type":"Feature","properties":{"name":"PERIYAR NAGAR"},"geometry":{"type":"Point","coordinates":[80.190058,13.035117]}},{"type":"Feature","properties":{"name":"KALIAMMAN KOIL STREET"},"geometry":{"type":"Point","coordinates":[80.192352,13.053411]}},{"type":"Feature","properties":{"name":"ELANGO NAGAR"},"geometry":{"type":"Point","coordinates":[80.19099,13.054211]}},{"type":"Feature","properties":{"name":"Saratha Nagar"},"geometry":{"type":"Point","coordinates":[80.194832,13.048282]}},{"type":"Feature","properties":{"name":"Tarachand Nagar"},"geometry":{"type":"Point","coordinates":[80.194923,13.054829]}},{"type":"Feature","properties":{"name":"CRR PURAM"},"geometry":{"type":"Point","coordinates":[80.191866,13.053635]}},{"type":"Feature","properties":{"name":"Sathya Moorthy Nagar Main Road"},"geometry":{"type":"Point","coordinates":[80.26577,13.115175]}},{"type":"Feature","properties":{"name":"DBK Street"},"geometry":{"type":"Point","coordinates":[80.278924,13.112426]}},{"type":"Feature","properties":{"name":"Partha Sarathy St"},"geometry":{"type":"Point","coordinates":[80.279401,13.113006]}},{"type":"Feature","properties":{"name":"Renuka Devi Amman Street"},"geometry":{"type":"Point","coordinates":[80.25977,13.113492]}},{"type":"Feature","properties":{"name":"Sathya Moorthy Nagar 24th Block"},"geometry":{"type":"Point","coordinates":[80.267257,13.118364]}},{"type":"Feature","properties":{"name":"T.H.Road (Dr.Vijayaragavalu road)"},"geometry":{"type":"Point","coordinates":[80.280189,13.109505]}},{"type":"Feature","properties":{"name":"North wall road"},"geometry":{"type":"Point","coordinates":[80.278287,13.1049]}},{"type":"Feature","properties":{"name":"C.B.Road"},"geometry":{"type":"Point","coordinates":[80.272756,13.108109]}},{"type":"Feature","properties":{"name":"Thirupali St"},"geometry":{"type":"Point","coordinates":[80.278098,13.096947]}},{"type":"Feature","properties":{"name":"Amman Koil Street"},"geometry":{"type":"Point","coordinates":[80.278402,13.099034]}},{"type":"Feature","properties":{"name":"Waltax road"},"geometry":{"type":"Point","coordinates":[80.275282,13.097865]}},{"type":"Feature","properties":{"name":"chakarai chety st."},"geometry":{"type":"Point","coordinates":[80.27627,13.100457]}},{"type":"Feature","properties":{"name":"Kennte Lane"},"geometry":{"type":"Point","coordinates":[80.262524,13.076115]}},{"type":"Feature","properties":{"name":"Santhosh Nagar"},"geometry":{"type":"Point","coordinates":[80.255893,13.078419]}},{"type":"Feature","properties":{"name":"Ethiraj lane"},"geometry":{"type":"Point","coordinates":[80.257305,13.066778]}},{"type":"Feature","properties":{"name":"Ambedkar Colony"},"geometry":{"type":"Point","coordinates":[80.20897,13.03298]}},{"type":"Feature","properties":{"name":"Bharathidasan Colony main raod"},"geometry":{"type":"Point","coordinates":[80.205054,13.032686]}},{"type":"Feature","properties":{"name":"GOVINDAN ROAD"},"geometry":{"type":"Point","coordinates":[80.22268,13.031334]}},{"type":"Feature","properties":{"name":"K.R.KOIL STREET"},"geometry":{"type":"Point","coordinates":[80.225575,13.03198]}},{"type":"Feature","properties":{"name":"Jothiramalingam Nagar"},"geometry":{"type":"Point","coordinates":[80.223311,13.032639]}},{"type":"Feature","properties":{"name":"Ellaiamman Koil Street"},"geometry":{"type":"Point","coordinates":[80.224764,13.033572]}},{"type":"Feature","properties":{"name":"SOUTH WEST BOAG ROAD"},"geometry":{"type":"Point","coordinates":[80.232025,13.030981]}},{"type":"Feature","properties":{"name":"JEENIS ROAD"},"geometry":{"type":"Point","coordinates":[80.224406,13.020732]}},{"type":"Feature","properties":{"name":"Diwan Bashyam Street"},"geometry":{"type":"Point","coordinates":[80.219041,13.023345]}},{"type":"Feature","properties":{"name":"THIRUVALLUVAR STREET"},"geometry":{"type":"Point","coordinates":[80.218251,13.027444]}},{"type":"Feature","properties":{"name":"POSTAL COLONY 1ST STREET"},"geometry":{"type":"Point","coordinates":[80.219742,13.037023]}},{"type":"Feature","properties":{"name":"POSTAL COLONY 3RD STREET"},"geometry":{"type":"Point","coordinates":[80.219676,13.035935]}},{"type":"Feature","properties":{"name":"G.N.Chetty road"},"geometry":{"type":"Point","coordinates":[80.236226,13.042806]}},{"type":"Feature","properties":{"name":"ALAGIRI NAGAR 4TH street"},"geometry":{"type":"Point","coordinates":[80.213548,13.056821]}},{"type":"Feature","properties":{"name":"ALAGIRI NAGAR 3RD street"},"geometry":{"type":"Point","coordinates":[80.213702,13.056256]}},{"type":"Feature","properties":{"name":"ALAGIRI NAGAR  5TH street"},"geometry":{"type":"Point","coordinates":[80.213708,13.057074]}},{"type":"Feature","properties":{"name":"Devaraj Nagar"},"geometry":{"type":"Point","coordinates":[80.202889,13.059355]}},{"type":"Feature","properties":{"name":"K.K.ROAD"},"geometry":{"type":"Point","coordinates":[80.201848,13.057498]}},{"type":"Feature","properties":{"name":"ALAGIRI NAGAR 2ND street"},"geometry":{"type":"Point","coordinates":[80.213699,13.056571]}},{"type":"Feature","properties":{"name":"VGN NAGAR"},"geometry":{"type":"Point","coordinates":[80.164588,13.077191]}},{"type":"Feature","properties":{"name":"Sriram Nagar Main Road"},"geometry":{"type":"Point","coordinates":[80.167308,13.073361]}},{"type":"Feature","properties":{"name":"Poonamallee High Road"},"geometry":{"type":"Point","coordinates":[80.177296,13.067489]}},{"type":"Feature","properties":{"name":"MMDA Colony 4th Block"},"geometry":{"type":"Point","coordinates":[80.175462,13.063285]}},{"type":"Feature","properties":{"name":"MMDA Colony 5th Block"},"geometry":{"type":"Point","coordinates":[80.175273,13.063969]}},{"type":"Feature","properties":{"name":"Pallavan nagar"},"geometry":{"type":"Point","coordinates":[80.184019,13.069602]}},{"type":"Feature","properties":{"name":"Azhagammal Nagar 8th Street"},"geometry":{"type":"Point","coordinates":[80.186433,13.063163]}},{"type":"Feature","properties":{"name":"Azhagammal Nagar 7th Street"},"geometry":{"type":"Point","coordinates":[80.180473,13.0616]}},{"type":"Feature","properties":{"name":"Vembuliamman Koil Street"},"geometry":{"type":"Point","coordinates":[80.167242,13.076447]}},{"type":"Feature","properties":{"name":"Muniappa Nagar 2nd Street"},"geometry":{"type":"Point","coordinates":[80.187019,13.059517]}},{"type":"Feature","properties":{"name":"Krishna Nagar Main Road"},"geometry":{"type":"Point","coordinates":[80.183717,13.062143]}},{"type":"Feature","properties":{"name":"NT Patel Road MGR Salai"},"geometry":{"type":"Point","coordinates":[80.182658,13.061631]}},{"type":"Feature","properties":{"name":"MGR Street"},"geometry":{"type":"Point","coordinates":[80.162399,13.057895]}},{"type":"Feature","properties":{"name":"Bharathidasan Nagar"},"geometry":{"type":"Point","coordinates":[80.163464,13.045703]}},{"type":"Feature","properties":{"name":"Alapakkam Main Road Jn of HP Petrol Bunk"},"geometry":{"type":"Point","coordinates":[80.166027,13.048823]}},{"type":"Feature","properties":{"name":"Alapakkam Main Road Jn of Meenakshmi School"},"geometry":{"type":"Point","coordinates":[80.166435,13.053218]}},{"type":"Feature","properties":{"name":"Arcot Road Near Vasanth & Co"},"geometry":{"type":"Point","coordinates":[80.163638,13.038255]}},{"type":"Feature","properties":{"name":"Astalakshmi Nagar 3rd Main Road"},"geometry":{"type":"Point","coordinates":[80.169009,13.046754]}},{"type":"Feature","properties":{"name":"Astalakshmi Nagar 6th Street"},"geometry":{"type":"Point","coordinates":[80.170005,13.046611]}},{"type":"Feature","properties":{"name":"Chokanathan 1st Cross Street"},"geometry":{"type":"Point","coordinates":[80.174418,13.062534]}},{"type":"Feature","properties":{"name":"Krishna Nagar 3rd Main Road"},"geometry":{"type":"Point","coordinates":[80.169117,13.050581]}},{"type":"Feature","properties":{"name":"Astalakshmi Nagar 24th Street"},"geometry":{"type":"Point","coordinates":[80.166588,13.046861]}},{"type":"Feature","properties":{"name":"Periyar Nagar"},"geometry":{"type":"Point","coordinates":[80.18575,13.054337]}},{"type":"Feature","properties":{"name":"CDN Nagar"},"geometry":{"type":"Point","coordinates":[80.1795,13.061933]}},{"type":"Feature","properties":{"name":"Balaji Nagar"},"geometry":{"type":"Point","coordinates":[80.182273,13.053501]}},{"type":"Feature","properties":{"name":"Anbu nagar"},"geometry":{"type":"Point","coordinates":[80.179492,13.053408]}},{"type":"Feature","properties":{"name":"Saraswathi Nagar"},"geometry":{"type":"Point","coordinates":[80.183672,13.052822]}},{"type":"Feature","properties":{"name":"Devikarumariyamman Nagar"},"geometry":{"type":"Point","coordinates":[80.17756,13.043539]}},{"type":"Feature","properties":{"name":"Palaniyappa Nagar Main Road"},"geometry":{"type":"Point","coordinates":[80.183054,13.044187]}},{"type":"Feature","properties":{"name":"Fathima Nagar Park"},"geometry":{"type":"Point","coordinates":[80.181056,13.043277]}},{"type":"Feature","properties":{"name":"Arcot Road BVR Nagar"},"geometry":{"type":"Point","coordinates":[80.183111,13.051407]}},{"type":"Feature","properties":{"name":"Kamatchi Nagar"},"geometry":{"type":"Point","coordinates":[80.173302,13.044721]}},{"type":"Feature","properties":{"name":"Velan Nagar"},"geometry":{"type":"Point","coordinates":[80.178793,13.051236]}},{"type":"Feature","properties":{"name":"Kanagathara Nagar Main Road"},"geometry":{"type":"Point","coordinates":[80.175362,13.046519]}},{"type":"Feature","properties":{"name":"Gandhi Road"},"geometry":{"type":"Point","coordinates":[80.185412,13.04748]}},{"type":"Feature","properties":{"name":"Bharathiyar Street"},"geometry":{"type":"Point","coordinates":[80.181854,13.049548]}},{"type":"Feature","properties":{"name":"Narayani Appartment"},"geometry":{"type":"Point","coordinates":[80.18178,13.047254]}},{"type":"Feature","properties":{"name":"Arcot Road Rajeshwari Nagar"},"geometry":{"type":"Point","coordinates":[80.159925,13.038405]}},{"type":"Feature","properties":{"name":"Arcot Road Thangam Store"},"geometry":{"type":"Point","coordinates":[80.156515,13.035591]}},{"type":"Feature","properties":{"name":"Mullai Street"},"geometry":{"type":"Point","coordinates":[80.155143,13.0401]}},{"type":"Feature","properties":{"name":"Arunachalam Nagar"},"geometry":{"type":"Point","coordinates":[80.154881,13.040959]}},{"type":"Feature","properties":{"name":"Chinnaporur Gandhi Street"},"geometry":{"type":"Point","coordinates":[80.16859,13.034453]}},{"type":"Feature","properties":{"name":"Arcot Road ETA"},"geometry":{"type":"Point","coordinates":[80.164402,13.037508]}},{"type":"Feature","properties":{"name":"Arcot Road Kumar Sweeets"},"geometry":{"type":"Point","coordinates":[80.157585,13.036461]}},{"type":"Feature","properties":{"name":"Kadumbadiamma Sannathi 1st st"},"geometry":{"type":"Point","coordinates":[80.169716,13.04057]}},{"type":"Feature","properties":{"name":"Om Sakthi 3rd Street"},"geometry":{"type":"Point","coordinates":[80.185304,13.037809]}},{"type":"Feature","properties":{"name":"Kundrathur Main Road Jn of RE Nagar 1st Street"},"geometry":{"type":"Point","coordinates":[80.15303,13.030265]}},{"type":"Feature","properties":{"name":"Suresh Nagar 3rd Street"},"geometry":{"type":"Point","coordinates":[80.163795,13.024884]}},{"type":"Feature","properties":{"name":"Ramakrishna Nagar"},"geometry":{"type":"Point","coordinates":[80.158149,13.026544]}},{"type":"Feature","properties":{"name":"Ganesh Avenue 1st to 8th Street"},"geometry":{"type":"Point","coordinates":[80.164078,13.026514]}},{"type":"Feature","properties":{"name":"Ambal nagar Kumutham Street"},"geometry":{"type":"Point","coordinates":[80.158961,13.030625]}},{"type":"Feature","properties":{"name":"Balambigai 5th Street"},"geometry":{"type":"Point","coordinates":[80.175774,13.034922]}},{"type":"Feature","properties":{"name":"Venkateswara Nagar 14th Streetand 1st and 2nd lane"},"geometry":{"type":"Point","coordinates":[80.175229,13.02877]}},{"type":"Feature","properties":{"name":"Kanniappan Street"},"geometry":{"type":"Point","coordinates":[80.176727,13.027142]}},{"type":"Feature","properties":{"name":"Thiruvalluvar Street"},"geometry":{"type":"Point","coordinates":[80.176517,13.033137]}},{"type":"Feature","properties":{"name":"Kakkan Street"},"geometry":{"type":"Point","coordinates":[80.175386,13.03418]}},{"type":"Feature","properties":{"name":"Kothari Nagar"},"geometry":{"type":"Point","coordinates":[80.185023,13.034334]}},{"type":"Feature","properties":{"name":"Gangai Avenue"},"geometry":{"type":"Point","coordinates":[80.184712,13.032388]}},{"type":"Feature","properties":{"name":"Royala Nagar 2nd Main Road Near Kovilpillai School"},"geometry":{"type":"Point","coordinates":[80.185395,13.029717]}},{"type":"Feature","properties":{"name":"Kothari Nagar 1st,  2nd Main Road and 1 to 8 Streets"},"geometry":{"type":"Point","coordinates":[80.186177,13.034753]}},{"type":"Feature","properties":{"name":"Thirumalai Nagar Mahavishnu Street Sanjai Ram Street and Elumalai Street"},"geometry":{"type":"Point","coordinates":[80.181873,13.03478]}},{"type":"Feature","properties":{"name":"KUMUDAM NAGAR"},"geometry":{"type":"Point","coordinates":[80.167293,13.020589]}},{"type":"Feature","properties":{"name":"Mugalivakkam Main Road"},"geometry":{"type":"Point","coordinates":[80.148902,13.022147]}},{"type":"Feature","properties":{"name":"ICICI Bank"},"geometry":{"type":"Point","coordinates":[80.142503,13.01893]}},{"type":"Feature","properties":{"name":"Madhanandhapuram Main Road"},"geometry":{"type":"Point","coordinates":[80.143556,13.023704]}},{"type":"Feature","properties":{"name":"CRR Puram"},"geometry":{"type":"Point","coordinates":[80.1732,13.016159]}},{"type":"Feature","properties":{"name":"Krishna Nagar"},"geometry":{"type":"Point","coordinates":[80.172525,13.014092]}},{"type":"Feature","properties":{"name":"Bharma Colony 4th Street and TPF"},"geometry":{"type":"Point","coordinates":[80.19498,13.027716]}},{"type":"Feature","properties":{"name":"MKB Nagar"},"geometry":{"type":"Point","coordinates":[80.149131,13.107194]}},{"type":"Feature","properties":{"name":"Dobhi colony"},"geometry":{"type":"Point","coordinates":[80.152794,13.108045]}},{"type":"Feature","properties":{"name":"mangalapuram"},"geometry":{"type":"Point","coordinates":[80.165874,13.103199]}},{"type":"Feature","properties":{"name":"CTH ROAD"},"geometry":{"type":"Point","coordinates":[80.160153,13.10142]}},{"type":"Feature","properties":{"name":"VGN SHANTHI COLONY"},"geometry":{"type":"Point","coordinates":[80.159428,13.10023]}},{"type":"Feature","properties":{"name":"Thiruvalluvar Street"},"geometry":{"type":"Point","coordinates":[80.186932,13.095484]}},{"type":"Feature","properties":{"name":"U.R. NAGAR"},"geometry":{"type":"Point","coordinates":[80.192947,13.101012]}},{"type":"Feature","properties":{"name":"B Sector 6th Street"},"geometry":{"type":"Point","coordinates":[80.19204,13.097741]}},{"type":"Feature","properties":{"name":"B Sector 8th Street"},"geometry":{"type":"Point","coordinates":[80.192721,13.098113]}},{"type":"Feature","properties":{"name":"C Sector 6th Street"},"geometry":{"type":"Point","coordinates":[80.194125,13.094595]}},{"type":"Feature","properties":{"name":"D Sector 8th Street"},"geometry":{"type":"Point","coordinates":[80.19372,13.091682]}},{"type":"Feature","properties":{"name":"Devar Nagar"},"geometry":{"type":"Point","coordinates":[80.188153,13.091704]}},{"type":"Feature","properties":{"name":"Mathialagan Nagar"},"geometry":{"type":"Point","coordinates":[80.178887,13.092857]}},{"type":"Feature","properties":{"name":"West End colony"},"geometry":{"type":"Point","coordinates":[80.180897,13.089854]}},{"type":"Feature","properties":{"name":"Golden Colony"},"geometry":{"type":"Point","coordinates":[80.178439,13.089324]}},{"type":"Feature","properties":{"name":"Gandhi Nagar"},"geometry":{"type":"Point","coordinates":[80.191998,13.08593]}},{"type":"Feature","properties":{"name":"Kalaivanar Colony"},"geometry":{"type":"Point","coordinates":[80.190507,13.086591]}},{"type":"Feature","properties":{"name":"Paddikuppam Five Star Apartments"},"geometry":{"type":"Point","coordinates":[80.19315,13.087047]}},{"type":"Feature","properties":{"name":"Thirumangalam Jn"},"geometry":{"type":"Point","coordinates":[80.19821,13.087155]}},{"type":"Feature","properties":{"name":"Mogappair Eri Scheme VGN Ave"},"geometry":{"type":"Point","coordinates":[80.175698,13.076621]}},{"type":"Feature","properties":{"name":"Mogappair Eri Scheme 7th main Rd"},"geometry":{"type":"Point","coordinates":[80.177319,13.077437]}},{"type":"Feature","properties":{"name":"Dr. J J Nagar 10th Block"},"geometry":{"type":"Point","coordinates":[80.181847,13.081248]}},{"type":"Feature","properties":{"name":"Panner Nagar Main RD"},"geometry":{"type":"Point","coordinates":[80.180881,13.078372]}},{"type":"Feature","properties":{"name":"vellar street voilet Apartments"},"geometry":{"type":"Point","coordinates":[80.175403,13.083481]}},{"type":"Feature","properties":{"name":"Nakeeran Salai"},"geometry":{"type":"Point","coordinates":[80.184633,13.084781]}},{"type":"Feature","properties":{"name":"Nathamuni Street"},"geometry":{"type":"Point","coordinates":[80.155463,13.137348]}},{"type":"Feature","properties":{"name":"Gangi Amman Koil Street"},"geometry":{"type":"Point","coordinates":[80.173064,13.133056]}},{"type":"Feature","properties":{"name":"Sastha Nagar"},"geometry":{"type":"Point","coordinates":[80.19804,13.123037]}},{"type":"Feature","properties":{"name":"Mariamman Koil Strret"},"geometry":{"type":"Point","coordinates":[80.155877,13.138609]}},{"type":"Feature","properties":{"name":"Krishnan cross st"},"geometry":{"type":"Point","coordinates":[80.155795,13.135882]}},{"type":"Feature","properties":{"name":"Nagathamman kovil street"},"geometry":{"type":"Point","coordinates":[80.156689,13.138647]}},{"type":"Feature","properties":{"name":"Arunagirinathar street"},"geometry":{"type":"Point","coordinates":[80.148761,13.126965]}},{"type":"Feature","properties":{"name":"TVK Street"},"geometry":{"type":"Point","coordinates":[80.150086,13.126289]}},{"type":"Feature","properties":{"name":"Sakthi Vinayagar Koil Street"},"geometry":{"type":"Point","coordinates":[80.150519,13.126209]}},{"type":"Feature","properties":{"name":"Thirunavukarasu Street"},"geometry":{"type":"Point","coordinates":[80.165378,13.116992]}},{"type":"Feature","properties":{"name":"TNEB Colony"},"geometry":{"type":"Point","coordinates":[80.16764,13.119172]}},{"type":"Feature","properties":{"name":"TNEB 27th Street"},"geometry":{"type":"Point","coordinates":[80.18513,13.108677]}},{"type":"Feature","properties":{"name":"TNEB 29th Street"},"geometry":{"type":"Point","coordinates":[80.18522,13.109352]}},{"type":"Feature","properties":{"name":"TNEB 28th Street"},"geometry":{"type":"Point","coordinates":[80.184832,13.109041]}},{"type":"Feature","properties":{"name":"TNEB 61st Street"},"geometry":{"type":"Point","coordinates":[80.186711,13.111126]}},{"type":"Feature","properties":{"name":"CTH ROAD"},"geometry":{"type":"Point","coordinates":[80.190001,13.100479]}},{"type":"Feature","properties":{"name":"TNEB 26TH Street"},"geometry":{"type":"Point","coordinates":[80.184724,13.108437]}},{"type":"Feature","properties":{"name":"M.T.H. Road"},"geometry":{"type":"Point","coordinates":[80.200789,13.103364]}},{"type":"Feature","properties":{"name":"Annai Sathya Nagar"},"geometry":{"type":"Point","coordinates":[80.195923,13.102675]}},{"type":"Feature","properties":{"name":"North Sivan Koil Street"},"geometry":{"type":"Point","coordinates":[80.206951,13.105606]}},{"type":"Feature","properties":{"name":"Baba Nagar 1st Main Road"},"geometry":{"type":"Point","coordinates":[80.205172,13.11695]}},{"type":"Feature","properties":{"name":"North Jaganatha Nagar 2nd Street"},"geometry":{"type":"Point","coordinates":[80.203713,13.111767]}},{"type":"Feature","properties":{"name":"North Jaganatha Nagar 8th Street"},"geometry":{"type":"Point","coordinates":[80.201224,13.112407]}},{"type":"Feature","properties":{"name":"North Jaganatha Nagar 11th Street"},"geometry":{"type":"Point","coordinates":[80.200343,13.113365]}},{"type":"Feature","properties":{"name":"Baba Nagar 1st Street"},"geometry":{"type":"Point","coordinates":[80.205174,13.116854]}},{"type":"Feature","properties":{"name":"Valliammal Nagar"},"geometry":{"type":"Point","coordinates":[80.196777,13.107682]}},{"type":"Feature","properties":{"name":"Bharathi Nagar"},"geometry":{"type":"Point","coordinates":[80.204214,13.105099]}},{"type":"Feature","properties":{"name":"Rajiv Gandhi Nagar 2nd Street"},"geometry":{"type":"Point","coordinates":[80.211181,13.104803]}},{"type":"Feature","properties":{"name":"Thanthoni Amman Koil Street"},"geometry":{"type":"Point","coordinates":[80.209403,13.103496]}},{"type":"Feature","properties":{"name":"Narayana Maistry 2nd Street"},"geometry":{"type":"Point","coordinates":[80.213477,13.106042]}},{"type":"Feature","properties":{"name":"Bajanai Koil Street"},"geometry":{"type":"Point","coordinates":[80.212085,13.102922]}},{"type":"Feature","properties":{"name":"Vasantham Colony 1st Street"},"geometry":{"type":"Point","coordinates":[80.206568,13.094991]}},{"type":"Feature","properties":{"name":"18th Main Road"},"geometry":{"type":"Point","coordinates":[80.201495,13.094802]}},{"type":"Feature","properties":{"name":"THIRU NAGAR"},"geometry":{"type":"Point","coordinates":[80.203552,13.101676]}},{"type":"Feature","properties":{"name":"North Main Road"},"geometry":{"type":"Point","coordinates":[80.197018,13.09706]}},{"type":"Feature","properties":{"name":"MTH Road"},"geometry":{"type":"Point","coordinates":[80.209197,13.102555]}},{"type":"Feature","properties":{"name":"New Avadi Road"},"geometry":{"type":"Point","coordinates":[80.209161,13.100582]}},{"type":"Feature","properties":{"name":"Anna Nagar west - W Block"},"geometry":{"type":"Point","coordinates":[80.196364,13.095048]}},{"type":"Feature","properties":{"name":"Konnur High Road"},"geometry":{"type":"Point","coordinates":[80.221494,13.098769]}},{"type":"Feature","properties":{"name":"Kakkangi Nagar"},"geometry":{"type":"Point","coordinates":[80.21632,13.097975]}},{"type":"Feature","properties":{"name":"Ayanavaram market road"},"geometry":{"type":"Point","coordinates":[80.230679,13.098349]}},{"type":"Feature","properties":{"name":"NMK Street"},"geometry":{"type":"Point","coordinates":[80.234026,13.096861]}},{"type":"Feature","properties":{"name":"Vellala Street"},"geometry":{"type":"Point","coordinates":[80.22358,13.09601]}},{"type":"Feature","properties":{"name":"Kamaraj Street"},"geometry":{"type":"Point","coordinates":[80.224469,13.095387]}},{"type":"Feature","properties":{"name":"CHAKRAVARTHY NAGAR"},"geometry":{"type":"Point","coordinates":[80.223268,13.095448]}},{"type":"Feature","properties":{"name":"Police Manickam Street"},"geometry":{"type":"Point","coordinates":[80.23565,13.093875]}},{"type":"Feature","properties":{"name":"Ayanavaram road"},"geometry":{"type":"Point","coordinates":[80.236146,13.092854]}},{"type":"Feature","properties":{"name":"C.K.Street"},"geometry":{"type":"Point","coordinates":[80.234755,13.093361]}},{"type":"Feature","properties":{"name":"Mettu street"},"geometry":{"type":"Point","coordinates":[80.23284,13.094163]}},{"type":"Feature","properties":{"name":"Raju street"},"geometry":{"type":"Point","coordinates":[80.231705,13.090652]}},{"type":"Feature","properties":{"name":"VP Colony Extn.,"},"geometry":{"type":"Point","coordinates":[80.23643,13.093646]}},{"type":"Feature","properties":{"name":"Aspiran Garden 1st Street"},"geometry":{"type":"Point","coordinates":[80.236503,13.086366]}},{"type":"Feature","properties":{"name":"NVN Nagar"},"geometry":{"type":"Point","coordinates":[80.197467,13.085766]}},{"type":"Feature","properties":{"name":"TV Nagar"},"geometry":{"type":"Point","coordinates":[80.197277,13.084115]}},{"type":"Feature","properties":{"name":"H Block 4th Street"},"geometry":{"type":"Point","coordinates":[80.200991,13.086506]}},{"type":"Feature","properties":{"name":"Mangalam Colony, PWD Quarters"},"geometry":{"type":"Point","coordinates":[80.198856,13.082095]}},{"type":"Feature","properties":{"name":"H Block 5th Street"},"geometry":{"type":"Point","coordinates":[80.202695,13.086269]}},{"type":"Feature","properties":{"name":"H Block 23rd Street"},"geometry":{"type":"Point","coordinates":[80.201284,13.091547]}},{"type":"Feature","properties":{"name":"School Road"},"geometry":{"type":"Point","coordinates":[80.19674,13.093032]}},{"type":"Feature","properties":{"name":"S Block 21st Street"},"geometry":{"type":"Point","coordinates":[80.211798,13.091847]}},{"type":"Feature","properties":{"name":"S Block 2nd Street"},"geometry":{"type":"Point","coordinates":[80.212627,13.0911]}},{"type":"Feature","properties":{"name":"5th Main Road"},"geometry":{"type":"Point","coordinates":[80.213213,13.088559]}},{"type":"Feature","properties":{"name":"2nd Avenue"},"geometry":{"type":"Point","coordinates":[80.212328,13.084819]}},{"type":"Feature","properties":{"name":"5th Avenue"},"geometry":{"type":"Point","coordinates":[80.21019,13.08529]}},{"type":"Feature","properties":{"name":"4th Avenue"},"geometry":{"type":"Point","coordinates":[80.210313,13.082432]}},{"type":"Feature","properties":{"name":"6th Avenue"},"geometry":{"type":"Point","coordinates":[80.213666,13.092417]}},{"type":"Feature","properties":{"name":"A.H.Block"},"geometry":{"type":"Point","coordinates":[80.213511,13.08054]}},{"type":"Feature","properties":{"name":"R Block"},"geometry":{"type":"Point","coordinates":[80.214375,13.091772]}},{"type":"Feature","properties":{"name":"2nd Avenue"},"geometry":{"type":"Point","coordinates":[80.222553,13.084441]}},{"type":"Feature","properties":{"name":"T Block 8th Street"},"geometry":{"type":"Point","coordinates":[80.216122,13.08847]}},{"type":"Feature","properties":{"name":"P Block 20th Street"},"geometry":{"type":"Point","coordinates":[80.217034,13.093061]}},{"type":"Feature","properties":{"name":"Periyakoodal st"},"geometry":{"type":"Point","coordinates":[80.222148,13.080174]}},{"type":"Feature","properties":{"name":"Q Block"},"geometry":{"type":"Point","coordinates":[80.21714,13.091162]}},{"type":"Feature","properties":{"name":"Pulla Avenue"},"geometry":{"type":"Point","coordinates":[80.225043,13.076836]}},{"type":"Feature","properties":{"name":"1st Avenue"},"geometry":{"type":"Point","coordinates":[80.223687,13.090787]}},{"type":"Feature","properties":{"name":"1st Main Road"},"geometry":{"type":"Point","coordinates":[80.226748,13.07803]}},{"type":"Feature","properties":{"name":"Kilpauk Garden Road"},"geometry":{"type":"Point","coordinates":[80.229761,13.083102]}},{"type":"Feature","properties":{"name":"Jothiammal Nagar"},"geometry":{"type":"Point","coordinates":[80.230191,13.081076]}},{"type":"Feature","properties":{"name":"TP Chatram Main Road"},"geometry":{"type":"Point","coordinates":[80.230436,13.080789]}},{"type":"Feature","properties":{"name":"R.V.Nagar Main Road"},"geometry":{"type":"Point","coordinates":[80.227192,13.084827]}},{"type":"Feature","properties":{"name":"RV Nagar 3rd Street"},"geometry":{"type":"Point","coordinates":[80.228207,13.086974]}},{"type":"Feature","properties":{"name":"RV Nagar 4th Street"},"geometry":{"type":"Point","coordinates":[80.22914,13.087094]}},{"type":"Feature","properties":{"name":"RV Nagar 5th Street"},"geometry":{"type":"Point","coordinates":[80.228123,13.087581]}},{"type":"Feature","properties":{"name":"Kathiravan colony"},"geometry":{"type":"Point","coordinates":[80.222939,13.075778]}},{"type":"Feature","properties":{"name":"VOC Colony"},"geometry":{"type":"Point","coordinates":[80.224123,13.088749]}},{"type":"Feature","properties":{"name":"Kellys Road"},"geometry":{"type":"Point","coordinates":[80.246427,13.083674]}},{"type":"Feature","properties":{"name":"Millers Road"},"geometry":{"type":"Point","coordinates":[80.249924,13.083154]}},{"type":"Feature","properties":{"name":"Purasaiwalkam High Road (near Law College Hostel)"},"geometry":{"type":"Point","coordinates":[80.247656,13.085763]}},{"type":"Feature","properties":{"name":"Sylvan garden 1st street"},"geometry":{"type":"Point","coordinates":[80.247711,13.082249]}},{"type":"Feature","properties":{"name":"Balfour road"},"geometry":{"type":"Point","coordinates":[80.244587,13.084089]}},{"type":"Feature","properties":{"name":"Harleys Road (near Bala Vihar School)"},"geometry":{"type":"Point","coordinates":[80.242887,13.083182]}},{"type":"Feature","properties":{"name":"Sundaram Lane"},"geometry":{"type":"Point","coordinates":[80.252324,13.087418]}},{"type":"Feature","properties":{"name":"New Bhoopathy Nagar"},"geometry":{"type":"Point","coordinates":[80.243976,13.076146]}},{"type":"Feature","properties":{"name":"Ozone kulam"},"geometry":{"type":"Point","coordinates":[80.244982,13.075169]}},{"type":"Feature","properties":{"name":"Shanmugarayan street"},"geometry":{"type":"Point","coordinates":[80.251961,13.089154]}},{"type":"Feature","properties":{"name":"Dr.Alagappa Road"},"geometry":{"type":"Point","coordinates":[80.251159,13.081318]}},{"type":"Feature","properties":{"name":"Anna Street"},"geometry":{"type":"Point","coordinates":[80.211769,13.070339]}},{"type":"Feature","properties":{"name":"Venkata Krishna Nagar"},"geometry":{"type":"Point","coordinates":[80.211566,13.069637]}},{"type":"Feature","properties":{"name":"Water Tank Road"},"geometry":{"type":"Point","coordinates":[80.214054,13.068735]}},{"type":"Feature","properties":{"name":"Annai Sathya Nagar"},"geometry":{"type":"Point","coordinates":[80.208987,13.062631]}},{"type":"Feature","properties":{"name":"Kalki Nagar"},"geometry":{"type":"Point","coordinates":[80.214399,13.071977]}},{"type":"Feature","properties":{"name":"Razak garden Main Road"},"geometry":{"type":"Point","coordinates":[80.215546,13.07149]}},{"type":"Feature","properties":{"name":"Ashoka Street"},"geometry":{"type":"Point","coordinates":[80.21243,13.06876]}},{"type":"Feature","properties":{"name":"Indira Gandhi Street"},"geometry":{"type":"Point","coordinates":[80.210567,13.069934]}},{"type":"Feature","properties":{"name":"Collectorate colony"},"geometry":{"type":"Point","coordinates":[80.221298,13.070683]}},{"type":"Feature","properties":{"name":"M.H.Colony"},"geometry":{"type":"Point","coordinates":[80.222446,13.068206]}},{"type":"Feature","properties":{"name":"Kakkan nagar"},"geometry":{"type":"Point","coordinates":[80.22643,13.070817]}},{"type":"Feature","properties":{"name":"Metha nagar"},"geometry":{"type":"Point","coordinates":[80.227053,13.067947]}},{"type":"Feature","properties":{"name":"Dr.Gurusamy Bridge"},"geometry":{"type":"Point","coordinates":[80.240934,13.07257]}},{"type":"Feature","properties":{"name":"Periyar Pathai"},"geometry":{"type":"Point","coordinates":[80.217889,13.05871]}},{"type":"Feature","properties":{"name":"Iyyappa Nagar"},"geometry":{"type":"Point","coordinates":[80.216536,13.05891]}},{"type":"Feature","properties":{"name":"Water Tank Road"},"geometry":{"type":"Point","coordinates":[80.21592,13.068769]}},{"type":"Feature","properties":{"name":"Azad Nagar"},"geometry":{"type":"Point","coordinates":[80.22062,13.067159]}},{"type":"Feature","properties":{"name":"D - Block - 8th St"},"geometry":{"type":"Point","coordinates":[80.226562,13.085137]}},{"type":"Feature","properties":{"name":"Anna Nedumpathai"},"geometry":{"type":"Point","coordinates":[80.221828,13.061735]}},{"type":"Feature","properties":{"name":"Nelson manickam Road"},"geometry":{"type":"Point","coordinates":[80.229688,13.066718]}},{"type":"Feature","properties":{"name":"Central school Road"},"geometry":{"type":"Point","coordinates":[80.224321,13.064023]}},{"type":"Feature","properties":{"name":"School Road"},"geometry":{"type":"Point","coordinates":[80.240842,13.056812]}},{"type":"Feature","properties":{"name":"ValluvarKottam High Road"},"geometry":{"type":"Point","coordinates":[80.243348,13.066491]}},{"type":"Feature","properties":{"name":"Harinton Road"},"geometry":{"type":"Point","coordinates":[80.23843,13.069273]}},{"type":"Feature","properties":{"name":"Strelling Road"},"geometry":{"type":"Point","coordinates":[80.238983,13.064987]}},{"type":"Feature","properties":{"name":"Tank Bund Road"},"geometry":{"type":"Point","coordinates":[80.2404,13.058582]}},{"type":"Feature","properties":{"name":"Lake Area 6th cross street"},"geometry":{"type":"Point","coordinates":[80.240645,13.053941]}},{"type":"Feature","properties":{"name":"Greams Road"},"geometry":{"type":"Point","coordinates":[80.254417,13.060489]}},{"type":"Feature","properties":{"name":"Gulam Ahabs Alikahan street"},"geometry":{"type":"Point","coordinates":[80.253095,13.059365]}},{"type":"Feature","properties":{"name":"Gopolapuram"},"geometry":{"type":"Point","coordinates":[80.256148,13.050352]}},{"type":"Feature","properties":{"name":"College Road"},"geometry":{"type":"Point","coordinates":[80.250365,13.067458]}},{"type":"Feature","properties":{"name":"Puliyur 2nd Lane"},"geometry":{"type":"Point","coordinates":[80.221954,13.055908]}},{"type":"Feature","properties":{"name":"Puliyur 2nd Main Road"},"geometry":{"type":"Point","coordinates":[80.222725,13.056059]}},{"type":"Feature","properties":{"name":"Varadharajapuram main Road"},"geometry":{"type":"Point","coordinates":[80.227661,13.056506]}},{"type":"Feature","properties":{"name":"Puliyur Main Road"},"geometry":{"type":"Point","coordinates":[80.224005,13.055424]}},{"type":"Feature","properties":{"name":"Puliyur 1st Main Road"},"geometry":{"type":"Point","coordinates":[80.226058,13.056085]}},{"type":"Feature","properties":{"name":"Kodampakkam High Road"},"geometry":{"type":"Point","coordinates":[80.245699,13.052811]}},{"type":"Feature","properties":{"name":"Nungambakkam 1st Street"},"geometry":{"type":"Point","coordinates":[80.236899,13.054285]}},{"type":"Feature","properties":{"name":"Thirumalaipillai Road"},"geometry":{"type":"Point","coordinates":[80.24049,13.050919]}},{"type":"Feature","properties":{"name":"Valluvar Kottam High Road"},"geometry":{"type":"Point","coordinates":[80.242678,13.058252]}},{"type":"Feature","properties":{"name":"Habibullah Road"},"geometry":{"type":"Point","coordinates":[80.243109,13.049376]}},{"type":"Feature","properties":{"name":"Uthmar Gandhi Salai"},"geometry":{"type":"Point","coordinates":[80.248601,13.057381]}},{"type":"Feature","properties":{"name":"Marina Service Road"},"geometry":{"type":"Point","coordinates":[80.282594,13.059516]}},{"type":"Feature","properties":{"name":"Kamarajar Salai"},"geometry":{"type":"Point","coordinates":[80.282313,13.058948]}},{"type":"Feature","properties":{"name":"Sakir Saip Street"},"geometry":{"type":"Point","coordinates":[80.274862,13.059019]}},{"type":"Feature","properties":{"name":"Sydoji Street"},"geometry":{"type":"Point","coordinates":[80.276505,13.059755]}},{"type":"Feature","properties":{"name":"Lock nagar"},"geometry":{"type":"Point","coordinates":[80.28142,13.066091]}},{"type":"Feature","properties":{"name":"Peters Road"},"geometry":{"type":"Point","coordinates":[80.261271,13.05411]}},{"type":"Feature","properties":{"name":"West Cott Road"},"geometry":{"type":"Point","coordinates":[80.264518,13.055663]}},{"type":"Feature","properties":{"name":"Devaraj  Street"},"geometry":{"type":"Point","coordinates":[80.272164,13.057752]}},{"type":"Feature","properties":{"name":"Surappan Street"},"geometry":{"type":"Point","coordinates":[80.272782,13.056561]}},{"type":"Feature","properties":{"name":"Dr.Besant Road"},"geometry":{"type":"Point","coordinates":[80.271595,13.053187]}},{"type":"Feature","properties":{"name":"H.M.A.V Street"},"geometry":{"type":"Point","coordinates":[80.271132,13.058331]}},{"type":"Feature","properties":{"name":"Bharathi Salai jn of Bells Road"},"geometry":{"type":"Point","coordinates":[80.277307,13.058126]}},{"type":"Feature","properties":{"name":"Dr.Besant Road"},"geometry":{"type":"Point","coordinates":[80.278607,13.050925]}},{"type":"Feature","properties":{"name":"G.N.chetty Road"},"geometry":{"type":"Point","coordinates":[80.245152,13.047826]}},{"type":"Feature","properties":{"name":"Thomas Road"},"geometry":{"type":"Point","coordinates":[80.243571,13.035675]}},{"type":"Feature","properties":{"name":"Thirumalaipillai Road"},"geometry":{"type":"Point","coordinates":[80.239801,13.047468]}},{"type":"Feature","properties":{"name":"Dr.Sadhasivam Road"},"geometry":{"type":"Point","coordinates":[80.235982,13.048042]}},{"type":"Feature","properties":{"name":"Thirumoorthi Street"},"geometry":{"type":"Point","coordinates":[80.237926,13.047411]}},{"type":"Feature","properties":{"name":"Bangirathi  Ammal Street"},"geometry":{"type":"Point","coordinates":[80.238485,13.048022]}},{"type":"Feature","properties":{"name":"Arulambal Street"},"geometry":{"type":"Point","coordinates":[80.238892,13.048795]}},{"type":"Feature","properties":{"name":"Sarangapani Street"},"geometry":{"type":"Point","coordinates":[80.237679,13.049201]}},{"type":"Feature","properties":{"name":"P.S.sivasamy street"},"geometry":{"type":"Point","coordinates":[80.263678,13.045435]}},{"type":"Feature","properties":{"name":"C.I.T.colony 1st cross street"},"geometry":{"type":"Point","coordinates":[80.262168,13.042647]}},{"type":"Feature","properties":{"name":"Avvai shanmugam lane"},"geometry":{"type":"Point","coordinates":[80.265389,13.047738]}},{"type":"Feature","properties":{"name":"Royapet high Road"},"geometry":{"type":"Point","coordinates":[80.265184,13.04879]}},{"type":"Feature","properties":{"name":"Dr Natesan Road"},"geometry":{"type":"Point","coordinates":[80.274479,13.049445]}},{"type":"Feature","properties":{"name":"Muthaiah Street"},"geometry":{"type":"Point","coordinates":[80.272935,13.05072]}},{"type":"Feature","properties":{"name":"Radha Krishnan Road"},"geometry":{"type":"Point","coordinates":[80.27042,13.044146]}},{"type":"Feature","properties":{"name":"Nehru nagar main road"},"geometry":{"type":"Point","coordinates":[80.252681,13.003721]}},{"type":"Feature","properties":{"name":"Kasthuribai nagar"},"geometry":{"type":"Point","coordinates":[80.252509,13.00552]}},{"type":"Feature","properties":{"name":"Indra nagar"},"geometry":{"type":"Point","coordinates":[80.252724,12.995818]}},{"type":"Feature","properties":{"name":"Kamaraj I avenue"},"geometry":{"type":"Point","coordinates":[80.252059,13.001892]}},{"type":"Feature","properties":{"name":"Venkatarathinam nagar"},"geometry":{"type":"Point","coordinates":[80.25414,13.000219]}},{"type":"Feature","properties":{"name":"L.B road"},"geometry":{"type":"Point","coordinates":[80.256092,12.998965]}},{"type":"Feature","properties":{"name":"Anna avenue"},"geometry":{"type":"Point","coordinates":[80.255889,13.004715]}},{"type":"Feature","properties":{"name":"Thiruvengadam street"},"geometry":{"type":"Point","coordinates":[80.255299,13.00368]}},{"type":"Feature","properties":{"name":"Sastri nagar XV cross street"},"geometry":{"type":"Point","coordinates":[80.256994,12.999916]}},{"type":"Feature","properties":{"name":"I street"},"geometry":{"type":"Point","coordinates":[80.259612,12.999038]}},{"type":"Feature","properties":{"name":"Ambedkar colony"},"geometry":{"type":"Point","coordinates":[80.207319,12.989128]}},{"type":"Feature","properties":{"name":"Mahalakshmi nagar"},"geometry":{"type":"Point","coordinates":[80.206375,12.983942]}},{"type":"Feature","properties":{"name":"Nethaji colony"},"geometry":{"type":"Point","coordinates":[80.211954,12.982311]}},{"type":"Feature","properties":{"name":"AGS colony"},"geometry":{"type":"Point","coordinates":[80.208478,12.977042]}},{"type":"Feature","properties":{"name":"TNHB colony III main road"},"geometry":{"type":"Point","coordinates":[80.211954,12.991929]}},{"type":"Feature","properties":{"name":"Devi Karumariamman koil street"},"geometry":{"type":"Point","coordinates":[80.214218,12.97907]}},{"type":"Feature","properties":{"name":"Throwpathy amman koil street"},"geometry":{"type":"Point","coordinates":[80.220838,12.987225]}},{"type":"Feature","properties":{"name":"AGS colony"},"geometry":{"type":"Point","coordinates":[80.211461,12.97769]}},{"type":"Feature","properties":{"name":"Vijayanagar"},"geometry":{"type":"Point","coordinates":[80.220881,12.975537]}},{"type":"Feature","properties":{"name":"Orandiamman koil street"},"geometry":{"type":"Point","coordinates":[80.219303,12.981569]}},{"type":"Feature","properties":{"name":"Gandhi road"},"geometry":{"type":"Point","coordinates":[80.226288,12.986242]}},{"type":"Feature","properties":{"name":"Tansi nagar III street"},"geometry":{"type":"Point","coordinates":[80.223477,12.978715]}},{"type":"Feature","properties":{"name":"Dhandeeswaram VII street"},"geometry":{"type":"Point","coordinates":[80.225344,12.980931]}},{"type":"Feature","properties":{"name":"Taramani Velachery road"},"geometry":{"type":"Point","coordinates":[80.240321,12.981433]}},{"type":"Feature","properties":{"name":"Seetharam nagar"},"geometry":{"type":"Point","coordinates":[80.227103,12.981266]}},{"type":"Feature","properties":{"name":"Bhuvaneshwari nagar"},"geometry":{"type":"Point","coordinates":[80.221074,12.968992]}},{"type":"Feature","properties":{"name":"VGP Selva nagar"},"geometry":{"type":"Point","coordinates":[80.221868,12.972275]}},{"type":"Feature","properties":{"name":"Velachery main Road"},"geometry":{"type":"Point","coordinates":[80.218005,12.981977]}},{"type":"Feature","properties":{"name":"Anna avenue"},"geometry":{"type":"Point","coordinates":[80.22706,12.974198]}},{"type":"Feature","properties":{"name":"LIC colony"},"geometry":{"type":"Point","coordinates":[80.222425,12.977419]}},{"type":"Feature","properties":{"name":"LB road (Judges avenue)"},"geometry":{"type":"Point","coordinates":[80.254826,12.983064]}},{"type":"Feature","properties":{"name":"Kanagam Periyar nagar"},"geometry":{"type":"Point","coordinates":[80.242553,12.987957]}},{"type":"Feature","properties":{"name":"Thanthai Periyar nagar"},"geometry":{"type":"Point","coordinates":[80.242081,12.995139]}},{"type":"Feature","properties":{"name":"Annai sathya Nagar"},"geometry":{"type":"Point","coordinates":[80.189608,13.035661]}},{"type":"Feature","properties":{"name":"ALAGIRI NAGAR 1ST street"},"geometry":{"type":"Point","coordinates":[80.213671,13.056828]}},{"type":"Feature","properties":{"name":"Bajanai Koil Street"},"geometry":{"type":"Point","coordinates":[80.210803,13.053059]}},{"type":"Feature","properties":{"name":"Thiru nagar 1 to 5"},"geometry":{"type":"Point","coordinates":[80.212865,13.055155]}},{"type":"Feature","properties":{"name":"Gangai amman koil street"},"geometry":{"type":"Point","coordinates":[80.216211,13.055103]}},{"type":"Feature","properties":{"name":"Andavar Nagar"},"geometry":{"type":"Point","coordinates":[80.213826,13.058072]}},{"type":"Feature","properties":{"name":"100'Feet Road"},"geometry":{"type":"Point","coordinates":[80.211589,13.053712]}},{"type":"Feature","properties":{"name":"R.K.SHANMUGAM SALAI"},"geometry":{"type":"Point","coordinates":[80.201947,13.039913]}},{"type":"Feature","properties":{"name":"LAKSHMANASAMY SALAI"},"geometry":{"type":"Point","coordinates":[80.202825,13.038427]}},{"type":"Feature","properties":{"name":"P.T.RAJAN SALAI"},"geometry":{"type":"Point","coordinates":[80.210632,13.044129]}},{"type":"Feature","properties":{"name":"RAJAMANNAR SALAI"},"geometry":{"type":"Point","coordinates":[80.199432,13.043593]}},{"type":"Feature","properties":{"name":"4TH AVENUE"},"geometry":{"type":"Point","coordinates":[80.215063,13.040444]}},{"type":"Feature","properties":{"name":"2ND AVENUE"},"geometry":{"type":"Point","coordinates":[80.214778,13.044478]}},{"type":"Feature","properties":{"name":"7TH AVENUE"},"geometry":{"type":"Point","coordinates":[80.216303,13.036532]}},{"type":"Feature","properties":{"name":"18TH AVENUE"},"geometry":{"type":"Point","coordinates":[80.210881,13.041473]}},{"type":"Feature","properties":{"name":"19TH AVENUE"},"geometry":{"type":"Point","coordinates":[80.211764,13.041583]}},{"type":"Feature","properties":{"name":"86TH STREET"},"geometry":{"type":"Point","coordinates":[80.207917,13.041208]}},{"type":"Feature","properties":{"name":"12TH AVENUE"},"geometry":{"type":"Point","coordinates":[80.21016,13.0315]}},{"type":"Feature","properties":{"name":"3RD AVENUE"},"geometry":{"type":"Point","coordinates":[80.213953,13.04381]}},{"type":"Feature","properties":{"name":"11TH AVENUE"},"geometry":{"type":"Point","coordinates":[80.217148,13.031327]}},{"type":"Feature","properties":{"name":"12TH AVENUE"},"geometry":{"type":"Point","coordinates":[80.216981,13.030981]}},{"type":"Feature","properties":{"name":"4TH AVENUE"},"geometry":{"type":"Point","coordinates":[80.218157,13.044885]}},{"type":"Feature","properties":{"name":"2ND AVENUE"},"geometry":{"type":"Point","coordinates":[80.217825,13.04342]}},{"type":"Feature","properties":{"name":"ARCOT ROAD"},"geometry":{"type":"Point","coordinates":[80.217748,13.051535]}},{"type":"Feature","properties":{"name":"DURAISAMY STREET"},"geometry":{"type":"Point","coordinates":[80.214536,13.048798]}},{"type":"Feature","properties":{"name":"POSTAL COLONY 4TH STREET"},"geometry":{"type":"Point","coordinates":[80.2177,13.035313]}},{"type":"Feature","properties":{"name":"Raja Gopal street"},"geometry":{"type":"Point","coordinates":[80.218886,13.04123]}},{"type":"Feature","properties":{"name":"RATHINAMMAL STREET"},"geometry":{"type":"Point","coordinates":[80.220182,13.048011]}},{"type":"Feature","properties":{"name":"RANGARAJA PURAM MAIN ROAD,Azeez Nagar"},"geometry":{"type":"Point","coordinates":[80.22311,13.047423]}},{"type":"Feature","properties":{"name":"RAILWAY BORDER ROAD"},"geometry":{"type":"Point","coordinates":[80.230364,13.052099]}},{"type":"Feature","properties":{"name":"Valliammal Garden"},"geometry":{"type":"Point","coordinates":[80.226815,13.045972]}},{"type":"Feature","properties":{"name":"ARCOT ROAD"},"geometry":{"type":"Point","coordinates":[80.225071,13.053525]}},{"type":"Feature","properties":{"name":"POSTAL COLONY 2ND STREET"},"geometry":{"type":"Point","coordinates":[80.219622,13.03646]}},{"type":"Feature","properties":{"name":"THAMBIAH ROAD"},"geometry":{"type":"Point","coordinates":[80.223851,13.039533]}},{"type":"Feature","properties":{"name":"SRINIVASA PILLAI STREET"},"geometry":{"type":"Point","coordinates":[80.222233,13.039482]}},{"type":"Feature","properties":{"name":"BRINDAVAN STREET"},"geometry":{"type":"Point","coordinates":[80.224515,13.042229]}},{"type":"Feature","properties":{"name":"NORTH USMAN STREET"},"geometry":{"type":"Point","coordinates":[80.232921,13.045891]}},{"type":"Feature","properties":{"name":"Ragaviah Road,"},"geometry":{"type":"Point","coordinates":[80.235673,13.043199]}},{"type":"Feature","properties":{"name":"Ramasamy salai"},"geometry":{"type":"Point","coordinates":[80.196171,13.041425]}},{"type":"Feature","properties":{"name":"LAKSHMANASAMY SALAI"},"geometry":{"type":"Point","coordinates":[80.196258,13.039413]}},{"type":"Feature","properties":{"name":"RAJAMANNAR SALAI"},"geometry":{"type":"Point","coordinates":[80.195496,13.04415]}},{"type":"Feature","properties":{"name":"Rajiv Gandhi Nagar"},"geometry":{"type":"Point","coordinates":[80.189121,13.032261]}},{"type":"Feature","properties":{"name":"E.S.I."},"geometry":{"type":"Point","coordinates":[80.207784,13.034528]}},{"type":"Feature","properties":{"name":"L.B road III street"},"geometry":{"type":"Point","coordinates":[80.255395,12.989013]}},{"type":"Feature","properties":{"name":"Indra Gandhi nagar"},"geometry":{"type":"Point","coordinates":[80.237239,12.982724]}},{"type":"Feature","properties":{"name":"VII avenue"},"geometry":{"type":"Point","coordinates":[80.263238,12.996195]}},{"type":"Feature","properties":{"name":"R.K.Nagar main road"},"geometry":{"type":"Point","coordinates":[80.258517,12.993728]}},{"type":"Feature","properties":{"name":"Valmigi street"},"geometry":{"type":"Point","coordinates":[80.259955,12.988187]}},{"type":"Feature","properties":{"name":"Kalakshetra colony I streets"},"geometry":{"type":"Point","coordinates":[80.259365,12.989731]}},{"type":"Feature","properties":{"name":"Thiruvalluvar nagar"},"geometry":{"type":"Point","coordinates":[80.263753,12.977586]}},{"type":"Feature","properties":{"name":"Journalist olony"},"geometry":{"type":"Point","coordinates":[80.260363,12.974366]}},{"type":"Feature","properties":{"name":"Bharathidasan street"},"geometry":{"type":"Point","coordinates":[80.260293,12.982447]}},{"type":"Feature","properties":{"name":"Ganapathy colony"},"geometry":{"type":"Point","coordinates":[80.25458,12.976781]}},{"type":"Feature","properties":{"name":"West Kamarajapuram"},"geometry":{"type":"Point","coordinates":[80.254912,12.985615]}},{"type":"Feature","properties":{"name":"Kalakshetra colony II streets"},"geometry":{"type":"Point","coordinates":[80.260274,12.990254]}},{"type":"Feature","properties":{"name":"Kalakshetra colony III streets"},"geometry":{"type":"Point","coordinates":[80.260652,12.990131]}},{"type":"Feature","properties":{"name":"Kanagam - Housing board"},"geometry":{"type":"Point","coordinates":[80.241823,12.992975]}},{"type":"Feature","properties":{"name":"I seaward road"},"geometry":{"type":"Point","coordinates":[80.26444,12.982562]}},{"type":"Feature","properties":{"name":"Rajaji nagar"},"geometry":{"type":"Point","coordinates":[80.257326,12.979018]}},{"type":"Feature","properties":{"name":"jeyachandran nagar 3rd main rd"},"geometry":{"type":"Point","coordinates":[80.198534,12.922921]}},{"type":"Feature","properties":{"name":"Medavakkam Main Road"},"geometry":{"type":"Point","coordinates":[80.192524,12.975297]}},{"type":"Feature","properties":{"name":"Ramakrishna Raj Nagar"},"geometry":{"type":"Point","coordinates":[80.207205,12.967507]}},{"type":"Feature","properties":{"name":"Ram Nagar North"},"geometry":{"type":"Point","coordinates":[80.213134,12.968976]}},{"type":"Feature","properties":{"name":"Ramalingam Nagar"},"geometry":{"type":"Point","coordinates":[80.208303,12.967487]}},{"type":"Feature","properties":{"name":"Balaji Nagar, Madipakkam, Chennai, Tamil Nadu,"},"geometry":{"type":"Point","coordinates":[80.203146,12.976]}},{"type":"Feature","properties":{"name":"Hindu Colony"},"geometry":{"type":"Point","coordinates":[80.198263,12.974539]}},{"type":"Feature","properties":{"name":"Sreenivasa Nagar"},"geometry":{"type":"Point","coordinates":[80.213465,12.966233]}},{"type":"Feature","properties":{"name":"OMR Jayandra Colony"},"geometry":{"type":"Point","coordinates":[80.250223,12.970799]}},{"type":"Feature","properties":{"name":"MGR salai EB Office"},"geometry":{"type":"Point","coordinates":[80.244657,12.976116]}},{"type":"Feature","properties":{"name":"kolavilliamman Nagar"},"geometry":{"type":"Point","coordinates":[80.252732,12.962382]}},{"type":"Feature","properties":{"name":"Kandasamy Nagar"},"geometry":{"type":"Point","coordinates":[80.254961,12.96652]}},{"type":"Feature","properties":{"name":"Venkateswara Nagar"},"geometry":{"type":"Point","coordinates":[80.245665,12.951658]}},{"type":"Feature","properties":{"name":"Rajiv nagar 2nd main raod"},"geometry":{"type":"Point","coordinates":[80.23659,12.957825]}},{"type":"Feature","properties":{"name":"Elim nagar"},"geometry":{"type":"Point","coordinates":[80.238353,12.960579]}},{"type":"Feature","properties":{"name":"L I C Nagar, madipakkam"},"geometry":{"type":"Point","coordinates":[80.202152,12.953586]}},{"type":"Feature","properties":{"name":"Periyar nagar Extn. 3rd Street"},"geometry":{"type":"Point","coordinates":[80.201644,12.957338]}},{"type":"Feature","properties":{"name":"Rajesh Nagar"},"geometry":{"type":"Point","coordinates":[80.206614,12.943577]}},{"type":"Feature","properties":{"name":"Velachery Tambaram Main Road"},"geometry":{"type":"Point","coordinates":[80.21186,12.953231]}},{"type":"Feature","properties":{"name":"kamatachi nagar"},"geometry":{"type":"Point","coordinates":[80.215956,12.941441]}},{"type":"Feature","properties":{"name":"perumal koil street"},"geometry":{"type":"Point","coordinates":[80.202747,12.934239]}},{"type":"Feature","properties":{"name":"sai ganesh nagar"},"geometry":{"type":"Point","coordinates":[80.210542,12.924804]}},{"type":"Feature","properties":{"name":"veeramani street"},"geometry":{"type":"Point","coordinates":[80.199591,12.955956]}},{"type":"Feature","properties":{"name":"Burma Colony"},"geometry":{"type":"Point","coordinates":[80.24685,12.959536]}},{"type":"Feature","properties":{"name":"Bethal Nagar"},"geometry":{"type":"Point","coordinates":[80.245375,12.922495]}},{"type":"Feature","properties":{"name":"OMR, Thoraipakkam, MCN Nagar 5th street"},"geometry":{"type":"Point","coordinates":[80.23526,12.94522]}},{"type":"Feature","properties":{"name":"Tsunami Nagar"},"geometry":{"type":"Point","coordinates":[80.210582,12.875609]}},{"type":"Feature","properties":{"name":"Kazura Garden"},"geometry":{"type":"Point","coordinates":[80.251153,12.95685]}},{"type":"Feature","properties":{"name":"Senganiamman Koil st"},"geometry":{"type":"Point","coordinates":[80.253312,12.950851]}},{"type":"Feature","properties":{"name":"CLRI Nagar"},"geometry":{"type":"Point","coordinates":[80.250953,12.946804]}},{"type":"Feature","properties":{"name":"Ruby Complex"},"geometry":{"type":"Point","coordinates":[80.25328,12.946968]}},{"type":"Feature","properties":{"name":"Ellaiamman Koil St"},"geometry":{"type":"Point","coordinates":[80.250133,12.948359]}},{"type":"Feature","properties":{"name":"Saraswathi Nagr"},"geometry":{"type":"Point","coordinates":[80.250253,12.948982]}},{"type":"Feature","properties":{"name":"OMR,Mettukuppam Bus Stand (VPG Avenue)"},"geometry":{"type":"Point","coordinates":[80.236313,12.940731]}},{"type":"Feature","properties":{"name":"OMR Near Anjappar Restaurant"},"geometry":{"type":"Point","coordinates":[80.231078,12.926788]}},{"type":"Feature","properties":{"name":"MRG Nagar"},"geometry":{"type":"Point","coordinates":[80.234262,12.933197]}},{"type":"Feature","properties":{"name":"Madhakoil Street"},"geometry":{"type":"Point","coordinates":[80.231693,12.925807]}},{"type":"Feature","properties":{"name":"Kannagi Nagar II Main Road"},"geometry":{"type":"Point","coordinates":[80.238555,12.929063]}},{"type":"Feature","properties":{"name":"Kannagi Nagr VIII & IX Main Road"},"geometry":{"type":"Point","coordinates":[80.240489,12.927402]}},{"type":"Feature","properties":{"name":"ECR,VGP,Injambakkam"},"geometry":{"type":"Point","coordinates":[80.250349,12.914269]}},{"type":"Feature","properties":{"name":"Hanuman Colony"},"geometry":{"type":"Point","coordinates":[80.247905,12.931268]}},{"type":"Feature","properties":{"name":"Cholamandala Nagar"},"geometry":{"type":"Point","coordinates":[80.253754,12.923057]}},{"type":"Feature","properties":{"name":"OMR, SANMAR, KARAPAKKAM"},"geometry":{"type":"Point","coordinates":[80.231099,12.921573]}},{"type":"Feature","properties":{"name":"TCS, Karapakkam"},"geometry":{"type":"Point","coordinates":[80.229226,12.919305]}},{"type":"Feature","properties":{"name":"OMR, Karapakkam"},"geometry":{"type":"Point","coordinates":[80.229851,12.918257]}},{"type":"Feature","properties":{"name":"OMR, Shozhanganallur"},"geometry":{"type":"Point","coordinates":[80.227884,12.900009]}},{"type":"Feature","properties":{"name":"Lalbhadur Sastri Street, Karapakkam"},"geometry":{"type":"Point","coordinates":[80.230641,12.906613]}},{"type":"Feature","properties":{"name":"OMR Natesan Avenue"},"geometry":{"type":"Point","coordinates":[80.231043,12.915537]}},{"type":"Feature","properties":{"name":"OMR, Pathima Illam"},"geometry":{"type":"Point","coordinates":[80.229107,12.910801]}},{"type":"Feature","properties":{"name":"Nainar kuppam, Rathna street"},"geometry":{"type":"Point","coordinates":[80.24963,12.875244]}},{"type":"Feature","properties":{"name":"OMR Sathyabama College Main Road"},"geometry":{"type":"Point","coordinates":[80.226286,12.872989]}},{"type":"Feature","properties":{"name":"Egambaradhabadar Street"},"geometry":{"type":"Point","coordinates":[80.20375,13.003323]}},{"type":"Feature","properties":{"name":"MKN Road"},"geometry":{"type":"Point","coordinates":[80.207586,13.003365]}},{"type":"Feature","properties":{"name":"Amma Unavagam"},"geometry":{"type":"Point","coordinates":[80.202903,13.005025]}},{"type":"Feature","properties":{"name":"Jeevan Nagar"},"geometry":{"type":"Point","coordinates":[80.197046,12.991134]}},{"type":"Feature","properties":{"name":"Musthangori Street"},"geometry":{"type":"Point","coordinates":[80.203001,12.995371]}},{"type":"Feature","properties":{"name":"Railway Station Service Road"},"geometry":{"type":"Point","coordinates":[80.199922,12.996013]}},{"type":"Feature","properties":{"name":"Subway Road"},"geometry":{"type":"Point","coordinates":[80.201249,12.994742]}},{"type":"Feature","properties":{"name":"Raja Street"},"geometry":{"type":"Point","coordinates":[80.199968,12.998192]}},{"type":"Feature","properties":{"name":"Thillai Ganga Nagar 27th Street"},"geometry":{"type":"Point","coordinates":[80.193801,12.988193]}},{"type":"Feature","properties":{"name":"28th Street"},"geometry":{"type":"Point","coordinates":[80.193997,12.987688]}},{"type":"Feature","properties":{"name":"29th Street"},"geometry":{"type":"Point","coordinates":[80.193748,12.98726]}},{"type":"Feature","properties":{"name":"Kannan Colony"},"geometry":{"type":"Point","coordinates":[80.188226,12.992883]}},{"type":"Feature","properties":{"name":"Shanthi Nagar"},"geometry":{"type":"Point","coordinates":[80.199357,12.987206]}},{"type":"Feature","properties":{"name":"Gandhi Salai"},"geometry":{"type":"Point","coordinates":[80.184667,12.987409]}},{"type":"Feature","properties":{"name":"Nilamangai Nagar"},"geometry":{"type":"Point","coordinates":[80.202528,12.983108]}},{"type":"Feature","properties":{"name":"Tagore Street"},"geometry":{"type":"Point","coordinates":[80.202099,12.981684]}},{"type":"Feature","properties":{"name":"Vallalar Street"},"geometry":{"type":"Point","coordinates":[80.201269,12.982766]}},{"type":"Feature","properties":{"name":"Income tax colony 1st Street"},"geometry":{"type":"Point","coordinates":[80.20323,12.984439]}},{"type":"Feature","properties":{"name":"Tamarai Street"},"geometry":{"type":"Point","coordinates":[80.203447,12.980459]}},{"type":"Feature","properties":{"name":"Mullai Street"},"geometry":{"type":"Point","coordinates":[80.203851,12.980517]}},{"type":"Feature","properties":{"name":"Bhuvaneswari Nagar"},"geometry":{"type":"Point","coordinates":[80.205812,12.979494]}},{"type":"Feature","properties":{"name":"Vel Nagar"},"geometry":{"type":"Point","coordinates":[80.200588,12.983238]}},{"type":"Feature","properties":{"name":"Bharathidasan Nagar"},"geometry":{"type":"Point","coordinates":[80.203809,12.977367]}},{"type":"Feature","properties":{"name":"Bharath Nagar"},"geometry":{"type":"Point","coordinates":[80.200373,12.9852]}},{"type":"Feature","properties":{"name":"BV Nagar"},"geometry":{"type":"Point","coordinates":[80.177976,12.981241]}},{"type":"Feature","properties":{"name":"Nanganallur 44th Street"},"geometry":{"type":"Point","coordinates":[80.187049,12.982018]}},{"type":"Feature","properties":{"name":"TNGO Colony main Road"},"geometry":{"type":"Point","coordinates":[80.187063,12.979822]}},{"type":"Feature","properties":{"name":"Nanganallur 46th Street,"},"geometry":{"type":"Point","coordinates":[80.187919,12.980075]}},{"type":"Feature","properties":{"name":"Lakshmi Nagar 1st Street"},"geometry":{"type":"Point","coordinates":[80.189289,12.980008]}},{"type":"Feature","properties":{"name":"Lakshmi Nagar 2nd Street"},"geometry":{"type":"Point","coordinates":[80.189205,12.979536]}},{"type":"Feature","properties":{"name":"Vel Nagar Extn"},"geometry":{"type":"Point","coordinates":[80.202479,12.981844]}},{"type":"Feature","properties":{"name":"Indira Nagar"},"geometry":{"type":"Point","coordinates":[80.195461,12.984199]}},{"type":"Feature","properties":{"name":"100' roa Near Olympia"},"geometry":{"type":"Point","coordinates":[80.204605,13.015043]}},{"type":"Feature","properties":{"name":"Kalaimagal nagar"},"geometry":{"type":"Point","coordinates":[80.206461,13.026355]}},{"type":"Feature","properties":{"name":"Balaji nagar"},"geometry":{"type":"Point","coordinates":[80.20483,13.023332]}},{"type":"Feature","properties":{"name":"Nagi reddy garden"},"geometry":{"type":"Point","coordinates":[80.211203,13.018335]}},{"type":"Feature","properties":{"name":"Gandhi mandapam road"},"geometry":{"type":"Point","coordinates":[80.240428,13.012983]}},{"type":"Feature","properties":{"name":"Srinagar colony"},"geometry":{"type":"Point","coordinates":[80.230687,13.014196]}},{"type":"Feature","properties":{"name":"West CIT nagar"},"geometry":{"type":"Point","coordinates":[80.230166,13.028621]}},{"type":"Feature","properties":{"name":"Link road"},"geometry":{"type":"Point","coordinates":[80.232285,13.020039]}},{"type":"Feature","properties":{"name":"Venkatapuram"},"geometry":{"type":"Point","coordinates":[80.225,13.013046]}},{"type":"Feature","properties":{"name":"River view road"},"geometry":{"type":"Point","coordinates":[80.245096,13.023269]}},{"type":"Feature","properties":{"name":"Chitra nagar"},"geometry":{"type":"Point","coordinates":[80.239935,13.024043]}},{"type":"Feature","properties":{"name":"Peeliamman koil street"},"geometry":{"type":"Point","coordinates":[80.246029,13.012753]}},{"type":"Feature","properties":{"name":"Karpagam avenue"},"geometry":{"type":"Point","coordinates":[80.268881,13.021617]}},{"type":"Feature","properties":{"name":"Dr.D.G.S.Dinakaran salai"},"geometry":{"type":"Point","coordinates":[80.265856,13.018649]}},{"type":"Feature","properties":{"name":"MRC Nagar"},"geometry":{"type":"Point","coordinates":[80.270555,13.018921]}},{"type":"Feature","properties":{"name":"May flower garden"},"geometry":{"type":"Point","coordinates":[80.260577,13.021837]}},{"type":"Feature","properties":{"name":"R.K.Nagar IV cross street"},"geometry":{"type":"Point","coordinates":[80.26076,13.023018]}},{"type":"Feature","properties":{"name":"P.S.K Salai"},"geometry":{"type":"Point","coordinates":[80.253603,13.0203]}},{"type":"Feature","properties":{"name":"Nehru nagar"},"geometry":{"type":"Point","coordinates":[80.214443,12.994438]}},{"type":"Feature","properties":{"name":"Veerapandiya kattabomman street"},"geometry":{"type":"Point","coordinates":[80.216685,12.993288]}},{"type":"Feature","properties":{"name":"Manthoppu II lane"},"geometry":{"type":"Point","coordinates":[80.212394,13.001035]}},{"type":"Feature","properties":{"name":"Five Furlong road"},"geometry":{"type":"Point","coordinates":[80.21337,13.000659]}},{"type":"Feature","properties":{"name":"Pillaiyar koil lane"},"geometry":{"type":"Point","coordinates":[80.210742,12.999749]}},{"type":"Feature","properties":{"name":"Vandikaran street"},"geometry":{"type":"Point","coordinates":[80.211053,12.997146]}},{"type":"Feature","properties":{"name":"Race course road"},"geometry":{"type":"Point","coordinates":[80.212394,13.004673]}},{"type":"Feature","properties":{"name":"City limit road"},"geometry":{"type":"Point","coordinates":[80.207963,12.996613]}},{"type":"Feature","properties":{"name":"Velachery main"},"geometry":{"type":"Point","coordinates":[80.218113,12.993519]}}]}