{
  "type": "FeatureCollection",
  "features": [
    {
      "type": "Feature",
      "properties": {
        "name": "High-Res Topo Anna Univ/HEC-HMS/MIKE FLOOD 2005/2015 validated (Springer 2026)",
        "source": "https://link.springer.com/article/10.1007/s44327-026-00238-8",
        "note": "Missing gap — now added (KML->GeoJSON stub, replace with real download)"
      },
      "geometry": {
        "type": "Polygon",
        "coordinates": [
          [
            [
              80.18,
              12.98
            ],
            [
              80.28,
              12.98
            ],
            [
              80.28,
              13.08
            ],
            [
              80.18,
              13.08
            ],
            [
              80.18,
              12.98
            ]
          ]
        ]
      }
    },
    {
      "type": "Feature",
      "properties": {
        "name": "High-Res Topo Anna Univ/HEC-HMS/MIKE FLOOD 2005/2015 validated (Springer 2026) (2)",
        "source": "https://link.springer.com/article/10.1007/s44327-026-00238-8",
        "note": "Missing gap — now added (KML->GeoJSON stub, replace with real download)"
      },
      "geometry": {
        "type": "Point",
        "coordinates": [
          80.22,
          13.03
        ]
      }
    }
  ]
}