{
  "type": "FeatureCollection",
  "features": [
    {
      "type": "Feature",
      "properties": {
        "name": "Flood Sensor Data — Chennai Environmental (CSCL City Data Exchange Live)",
        "source": "https://opendata.cscl.co.in/dataset/chennai-environmental",
        "note": "Final gap audit — now added"
      },
      "geometry": {
        "type": "Polygon",
        "coordinates": [
          [
            [
              80.18,
              12.98
            ],
            [
              80.28,
              12.98
            ],
            [
              80.28,
              13.08
            ],
            [
              80.18,
              13.08
            ],
            [
              80.18,
              12.98
            ]
          ]
        ]
      }
    },
    {
      "type": "Feature",
      "properties": {
        "name": "Flood Sensor Data — Chennai Environmental (CSCL City Data Exchange Live) (2)",
        "source": "https://opendata.cscl.co.in/dataset/chennai-environmental",
        "note": "Final gap audit — now added"
      },
      "geometry": {
        "type": "Point",
        "coordinates": [
          80.22,
          13.03
        ]
      }
    }
  ]
}