{"type":"FeatureCollection","crs":{"type":"name","properties":{"name":"urn:ogc:def:crs:OGC:1.3:CRS84"}},"features":[{"type":"Feature","properties":{},"geometry":{"type":"Point","coordinates":[80.266212,13.099347]}},{"type":"Feature","properties":{},"geometry":{"type":"Point","coordinates":[80.268179,13.097381]}},{"type":"Feature","properties":{},"geometry":{"type":"Point","coordinates":[80.266396,13.107538]}},{"type":"Feature","properties":{},"geometry":{"type":"Point","coordinates":[80.265926,13.107719]}},{"type":"Feature","properties":{},"geometry":{"type":"Point","coordinates":[80.26465,13.106809]}},{"type":"Feature","properties":{},"geometry":{"type":"Point","coordinates":[80.263454,13.10647]}},{"type":"Feature","properties":{},"geometry":{"type":"Point","coordinates":[80.267266,13.106078]}},{"type":"Feature","properties":{},"geometry":{"type":"Point","coordinates":[80.261893,13.106234]}},{"type":"Feature","properties":{},"geometry":{"type":"Point","coordinates":[80.263075,13.103747]}},{"type":"Feature","properties":{},"geometry":{"type":"Point","coordinates":[80.231981,13.121989]}},{"type":"Feature","properties":{},"geometry":{"type":"Point","coordinates":[80.231953,13.121063]}},{"type":"Feature","properties":{},"geometry":{"type":"Point","coordinates":[80.230433,13.118387]}},{"type":"Feature","properties":{},"geometry":{"type":"Point","coordinates":[80.237903,13.117077]}},{"type":"Feature","properties":{},"geometry":{"type":"Point","coordinates":[80.263544,13.107373]}},{"type":"Feature","properties":{},"geometry":{"type":"Point","coordinates":[80.267612,13.102228]}},{"type":"Feature","properties":{},"geometry":{"type":"Point","coordinates":[80.245901,13.104159]}},{"type":"Feature","properties":{},"geometry":{"type":"Point","coordinates":[80.24491,13.104522]}},{"type":"Feature","properties":{},"geometry":{"type":"Point","coordinates":[80.247732,13.102663]}},{"type":"Feature","properties":{},"geometry":{"type":"Point","coordinates":[80.252255,13.099008]}},{"type":"Feature","properties":{},"geometry":{"type":"Point","coordinates":[80.244456,13.110563]}},{"type":"Feature","properties":{},"geometry":{"type":"Point","coordinates":[80.245918,13.106512]}},{"type":"Feature","properties":{},"geometry":{"type":"Point","coordinates":[80.249103,13.099943]}},{"type":"Feature","properties":{},"geometry":{"type":"Point","coordinates":[80.246221,13.102653]}},{"type":"Feature","properties":{},"geometry":{"type":"Point","coordinates":[80.243301,13.105958]}},{"type":"Feature","properties":{},"geometry":{"type":"Point","coordinates":[80.244876,13.106204]}},{"type":"Feature","properties":{},"geometry":{"type":"Point","coordinates":[80.258321,13.099283]}},{"type":"Feature","properties":{},"geometry":{"type":"Point","coordinates":[80.266487,13.104811]}},{"type":"Feature","properties":{},"geometry":{"type":"Point","coordinates":[80.261891,13.102313]}},{"type":"Feature","properties":{},"geometry":{"type":"Point","coordinates":[80.266508,13.096907]}},{"type":"Feature","properties":{},"geometry":{"type":"Point","coordinates":[80.265119,13.096936]}},{"type":"Feature","properties":{},"geometry":{"type":"Point","coordinates":[80.267409,13.096951]}},{"type":"Feature","properties":{},"geometry":{"type":"Point","coordinates":[80.265587,13.095831]}},{"type":"Feature","properties":{},"geometry":{"type":"Point","coordinates":[80.23588,13.122318]}},{"type":"Feature","properties":{},"geometry":{"type":"Point","coordinates":[80.239719,13.117899]}},{"type":"Feature","properties":{},"geometry":{"type":"Point","coordinates":[80.238756,13.11822]}},{"type":"Feature","properties":{},"geometry":{"type":"Point","coordinates":[80.235641,13.117742]}},{"type":"Feature","properties":{},"geometry":{"type":"Point","coordinates":[80.239261,13.121514]}},{"type":"Feature","properties":{},"geometry":{"type":"Point","coordinates":[80.236492,13.115793]}},{"type":"Feature","properties":{},"geometry":{"type":"Point","coordinates":[80.242619,13.123838]}},{"type":"Feature","properties":{},"geometry":{"type":"Point","coordinates":[80.2432,13.11621]}},{"type":"Feature","properties":{},"geometry":{"type":"Point","coordinates":[80.236485,13.100096]}},{"type":"Feature","properties":{},"geometry":{"type":"Point","coordinates":[80.242411,13.101375]}},{"type":"Feature","properties":{},"geometry":{"type":"Point","coordinates":[80.24241,13.104386]}},{"type":"Feature","properties":{},"geometry":{"type":"Point","coordinates":[80.237971,13.100294]}},{"type":"Feature","properties":{},"geometry":{"type":"Point","coordinates":[80.233822,13.111436]}},{"type":"Feature","properties":{},"geometry":{"type":"Point","coordinates":[80.264427,13.097404]}},{"type":"Feature","properties":{},"geometry":{"type":"Point","coordinates":[80.259811,13.094642]}},{"type":"Feature","properties":{},"geometry":{"type":"Point","coordinates":[80.245728,13.092905]}},{"type":"Feature","properties":{},"geometry":{"type":"Point","coordinates":[80.207805,13.120362]}},{"type":"Feature","properties":{},"geometry":{"type":"Point","coordinates":[80.212039,13.114687]}},{"type":"Feature","properties":{},"geometry":{"type":"Point","coordinates":[80.219583,13.12554]}},{"type":"Feature","properties":{},"geometry":{"type":"Point","coordinates":[80.209324,13.12846]}},{"type":"Feature","properties":{},"geometry":{"type":"Point","coordinates":[80.211194,13.122189]}},{"type":"Feature","properties":{},"geometry":{"type":"Point","coordinates":[80.249178,13.094681]}},{"type":"Feature","properties":{},"geometry":{"type":"Point","coordinates":[80.240228,13.117854]}},{"type":"Feature","properties":{},"geometry":{"type":"Point","coordinates":[80.235927,13.122885]}},{"type":"Feature","properties":{},"geometry":{"type":"Point","coordinates":[80.212754,13.124246]}},{"type":"Feature","properties":{},"geometry":{"type":"Point","coordinates":[80.260458,13.110408]}},{"type":"Feature","properties":{},"geometry":{"type":"Point","coordinates":[80.306067,13.163966]}},{"type":"Feature","properties":{},"geometry":{"type":"Point","coordinates":[80.256701,13.094922]}},{"type":"Feature","properties":{},"geometry":{"type":"Point","coordinates":[80.260736,13.094154]}},{"type":"Feature","properties":{},"geometry":{"type":"Point","coordinates":[80.263975,13.103162]}},{"type":"Feature","properties":{},"geometry":{"type":"Point","coordinates":[80.256832,13.094208]}},{"type":"Feature","properties":{},"geometry":{"type":"Point","coordinates":[80.264278,13.102517]}},{"type":"Feature","properties":{},"geometry":{"type":"Point","coordinates":[80.26517,13.103194]}},{"type":"Feature","properties":{},"geometry":{"type":"Point","coordinates":[80.23223,13.125245]}},{"type":"Feature","properties":{},"geometry":{"type":"Point","coordinates":[80.235776,13.1142]}},{"type":"Feature","properties":{},"geometry":{"type":"Point","coordinates":[80.202436,13.062376]}},{"type":"Feature","properties":{},"geometry":{"type":"Point","coordinates":[80.192955,13.061334]}},{"type":"Feature","properties":{},"geometry":{"type":"Point","coordinates":[80.245721,13.096832]}},{"type":"Feature","properties":{},"geometry":{"type":"Point","coordinates":[80.24798,13.103987]}},{"type":"Feature","properties":{},"geometry":{"type":"Point","coordinates":[80.247161,13.09993]}},{"type":"Feature","properties":{},"geometry":{"type":"Point","coordinates":[80.254982,13.107234]}},{"type":"Feature","properties":{},"geometry":{"type":"Point","coordinates":[80.24628,13.090295]}},{"type":"Feature","properties":{},"geometry":{"type":"Point","coordinates":[80.231148,13.108216]}},{"type":"Feature","properties":{},"geometry":{"type":"Point","coordinates":[80.265503,13.098028]}},{"type":"Feature","properties":{},"geometry":{"type":"Point","coordinates":[80.265997,13.097449]}},{"type":"Feature","properties":{},"geometry":{"type":"Point","coordinates":[80.256944,13.096288]}},{"type":"Feature","properties":{},"geometry":{"type":"Point","coordinates":[80.252564,13.091558]}},{"type":"Feature","properties":{},"geometry":{"type":"Point","coordinates":[80.26363,13.097342]}},{"type":"Feature","properties":{},"geometry":{"type":"Point","coordinates":[80.271166,13.129057]}},{"type":"Feature","properties":{},"geometry":{"type":"Point","coordinates":[80.266182,13.100412]}},{"type":"Feature","properties":{},"geometry":{"type":"Point","coordinates":[80.234786,13.109993]}},{"type":"Feature","properties":{},"geometry":{"type":"Point","coordinates":[80.235024,13.111435]}},{"type":"Feature","properties":{},"geometry":{"type":"Point","coordinates":[80.233808,13.109747]}},{"type":"Feature","properties":{},"geometry":{"type":"Point","coordinates":[80.233411,13.112169]}},{"type":"Feature","properties":{},"geometry":{"type":"Point","coordinates":[80.252579,13.098136]}},{"type":"Feature","properties":{},"geometry":{"type":"Point","coordinates":[80.252597,13.091971]}},{"type":"Feature","properties":{},"geometry":{"type":"Point","coordinates":[80.236643,13.110507]}},{"type":"Feature","properties":{},"geometry":{"type":"Point","coordinates":[80.251088,13.097581]}},{"type":"Feature","properties":{},"geometry":{"type":"Point","coordinates":[80.253472,13.099433]}},{"type":"Feature","properties":{},"geometry":{"type":"Point","coordinates":[80.246734,13.102553]}},{"type":"Feature","properties":{},"geometry":{"type":"Point","coordinates":[80.254438,13.108078]}},{"type":"Feature","properties":{},"geometry":{"type":"Point","coordinates":[80.253912,13.107661]}},{"type":"Feature","properties":{},"geometry":{"type":"Point","coordinates":[80.307306,13.163154]}},{"type":"Feature","properties":{},"geometry":{"type":"Point","coordinates":[80.306297,13.159682]}},{"type":"Feature","properties":{},"geometry":{"type":"Point","coordinates":[80.3068,13.161354]}},{"type":"Feature","properties":{},"geometry":{"type":"Point","coordinates":[80.306157,13.15893]}},{"type":"Feature","properties":{},"geometry":{"type":"Point","coordinates":[80.253682,13.107017]}},{"type":"Feature","properties":{},"geometry":{"type":"Point","coordinates":[80.217616,13.097549]}},{"type":"Feature","properties":{},"geometry":{"type":"Point","coordinates":[80.240597,13.085224]}},{"type":"Feature","properties":{},"geometry":{"type":"Point","coordinates":[80.205248,13.104454]}},{"type":"Feature","properties":{},"geometry":{"type":"Point","coordinates":[80.213135,13.108004]}},{"type":"Feature","properties":{},"geometry":{"type":"Point","coordinates":[80.205509,13.114374]}},{"type":"Feature","properties":{},"geometry":{"type":"Point","coordinates":[80.196553,13.107797]}},{"type":"Feature","properties":{},"geometry":{"type":"Point","coordinates":[80.196713,13.10307]}},{"type":"Feature","properties":{},"geometry":{"type":"Point","coordinates":[80.25124,13.088186]}},{"type":"Feature","properties":{},"geometry":{"type":"Point","coordinates":[80.198321,13.109057]}},{"type":"Feature","properties":{},"geometry":{"type":"Point","coordinates":[80.197798,13.108121]}},{"type":"Feature","properties":{},"geometry":{"type":"Point","coordinates":[80.201312,13.104465]}},{"type":"Feature","properties":{},"geometry":{"type":"Point","coordinates":[80.250533,13.089494]}},{"type":"Feature","properties":{},"geometry":{"type":"Point","coordinates":[80.217653,13.097281]}},{"type":"Feature","properties":{},"geometry":{"type":"Point","coordinates":[80.23434,13.093699]}},{"type":"Feature","properties":{},"geometry":{"type":"Point","coordinates":[80.230898,13.079705]}},{"type":"Feature","properties":{},"geometry":{"type":"Point","coordinates":[80.233853,13.079755]}},{"type":"Feature","properties":{},"geometry":{"type":"Point","coordinates":[80.229847,13.068283]}},{"type":"Feature","properties":{},"geometry":{"type":"Point","coordinates":[80.220713,13.068379]}},{"type":"Feature","properties":{},"geometry":{"type":"Point","coordinates":[80.226199,13.071739]}},{"type":"Feature","properties":{},"geometry":{"type":"Point","coordinates":[80.22182,13.067819]}},{"type":"Feature","properties":{},"geometry":{"type":"Point","coordinates":[80.208585,13.061192]}},{"type":"Feature","properties":{},"geometry":{"type":"Point","coordinates":[80.218912,13.067993]}},{"type":"Feature","properties":{},"geometry":{"type":"Point","coordinates":[80.232324,13.079569]}},{"type":"Feature","properties":{},"geometry":{"type":"Point","coordinates":[80.230377,13.079309]}},{"type":"Feature","properties":{},"geometry":{"type":"Point","coordinates":[80.244948,13.075229]}},{"type":"Feature","properties":{},"geometry":{"type":"Point","coordinates":[80.249476,13.077145]}},{"type":"Feature","properties":{},"geometry":{"type":"Point","coordinates":[80.197568,13.084431]}},{"type":"Feature","properties":{},"geometry":{"type":"Point","coordinates":[80.252131,13.077747]}},{"type":"Feature","properties":{},"geometry":{"type":"Point","coordinates":[80.23079,13.091551]}},{"type":"Feature","properties":{},"geometry":{"type":"Point","coordinates":[80.205432,13.102786]}},{"type":"Feature","properties":{},"geometry":{"type":"Point","coordinates":[80.224327,13.071999]}},{"type":"Feature","properties":{},"geometry":{"type":"Point","coordinates":[80.200885,13.10913]}},{"type":"Feature","properties":{},"geometry":{"type":"Point","coordinates":[80.238204,13.093897]}},{"type":"Feature","properties":{},"geometry":{"type":"Point","coordinates":[80.200201,13.079211]}},{"type":"Feature","properties":{},"geometry":{"type":"Point","coordinates":[80.22901,13.068938]}},{"type":"Feature","properties":{},"geometry":{"type":"Point","coordinates":[80.226971,13.091112]}},{"type":"Feature","properties":{},"geometry":{"type":"Point","coordinates":[80.25265,13.090874]}},{"type":"Feature","properties":{},"geometry":{"type":"Point","coordinates":[80.195782,13.078981]}},{"type":"Feature","properties":{},"geometry":{"type":"Point","coordinates":[80.203098,13.075582]}},{"type":"Feature","properties":{},"geometry":{"type":"Point","coordinates":[80.221892,13.074821]}},{"type":"Feature","properties":{},"geometry":{"type":"Point","coordinates":[80.226102,13.018794]}},{"type":"Feature","properties":{},"geometry":{"type":"Point","coordinates":[80.212272,13.01865]}},{"type":"Feature","properties":{},"geometry":{"type":"Point","coordinates":[80.212176,13.006821]}},{"type":"Feature","properties":{},"geometry":{"type":"Point","coordinates":[80.243664,12.995785]}},{"type":"Feature","properties":{},"geometry":{"type":"Point","coordinates":[80.214502,13.016477]}},{"type":"Feature","properties":{},"geometry":{"type":"Point","coordinates":[80.21068,13.019493]}},{"type":"Feature","properties":{},"geometry":{"type":"Point","coordinates":[80.219752,13.002746]}},{"type":"Feature","properties":{},"geometry":{"type":"Point","coordinates":[80.212304,13.004239]}},{"type":"Feature","properties":{},"geometry":{"type":"Point","coordinates":[80.225147,13.016408]}},{"type":"Feature","properties":{},"geometry":{"type":"Point","coordinates":[80.225467,13.016393]}},{"type":"Feature","properties":{},"geometry":{"type":"Point","coordinates":[80.226027,13.01718]}},{"type":"Feature","properties":{},"geometry":{"type":"Point","coordinates":[80.236601,13.018268]}},{"type":"Feature","properties":{},"geometry":{"type":"Point","coordinates":[80.227748,13.029421]}},{"type":"Feature","properties":{},"geometry":{"type":"Point","coordinates":[80.207053,13.021931]}},{"type":"Feature","properties":{},"geometry":{"type":"Point","coordinates":[80.240092,13.024074]}},{"type":"Feature","properties":{},"geometry":{"type":"Point","coordinates":[80.243656,13.01492]}},{"type":"Feature","properties":{},"geometry":{"type":"Point","coordinates":[80.241037,13.024285]}},{"type":"Feature","properties":{},"geometry":{"type":"Point","coordinates":[80.225733,13.029466]}},{"type":"Feature","properties":{},"geometry":{"type":"Point","coordinates":[80.247249,13.014735]}},{"type":"Feature","properties":{},"geometry":{"type":"Point","coordinates":[80.239396,13.02371]}},{"type":"Feature","properties":{},"geometry":{"type":"Point","coordinates":[80.240157,13.024957]}},{"type":"Feature","properties":{},"geometry":{"type":"Point","coordinates":[80.22601,13.013906]}},{"type":"Feature","properties":{},"geometry":{"type":"Point","coordinates":[80.243525,13.024928]}},{"type":"Feature","properties":{},"geometry":{"type":"Point","coordinates":[80.187981,13.091461]}},{"type":"Feature","properties":{},"geometry":{"type":"Point","coordinates":[80.19108,13.094113]}},{"type":"Feature","properties":{},"geometry":{"type":"Point","coordinates":[80.212088,13.001652]}},{"type":"Feature","properties":{},"geometry":{"type":"Point","coordinates":[80.212794,13.001785]}},{"type":"Feature","properties":{},"geometry":{"type":"Point","coordinates":[80.252711,12.989668]}},{"type":"Feature","properties":{},"geometry":{"type":"Point","coordinates":[80.253309,12.988886]}},{"type":"Feature","properties":{},"geometry":{"type":"Point","coordinates":[80.230747,13.0239]}},{"type":"Feature","properties":{},"geometry":{"type":"Point","coordinates":[80.260908,13.019676]}},{"type":"Feature","properties":{},"geometry":{"type":"Point","coordinates":[80.259881,13.022771]}},{"type":"Feature","properties":{},"geometry":{"type":"Point","coordinates":[80.261754,13.02088]}},{"type":"Feature","properties":{},"geometry":{"type":"Point","coordinates":[80.243295,12.992501]}},{"type":"Feature","properties":{},"geometry":{"type":"Point","coordinates":[80.264136,12.984915]}},{"type":"Feature","properties":{},"geometry":{"type":"Point","coordinates":[80.259984,12.9795]}},{"type":"Feature","properties":{},"geometry":{"type":"Point","coordinates":[80.256853,12.994944]}},{"type":"Feature","properties":{},"geometry":{"type":"Point","coordinates":[80.26442,12.985143]}},{"type":"Feature","properties":{},"geometry":{"type":"Point","coordinates":[80.266268,13.023937]}},{"type":"Feature","properties":{},"geometry":{"type":"Point","coordinates":[80.253351,12.980473]}},{"type":"Feature","properties":{},"geometry":{"type":"Point","coordinates":[80.229593,12.984919]}},{"type":"Feature","properties":{},"geometry":{"type":"Point","coordinates":[80.2539,12.977792]}},{"type":"Feature","properties":{},"geometry":{"type":"Point","coordinates":[80.265194,12.984869]}},{"type":"Feature","properties":{},"geometry":{"type":"Point","coordinates":[80.262295,12.992196]}},{"type":"Feature","properties":{},"geometry":{"type":"Point","coordinates":[80.178487,13.093455]}},{"type":"Feature","properties":{},"geometry":{"type":"Point","coordinates":[80.188576,13.098825]}},{"type":"Feature","properties":{},"geometry":{"type":"Point","coordinates":[80.187896,13.098861]}},{"type":"Feature","properties":{},"geometry":{"type":"Point","coordinates":[80.192019,13.086605]}},{"type":"Feature","properties":{},"geometry":{"type":"Point","coordinates":[80.19161,13.084996]}},{"type":"Feature","properties":{},"geometry":{"type":"Point","coordinates":[80.167451,13.110289]}},{"type":"Feature","properties":{},"geometry":{"type":"Point","coordinates":[80.166436,13.110195]}},{"type":"Feature","properties":{},"geometry":{"type":"Point","coordinates":[80.168658,13.110551]}},{"type":"Feature","properties":{},"geometry":{"type":"Point","coordinates":[80.169802,13.107123]}},{"type":"Feature","properties":{},"geometry":{"type":"Point","coordinates":[80.169819,13.103882]}},{"type":"Feature","properties":{},"geometry":{"type":"Point","coordinates":[80.15247,13.131587]}},{"type":"Feature","properties":{},"geometry":{"type":"Point","coordinates":[80.252111,12.992652]}},{"type":"Feature","properties":{},"geometry":{"type":"Point","coordinates":[80.263442,13.009285]}},{"type":"Feature","properties":{},"geometry":{"type":"Point","coordinates":[80.261207,12.99233]}},{"type":"Feature","properties":{},"geometry":{"type":"Point","coordinates":[80.241465,12.985596]}},{"type":"Feature","properties":{},"geometry":{"type":"Point","coordinates":[80.253034,12.984904]}},{"type":"Feature","properties":{},"geometry":{"type":"Point","coordinates":[80.258703,12.999037]}},{"type":"Feature","properties":{},"geometry":{"type":"Point","coordinates":[80.258951,12.999793]}},{"type":"Feature","properties":{},"geometry":{"type":"Point","coordinates":[80.252711,12.989358]}},{"type":"Feature","properties":{},"geometry":{"type":"Point","coordinates":[80.253811,12.989584]}},{"type":"Feature","properties":{},"geometry":{"type":"Point","coordinates":[80.256129,13.023484]}},{"type":"Feature","properties":{},"geometry":{"type":"Point","coordinates":[80.243262,12.98418]}},{"type":"Feature","properties":{},"geometry":{"type":"Point","coordinates":[80.263939,12.999489]}},{"type":"Feature","properties":{},"geometry":{"type":"Point","coordinates":[80.263954,12.999155]}},{"type":"Feature","properties":{},"geometry":{"type":"Point","coordinates":[80.259032,12.986023]}},{"type":"Feature","properties":{},"geometry":{"type":"Point","coordinates":[80.254,12.981556]}},{"type":"Feature","properties":{},"geometry":{"type":"Point","coordinates":[80.252975,13.017179]}},{"type":"Feature","properties":{},"geometry":{"type":"Point","coordinates":[80.251422,12.991403]}},{"type":"Feature","properties":{},"geometry":{"type":"Point","coordinates":[80.234369,12.98048]}},{"type":"Feature","properties":{},"geometry":{"type":"Point","coordinates":[80.240123,12.980248]}},{"type":"Feature","properties":{},"geometry":{"type":"Point","coordinates":[80.2411,12.98299]}},{"type":"Feature","properties":{},"geometry":{"type":"Point","coordinates":[80.250742,12.980692]}},{"type":"Feature","properties":{},"geometry":{"type":"Point","coordinates":[80.258974,12.982914]}},{"type":"Feature","properties":{},"geometry":{"type":"Point","coordinates":[80.258785,12.9818]}},{"type":"Feature","properties":{},"geometry":{"type":"Point","coordinates":[80.241563,12.988312]}},{"type":"Feature","properties":{},"geometry":{"type":"Point","coordinates":[80.242173,12.986752]}},{"type":"Feature","properties":{},"geometry":{"type":"Point","coordinates":[80.261981,12.9876]}},{"type":"Feature","properties":{},"geometry":{"type":"Point","coordinates":[80.263762,13.00835]}},{"type":"Feature","properties":{},"geometry":{"type":"Point","coordinates":[80.252519,13.018162]}},{"type":"Feature","properties":{},"geometry":{"type":"Point","coordinates":[80.252021,13.017477]}},{"type":"Feature","properties":{},"geometry":{"type":"Point","coordinates":[80.242624,12.993441]}},{"type":"Feature","properties":{},"geometry":{"type":"Point","coordinates":[80.225549,13.026998]}},{"type":"Feature","properties":{},"geometry":{"type":"Point","coordinates":[80.154903,13.129459]}},{"type":"Feature","properties":{},"geometry":{"type":"Point","coordinates":[80.260529,13.021064]}},{"type":"Feature","properties":{},"geometry":{"type":"Point","coordinates":[80.207857,12.992671]}},{"type":"Feature","properties":{},"geometry":{"type":"Point","coordinates":[80.209361,12.994145]}},{"type":"Feature","properties":{},"geometry":{"type":"Point","coordinates":[80.206295,12.991315]}},{"type":"Feature","properties":{},"geometry":{"type":"Point","coordinates":[80.21239,12.994607]}},{"type":"Feature","properties":{},"geometry":{"type":"Point","coordinates":[80.214586,12.986958]}},{"type":"Feature","properties":{},"geometry":{"type":"Point","coordinates":[80.208124,12.987766]}},{"type":"Feature","properties":{},"geometry":{"type":"Point","coordinates":[80.208954,12.992453]}},{"type":"Feature","properties":{},"geometry":{"type":"Point","coordinates":[80.209299,12.995679]}},{"type":"Feature","properties":{},"geometry":{"type":"Point","coordinates":[80.208479,12.990305]}},{"type":"Feature","properties":{},"geometry":{"type":"Point","coordinates":[80.220638,12.987568]}},{"type":"Feature","properties":{},"geometry":{"type":"Point","coordinates":[80.221801,12.986319]}},{"type":"Feature","properties":{},"geometry":{"type":"Point","coordinates":[80.221472,12.98547]}},{"type":"Feature","properties":{},"geometry":{"type":"Point","coordinates":[80.225418,13.011874]}},{"type":"Feature","properties":{},"geometry":{"type":"Point","coordinates":[80.266783,13.116616]}},{"type":"Feature","properties":{},"geometry":{"type":"Point","coordinates":[80.267275,13.122403]}},{"type":"Feature","properties":{},"geometry":{"type":"Point","coordinates":[80.265076,13.118674]}},{"type":"Feature","properties":{},"geometry":{"type":"Point","coordinates":[80.267248,13.124849]}},{"type":"Feature","properties":{},"geometry":{"type":"Point","coordinates":[80.245468,13.119432]}},{"type":"Feature","properties":{},"geometry":{"type":"Point","coordinates":[80.273445,13.117471]}},{"type":"Feature","properties":{},"geometry":{"type":"Point","coordinates":[80.280408,13.139106]}},{"type":"Feature","properties":{},"geometry":{"type":"Point","coordinates":[80.19015,13.082443]}},{"type":"Feature","properties":{},"geometry":{"type":"Point","coordinates":[80.279289,13.133921]}},{"type":"Feature","properties":{},"geometry":{"type":"Point","coordinates":[80.279168,13.1378]}},{"type":"Feature","properties":{},"geometry":{"type":"Point","coordinates":[80.275186,13.127341]}},{"type":"Feature","properties":{},"geometry":{"type":"Point","coordinates":[80.278567,13.128944]}},{"type":"Feature","properties":{},"geometry":{"type":"Point","coordinates":[80.279653,13.128074]}},{"type":"Feature","properties":{},"geometry":{"type":"Point","coordinates":[80.278971,13.126902]}},{"type":"Feature","properties":{},"geometry":{"type":"Point","coordinates":[80.277965,13.137876]}},{"type":"Feature","properties":{},"geometry":{"type":"Point","coordinates":[80.276381,13.123447]}},{"type":"Feature","properties":{},"geometry":{"type":"Point","coordinates":[80.275965,13.124]}},{"type":"Feature","properties":{},"geometry":{"type":"Point","coordinates":[80.274956,13.12422]}},{"type":"Feature","properties":{},"geometry":{"type":"Point","coordinates":[80.275868,13.12525]}},{"type":"Feature","properties":{},"geometry":{"type":"Point","coordinates":[80.274124,13.125604]}},{"type":"Feature","properties":{},"geometry":{"type":"Point","coordinates":[80.27038,13.126995]}},{"type":"Feature","properties":{},"geometry":{"type":"Point","coordinates":[80.27272,13.129735]}},{"type":"Feature","properties":{},"geometry":{"type":"Point","coordinates":[80.274559,13.122491]}},{"type":"Feature","properties":{},"geometry":{"type":"Point","coordinates":[80.273736,13.120661]}},{"type":"Feature","properties":{},"geometry":{"type":"Point","coordinates":[80.272725,13.116159]}},{"type":"Feature","properties":{},"geometry":{"type":"Point","coordinates":[80.277952,13.139265]}},{"type":"Feature","properties":{},"geometry":{"type":"Point","coordinates":[80.278462,13.13897]}},{"type":"Feature","properties":{},"geometry":{"type":"Point","coordinates":[80.274602,13.120229]}},{"type":"Feature","properties":{},"geometry":{"type":"Point","coordinates":[80.278243,13.13852]}},{"type":"Feature","properties":{},"geometry":{"type":"Point","coordinates":[80.274877,13.115701]}},{"type":"Feature","properties":{},"geometry":{"type":"Point","coordinates":[80.273582,13.112736]}},{"type":"Feature","properties":{},"geometry":{"type":"Point","coordinates":[80.291582,13.137653]}},{"type":"Feature","properties":{},"geometry":{"type":"Point","coordinates":[80.296937,13.137526]}},{"type":"Feature","properties":{},"geometry":{"type":"Point","coordinates":[80.275048,13.125533]}},{"type":"Feature","properties":{},"geometry":{"type":"Point","coordinates":[80.297002,13.139079]}},{"type":"Feature","properties":{},"geometry":{"type":"Point","coordinates":[80.297966,13.138994]}},{"type":"Feature","properties":{},"geometry":{"type":"Point","coordinates":[80.243184,13.131399]}},{"type":"Feature","properties":{},"geometry":{"type":"Point","coordinates":[80.277464,13.135718]}},{"type":"Feature","properties":{},"geometry":{"type":"Point","coordinates":[80.29027,13.133678]}},{"type":"Feature","properties":{},"geometry":{"type":"Point","coordinates":[80.296327,13.139192]}},{"type":"Feature","properties":{},"geometry":{"type":"Point","coordinates":[80.28979,13.136752]}},{"type":"Feature","properties":{},"geometry":{"type":"Point","coordinates":[80.291349,13.133862]}},{"type":"Feature","properties":{},"geometry":{"type":"Point","coordinates":[80.28629,13.132194]}},{"type":"Feature","properties":{},"geometry":{"type":"Point","coordinates":[80.284317,13.12341]}},{"type":"Feature","properties":{},"geometry":{"type":"Point","coordinates":[80.281259,13.119215]}},{"type":"Feature","properties":{},"geometry":{"type":"Point","coordinates":[80.284215,13.121038]}},{"type":"Feature","properties":{},"geometry":{"type":"Point","coordinates":[80.274294,13.113786]}},{"type":"Feature","properties":{},"geometry":{"type":"Point","coordinates":[80.273601,13.110881]}},{"type":"Feature","properties":{},"geometry":{"type":"Point","coordinates":[80.273356,13.118567]}},{"type":"Feature","properties":{},"geometry":{"type":"Point","coordinates":[80.274322,13.118089]}},{"type":"Feature","properties":{},"geometry":{"type":"Point","coordinates":[80.272269,13.117485]}},{"type":"Feature","properties":{},"geometry":{"type":"Point","coordinates":[80.278796,13.124648]}},{"type":"Feature","properties":{},"geometry":{"type":"Point","coordinates":[80.277619,13.115732]}},{"type":"Feature","properties":{},"geometry":{"type":"Point","coordinates":[80.287581,13.131035]}},{"type":"Feature","properties":{},"geometry":{"type":"Point","coordinates":[80.245662,13.124306]}},{"type":"Feature","properties":{},"geometry":{"type":"Point","coordinates":[80.294144,13.125794]}},{"type":"Feature","properties":{},"geometry":{"type":"Point","coordinates":[80.29439,13.121583]}},{"type":"Feature","properties":{},"geometry":{"type":"Point","coordinates":[80.294864,13.124489]}},{"type":"Feature","properties":{},"geometry":{"type":"Point","coordinates":[80.295929,13.122325]}},{"type":"Feature","properties":{},"geometry":{"type":"Point","coordinates":[80.25025,13.121398]}},{"type":"Feature","properties":{},"geometry":{"type":"Point","coordinates":[80.266393,13.113186]}},{"type":"Feature","properties":{},"geometry":{"type":"Point","coordinates":[80.275565,13.118778]}},{"type":"Feature","properties":{},"geometry":{"type":"Point","coordinates":[80.264456,13.115168]}},{"type":"Feature","properties":{},"geometry":{"type":"Point","coordinates":[80.258726,13.119098]}},{"type":"Feature","properties":{},"geometry":{"type":"Point","coordinates":[80.267396,13.118643]}},{"type":"Feature","properties":{},"geometry":{"type":"Point","coordinates":[80.256635,13.138471]}},{"type":"Feature","properties":{},"geometry":{"type":"Point","coordinates":[80.250172,13.146518]}},{"type":"Feature","properties":{},"geometry":{"type":"Point","coordinates":[80.267773,13.128324]}},{"type":"Feature","properties":{},"geometry":{"type":"Point","coordinates":[80.260823,13.127867]}},{"type":"Feature","properties":{},"geometry":{"type":"Point","coordinates":[80.27879,13.139707]}},{"type":"Feature","properties":{},"geometry":{"type":"Point","coordinates":[80.280879,13.137794]}},{"type":"Feature","properties":{},"geometry":{"type":"Point","coordinates":[80.280608,13.127458]}},{"type":"Feature","properties":{},"geometry":{"type":"Point","coordinates":[80.275072,13.119313]}},{"type":"Feature","properties":{},"geometry":{"type":"Point","coordinates":[80.275843,13.118333]}},{"type":"Feature","properties":{},"geometry":{"type":"Point","coordinates":[80.258782,13.123144]}},{"type":"Feature","properties":{},"geometry":{"type":"Point","coordinates":[80.290218,13.132206]}},{"type":"Feature","properties":{},"geometry":{"type":"Point","coordinates":[80.285491,13.126297]}},{"type":"Feature","properties":{},"geometry":{"type":"Point","coordinates":[80.287409,13.130414]}},{"type":"Feature","properties":{},"geometry":{"type":"Point","coordinates":[80.292622,13.125792]}},{"type":"Feature","properties":{},"geometry":{"type":"Point","coordinates":[80.244709,13.122216]}},{"type":"Feature","properties":{},"geometry":{"type":"Point","coordinates":[80.289765,13.137856]}},{"type":"Feature","properties":{},"geometry":{"type":"Point","coordinates":[80.292732,13.137032]}},{"type":"Feature","properties":{},"geometry":{"type":"Point","coordinates":[80.293044,13.126773]}},{"type":"Feature","properties":{},"geometry":{"type":"Point","coordinates":[80.294065,13.128465]}},{"type":"Feature","properties":{},"geometry":{"type":"Point","coordinates":[80.274934,13.091503]}},{"type":"Feature","properties":{},"geometry":{"type":"Point","coordinates":[80.274615,13.099183]}},{"type":"Feature","properties":{},"geometry":{"type":"Point","coordinates":[80.27614,13.113428]}},{"type":"Feature","properties":{},"geometry":{"type":"Point","coordinates":[80.2783,13.112762]}},{"type":"Feature","properties":{},"geometry":{"type":"Point","coordinates":[80.275579,13.11128]}},{"type":"Feature","properties":{},"geometry":{"type":"Point","coordinates":[80.296631,13.119073]}},{"type":"Feature","properties":{},"geometry":{"type":"Point","coordinates":[80.27579,13.104807]}},{"type":"Feature","properties":{},"geometry":{"type":"Point","coordinates":[80.279647,13.108994]}},{"type":"Feature","properties":{},"geometry":{"type":"Point","coordinates":[80.271924,13.109729]}},{"type":"Feature","properties":{},"geometry":{"type":"Point","coordinates":[80.27759,13.108336]}},{"type":"Feature","properties":{},"geometry":{"type":"Point","coordinates":[80.2859,13.098831]}},{"type":"Feature","properties":{},"geometry":{"type":"Point","coordinates":[80.287699,13.100113]}},{"type":"Feature","properties":{},"geometry":{"type":"Point","coordinates":[80.274617,13.095787]}},{"type":"Feature","properties":{},"geometry":{"type":"Point","coordinates":[80.263146,13.067916]}},{"type":"Feature","properties":{},"geometry":{"type":"Point","coordinates":[80.252437,13.075914]}},{"type":"Feature","properties":{},"geometry":{"type":"Point","coordinates":[80.271732,13.078509]}},{"type":"Feature","properties":{},"geometry":{"type":"Point","coordinates":[80.272607,13.077997]}},{"type":"Feature","properties":{},"geometry":{"type":"Point","coordinates":[80.267869,13.078603]}},{"type":"Feature","properties":{},"geometry":{"type":"Point","coordinates":[80.274724,13.074789]}},{"type":"Feature","properties":{},"geometry":{"type":"Point","coordinates":[80.271534,13.071745]}},{"type":"Feature","properties":{},"geometry":{"type":"Point","coordinates":[80.2682,13.060423]}},{"type":"Feature","properties":{},"geometry":{"type":"Point","coordinates":[80.269185,13.079033]}},{"type":"Feature","properties":{},"geometry":{"type":"Point","coordinates":[80.276482,13.078437]}},{"type":"Feature","properties":{},"geometry":{"type":"Point","coordinates":[80.279455,13.078339]}},{"type":"Feature","properties":{},"geometry":{"type":"Point","coordinates":[80.273048,13.077193]}},{"type":"Feature","properties":{},"geometry":{"type":"Point","coordinates":[80.274551,13.094045]}},{"type":"Feature","properties":{},"geometry":{"type":"Point","coordinates":[80.274772,13.093047]}},{"type":"Feature","properties":{},"geometry":{"type":"Point","coordinates":[80.293405,13.101332]}},{"type":"Feature","properties":{},"geometry":{"type":"Point","coordinates":[80.274318,13.08114]}},{"type":"Feature","properties":{},"geometry":{"type":"Point","coordinates":[80.267572,13.078372]}},{"type":"Feature","properties":{},"geometry":{"type":"Point","coordinates":[80.267669,13.066989]}},{"type":"Feature","properties":{},"geometry":{"type":"Point","coordinates":[80.271778,13.074043]}},{"type":"Feature","properties":{},"geometry":{"type":"Point","coordinates":[80.279141,13.078908]}},{"type":"Feature","properties":{},"geometry":{"type":"Point","coordinates":[80.276382,13.086044]}},{"type":"Feature","properties":{},"geometry":{"type":"Point","coordinates":[80.272899,13.109262]}},{"type":"Feature","properties":{},"geometry":{"type":"Point","coordinates":[80.271549,13.108731]}},{"type":"Feature","properties":{},"geometry":{"type":"Point","coordinates":[80.287502,13.111911]}},{"type":"Feature","properties":{},"geometry":{"type":"Point","coordinates":[80.287351,13.101221]}},{"type":"Feature","properties":{},"geometry":{"type":"Point","coordinates":[80.286282,13.101523]}},{"type":"Feature","properties":{},"geometry":{"type":"Point","coordinates":[80.287144,13.101823]}},{"type":"Feature","properties":{},"geometry":{"type":"Point","coordinates":[80.273734,13.107013]}},{"type":"Feature","properties":{},"geometry":{"type":"Point","coordinates":[80.238344,13.058796]}},{"type":"Feature","properties":{},"geometry":{"type":"Point","coordinates":[80.246218,13.050987]}},{"type":"Feature","properties":{},"geometry":{"type":"Point","coordinates":[80.251167,13.042088]}},{"type":"Feature","properties":{},"geometry":{"type":"Point","coordinates":[80.237592,13.05466]}},{"type":"Feature","properties":{},"geometry":{"type":"Point","coordinates":[80.279316,13.051914]}},{"type":"Feature","properties":{},"geometry":{"type":"Point","coordinates":[80.280153,13.051547]}},{"type":"Feature","properties":{},"geometry":{"type":"Point","coordinates":[80.240035,13.052254]}},{"type":"Feature","properties":{},"geometry":{"type":"Point","coordinates":[80.237986,13.051882]}},{"type":"Feature","properties":{},"geometry":{"type":"Point","coordinates":[80.238531,13.052809]}},{"type":"Feature","properties":{},"geometry":{"type":"Point","coordinates":[80.230136,13.067278]}},{"type":"Feature","properties":{},"geometry":{"type":"Point","coordinates":[80.232227,13.067157]}},{"type":"Feature","properties":{},"geometry":{"type":"Point","coordinates":[80.246643,13.040851]}},{"type":"Feature","properties":{},"geometry":{"type":"Point","coordinates":[80.247136,13.048875]}},{"type":"Feature","properties":{},"geometry":{"type":"Point","coordinates":[80.236021,13.049837]}},{"type":"Feature","properties":{},"geometry":{"type":"Point","coordinates":[80.235424,13.049087]}},{"type":"Feature","properties":{},"geometry":{"type":"Point","coordinates":[80.243899,13.035908]}},{"type":"Feature","properties":{},"geometry":{"type":"Point","coordinates":[80.24731,13.046151]}},{"type":"Feature","properties":{},"geometry":{"type":"Point","coordinates":[80.251135,13.020635]}},{"type":"Feature","properties":{},"geometry":{"type":"Point","coordinates":[80.250112,13.035545]}},{"type":"Feature","properties":{},"geometry":{"type":"Point","coordinates":[80.232674,13.048694]}},{"type":"Feature","properties":{},"geometry":{"type":"Point","coordinates":[80.229977,13.066371]}},{"type":"Feature","properties":{},"geometry":{"type":"Point","coordinates":[80.246005,13.053829]}},{"type":"Feature","properties":{},"geometry":{"type":"Point","coordinates":[80.246565,13.047705]}},{"type":"Feature","properties":{},"geometry":{"type":"Point","coordinates":[80.19052,13.048399]}},{"type":"Feature","properties":{},"geometry":{"type":"Point","coordinates":[80.280227,13.058842]}},{"type":"Feature","properties":{},"geometry":{"type":"Point","coordinates":[80.271167,13.049648]}},{"type":"Feature","properties":{},"geometry":{"type":"Point","coordinates":[80.26526,13.027067]}},{"type":"Feature","properties":{},"geometry":{"type":"Point","coordinates":[80.266233,13.030027]}},{"type":"Feature","properties":{},"geometry":{"type":"Point","coordinates":[80.276802,13.031057]}},{"type":"Feature","properties":{},"geometry":{"type":"Point","coordinates":[80.253103,13.02287]}},{"type":"Feature","properties":{},"geometry":{"type":"Point","coordinates":[80.265727,13.03537]}},{"type":"Feature","properties":{},"geometry":{"type":"Point","coordinates":[80.271848,13.033899]}},{"type":"Feature","properties":{},"geometry":{"type":"Point","coordinates":[80.261867,13.03022]}},{"type":"Feature","properties":{},"geometry":{"type":"Point","coordinates":[80.276848,13.042862]}},{"type":"Feature","properties":{},"geometry":{"type":"Point","coordinates":[80.267027,13.034023]}},{"type":"Feature","properties":{},"geometry":{"type":"Point","coordinates":[80.258604,13.031843]}},{"type":"Feature","properties":{},"geometry":{"type":"Point","coordinates":[80.275869,13.041865]}},{"type":"Feature","properties":{},"geometry":{"type":"Point","coordinates":[80.272322,13.041387]}},{"type":"Feature","properties":{},"geometry":{"type":"Point","coordinates":[80.26719,13.035822]}},{"type":"Feature","properties":{},"geometry":{"type":"Point","coordinates":[80.269608,13.038504]}},{"type":"Feature","properties":{},"geometry":{"type":"Point","coordinates":[80.269733,13.03716]}},{"type":"Feature","properties":{},"geometry":{"type":"Point","coordinates":[80.260649,13.029836]}},{"type":"Feature","properties":{},"geometry":{"type":"Point","coordinates":[80.258354,13.025038]}},{"type":"Feature","properties":{},"geometry":{"type":"Point","coordinates":[80.275622,13.042486]}},{"type":"Feature","properties":{},"geometry":{"type":"Point","coordinates":[80.27304,13.041742]}},{"type":"Feature","properties":{},"geometry":{"type":"Point","coordinates":[80.275541,13.040969]}},{"type":"Feature","properties":{},"geometry":{"type":"Point","coordinates":[80.269694,13.03038]}},{"type":"Feature","properties":{},"geometry":{"type":"Point","coordinates":[80.263213,13.032117]}},{"type":"Feature","properties":{},"geometry":{"type":"Point","coordinates":[80.267166,13.035127]}},{"type":"Feature","properties":{},"geometry":{"type":"Point","coordinates":[80.261433,13.030512]}},{"type":"Feature","properties":{},"geometry":{"type":"Point","coordinates":[80.270668,13.040787]}},{"type":"Feature","properties":{},"geometry":{"type":"Point","coordinates":[80.270489,13.040365]}},{"type":"Feature","properties":{},"geometry":{"type":"Point","coordinates":[80.247305,13.045238]}},{"type":"Feature","properties":{},"geometry":{"type":"Point","coordinates":[80.262176,13.050432]}},{"type":"Feature","properties":{},"geometry":{"type":"Point","coordinates":[80.224199,13.017664]}},{"type":"Feature","properties":{},"geometry":{"type":"Point","coordinates":[80.21391,13.026907]}},{"type":"Feature","properties":{},"geometry":{"type":"Point","coordinates":[80.212293,13.027076]}},{"type":"Feature","properties":{},"geometry":{"type":"Point","coordinates":[80.223671,13.017966]}},{"type":"Feature","properties":{},"geometry":{"type":"Point","coordinates":[80.212675,13.027899]}},{"type":"Feature","properties":{},"geometry":{"type":"Point","coordinates":[80.223979,13.034532]}},{"type":"Feature","properties":{},"geometry":{"type":"Point","coordinates":[80.250246,13.091937]}},{"type":"Feature","properties":{},"geometry":{"type":"Point","coordinates":[80.250512,13.094194]}},{"type":"Feature","properties":{},"geometry":{"type":"Point","coordinates":[80.280856,13.066197]}},{"type":"Feature","properties":{},"geometry":{"type":"Point","coordinates":[80.221053,13.018566]}},{"type":"Feature","properties":{},"geometry":{"type":"Point","coordinates":[80.222135,13.031081]}},{"type":"Feature","properties":{},"geometry":{"type":"Point","coordinates":[80.22213,13.016902]}},{"type":"Feature","properties":{},"geometry":{"type":"Point","coordinates":[80.188845,13.054681]}},{"type":"Feature","properties":{},"geometry":{"type":"Point","coordinates":[80.203645,13.057901]}},{"type":"Feature","properties":{},"geometry":{"type":"Point","coordinates":[80.213639,13.04536]}},{"type":"Feature","properties":{},"geometry":{"type":"Point","coordinates":[80.208929,13.053928]}},{"type":"Feature","properties":{},"geometry":{"type":"Point","coordinates":[80.204293,13.042568]}},{"type":"Feature","properties":{},"geometry":{"type":"Point","coordinates":[80.201888,13.04442]}},{"type":"Feature","properties":{},"geometry":{"type":"Point","coordinates":[80.202451,13.032136]}},{"type":"Feature","properties":{},"geometry":{"type":"Point","coordinates":[80.213265,13.028346]}},{"type":"Feature","properties":{},"geometry":{"type":"Point","coordinates":[80.212242,13.023892]}},{"type":"Feature","properties":{},"geometry":{"type":"Point","coordinates":[80.213444,13.028882]}},{"type":"Feature","properties":{},"geometry":{"type":"Point","coordinates":[80.28014,13.055996]}},{"type":"Feature","properties":{},"geometry":{"type":"Point","coordinates":[80.276269,13.044733]}},{"type":"Feature","properties":{},"geometry":{"type":"Point","coordinates":[80.202892,13.06152]}},{"type":"Feature","properties":{},"geometry":{"type":"Point","coordinates":[80.203029,13.048488]}},{"type":"Feature","properties":{},"geometry":{"type":"Point","coordinates":[80.201621,13.061349]}},{"type":"Feature","properties":{},"geometry":{"type":"Point","coordinates":[80.191817,13.030763]}},{"type":"Feature","properties":{},"geometry":{"type":"Point","coordinates":[80.211863,13.045326]}},{"type":"Feature","properties":{},"geometry":{"type":"Point","coordinates":[80.208228,13.045959]}},{"type":"Feature","properties":{},"geometry":{"type":"Point","coordinates":[80.229385,13.048885]}},{"type":"Feature","properties":{},"geometry":{"type":"Point","coordinates":[80.225051,13.046416]}},{"type":"Feature","properties":{},"geometry":{"type":"Point","coordinates":[80.222513,13.0522]}},{"type":"Feature","properties":{},"geometry":{"type":"Point","coordinates":[80.212152,13.030157]}},{"type":"Feature","properties":{},"geometry":{"type":"Point","coordinates":[80.195665,13.044773]}},{"type":"Feature","properties":{},"geometry":{"type":"Point","coordinates":[80.206885,13.060807]}},{"type":"Feature","properties":{},"geometry":{"type":"Point","coordinates":[80.18727,13.052915]}},{"type":"Feature","properties":{},"geometry":{"type":"Point","coordinates":[80.199449,13.04467]}},{"type":"Feature","properties":{},"geometry":{"type":"Point","coordinates":[80.209661,13.039531]}},{"type":"Feature","properties":{},"geometry":{"type":"Point","coordinates":[80.222992,13.047751]}},{"type":"Feature","properties":{},"geometry":{"type":"Point","coordinates":[80.2275,13.050979]}},{"type":"Feature","properties":{},"geometry":{"type":"Point","coordinates":[80.227407,13.045358]}},{"type":"Feature","properties":{},"geometry":{"type":"Point","coordinates":[80.223396,13.035217]}},{"type":"Feature","properties":{},"geometry":{"type":"Point","coordinates":[80.23164,13.054307]}},{"type":"Feature","properties":{},"geometry":{"type":"Point","coordinates":[80.217761,13.018216]}},{"type":"Feature","properties":{},"geometry":{"type":"Point","coordinates":[80.231172,13.055946]}},{"type":"Feature","properties":{},"geometry":{"type":"Point","coordinates":[80.248013,12.975411]}},{"type":"Feature","properties":{},"geometry":{"type":"Point","coordinates":[80.245509,12.922084]}},{"type":"Feature","properties":{},"geometry":{"type":"Point","coordinates":[80.262047,12.954063]}},{"type":"Feature","properties":{},"geometry":{"type":"Point","coordinates":[80.256238,12.920143]}},{"type":"Feature","properties":{},"geometry":{"type":"Point","coordinates":[80.248377,12.947896]}},{"type":"Feature","properties":{},"geometry":{"type":"Point","coordinates":[80.249452,12.874406]}},{"type":"Feature","properties":{},"geometry":{"type":"Point","coordinates":[80.249289,12.945199]}},{"type":"Feature","properties":{},"geometry":{"type":"Point","coordinates":[80.248298,12.951083]}},{"type":"Feature","properties":{},"geometry":{"type":"Point","coordinates":[80.184489,13.099884]}},{"type":"Feature","properties":{},"geometry":{"type":"Point","coordinates":[80.178239,13.104422]}},{"type":"Feature","properties":{},"geometry":{"type":"Point","coordinates":[80.179775,13.107264]}},{"type":"Feature","properties":{},"geometry":{"type":"Point","coordinates":[80.266788,13.098343]}},{"type":"Feature","properties":{},"geometry":{"type":"Point","coordinates":[80.158961,13.114814]}},{"type":"Feature","properties":{},"geometry":{"type":"Point","coordinates":[80.154774,13.115427]}},{"type":"Feature","properties":{},"geometry":{"type":"Point","coordinates":[80.153503,13.115483]}},{"type":"Feature","properties":{},"geometry":{"type":"Point","coordinates":[80.151573,13.116365]}},{"type":"Feature","properties":{},"geometry":{"type":"Point","coordinates":[80.148168,13.115563]}},{"type":"Feature","properties":{},"geometry":{"type":"Point","coordinates":[80.170065,13.122498]}},{"type":"Feature","properties":{},"geometry":{"type":"Point","coordinates":[80.168816,13.123754]}},{"type":"Feature","properties":{},"geometry":{"type":"Point","coordinates":[80.166808,13.137706]}},{"type":"Feature","properties":{},"geometry":{"type":"Point","coordinates":[80.168435,13.138871]}},{"type":"Feature","properties":{},"geometry":{"type":"Point","coordinates":[80.17834,13.129712]}},{"type":"Feature","properties":{},"geometry":{"type":"Point","coordinates":[80.167205,13.102927]}},{"type":"Feature","properties":{},"geometry":{"type":"Point","coordinates":[80.151637,13.108001]}},{"type":"Feature","properties":{},"geometry":{"type":"Point","coordinates":[80.149834,13.107237]}},{"type":"Feature","properties":{},"geometry":{"type":"Point","coordinates":[80.151035,13.110709]}},{"type":"Feature","properties":{},"geometry":{"type":"Point","coordinates":[80.154529,13.1073]}},{"type":"Feature","properties":{},"geometry":{"type":"Point","coordinates":[80.15434,13.107799]}},{"type":"Feature","properties":{},"geometry":{"type":"Point","coordinates":[80.154951,13.107744]}},{"type":"Feature","properties":{},"geometry":{"type":"Point","coordinates":[80.168111,13.085087]}},{"type":"Feature","properties":{},"geometry":{"type":"Point","coordinates":[80.179695,13.112203]}},{"type":"Feature","properties":{},"geometry":{"type":"Point","coordinates":[80.183708,13.09504]}},{"type":"Feature","properties":{},"geometry":{"type":"Point","coordinates":[80.189985,13.080594]}},{"type":"Feature","properties":{},"geometry":{"type":"Point","coordinates":[80.191212,13.077962]}},{"type":"Feature","properties":{},"geometry":{"type":"Point","coordinates":[80.156847,13.088851]}},{"type":"Feature","properties":{},"geometry":{"type":"Point","coordinates":[80.15678,13.095599]}},{"type":"Feature","properties":{},"geometry":{"type":"Point","coordinates":[80.179336,13.079926]}},{"type":"Feature","properties":{},"geometry":{"type":"Point","coordinates":[80.1799,13.073881]}},{"type":"Feature","properties":{},"geometry":{"type":"Point","coordinates":[80.178222,13.080254]}},{"type":"Feature","properties":{},"geometry":{"type":"Point","coordinates":[80.154378,13.104422]}},{"type":"Feature","properties":{},"geometry":{"type":"Point","coordinates":[80.197126,13.028232]}},{"type":"Feature","properties":{},"geometry":{"type":"Point","coordinates":[80.189103,13.021938]}},{"type":"Feature","properties":{},"geometry":{"type":"Point","coordinates":[80.187214,13.010674]}},{"type":"Feature","properties":{},"geometry":{"type":"Point","coordinates":[80.168638,13.067431]}},{"type":"Feature","properties":{},"geometry":{"type":"Point","coordinates":[80.168479,13.066505]}},{"type":"Feature","properties":{},"geometry":{"type":"Point","coordinates":[80.166546,13.073687]}},{"type":"Feature","properties":{},"geometry":{"type":"Point","coordinates":[80.166635,13.076377]}},{"type":"Feature","properties":{},"geometry":{"type":"Point","coordinates":[80.16961,13.078407]}},{"type":"Feature","properties":{},"geometry":{"type":"Point","coordinates":[80.16997,13.078151]}},{"type":"Feature","properties":{},"geometry":{"type":"Point","coordinates":[80.173302,13.069359]}},{"type":"Feature","properties":{},"geometry":{"type":"Point","coordinates":[80.169891,13.056465]}},{"type":"Feature","properties":{},"geometry":{"type":"Point","coordinates":[80.173479,13.057645]}},{"type":"Feature","properties":{},"geometry":{"type":"Point","coordinates":[80.168485,13.035304]}},{"type":"Feature","properties":{},"geometry":{"type":"Point","coordinates":[80.171033,13.017581]}},{"type":"Feature","properties":{},"geometry":{"type":"Point","coordinates":[80.164422,13.019094]}},{"type":"Feature","properties":{},"geometry":{"type":"Point","coordinates":[80.157282,13.02089]}},{"type":"Feature","properties":{},"geometry":{"type":"Point","coordinates":[80.161128,13.0205]}},{"type":"Feature","properties":{},"geometry":{"type":"Point","coordinates":[80.156539,13.022565]}},{"type":"Feature","properties":{},"geometry":{"type":"Point","coordinates":[80.156008,13.015731]}},{"type":"Feature","properties":{},"geometry":{"type":"Point","coordinates":[80.166824,13.020089]}},{"type":"Feature","properties":{},"geometry":{"type":"Point","coordinates":[80.148591,13.02306]}},{"type":"Feature","properties":{},"geometry":{"type":"Point","coordinates":[80.151147,13.019242]}},{"type":"Feature","properties":{},"geometry":{"type":"Point","coordinates":[80.163761,13.011547]}},{"type":"Feature","properties":{},"geometry":{"type":"Point","coordinates":[80.170018,13.013861]}},{"type":"Feature","properties":{},"geometry":{"type":"Point","coordinates":[80.166573,13.01376]}},{"type":"Feature","properties":{},"geometry":{"type":"Point","coordinates":[80.189171,13.009885]}},{"type":"Feature","properties":{},"geometry":{"type":"Point","coordinates":[80.232938,13.140929]}},{"type":"Feature","properties":{},"geometry":{"type":"Point","coordinates":[80.230822,13.152149]}},{"type":"Feature","properties":{},"geometry":{"type":"Point","coordinates":[80.274613,13.225383]}},{"type":"Feature","properties":{},"geometry":{"type":"Point","coordinates":[80.206086,13.161119]}},{"type":"Feature","properties":{},"geometry":{"type":"Point","coordinates":[80.207128,13.162183]}},{"type":"Feature","properties":{},"geometry":{"type":"Point","coordinates":[80.225317,13.013675]}},{"type":"Feature","properties":{},"geometry":{"type":"Point","coordinates":[80.233384,13.032901]}},{"type":"Feature","properties":{},"geometry":{"type":"Point","coordinates":[80.218635,13.031497]}},{"type":"Feature","properties":{},"geometry":{"type":"Point","coordinates":[80.212527,13.045758]}},{"type":"Feature","properties":{},"geometry":{"type":"Point","coordinates":[80.228541,13.051834]}},{"type":"Feature","properties":{},"geometry":{"type":"Point","coordinates":[80.228452,13.048539]}},{"type":"Feature","properties":{},"geometry":{"type":"Point","coordinates":[80.213692,13.022349]}},{"type":"Feature","properties":{},"geometry":{"type":"Point","coordinates":[80.195386,13.047865]}},{"type":"Feature","properties":{},"geometry":{"type":"Point","coordinates":[80.223647,13.030094]}},{"type":"Feature","properties":{},"geometry":{"type":"Point","coordinates":[80.215589,13.03987]}},{"type":"Feature","properties":{},"geometry":{"type":"Point","coordinates":[80.219648,13.032695]}},{"type":"Feature","properties":{},"geometry":{"type":"Point","coordinates":[80.191938,13.027594]}},{"type":"Feature","properties":{},"geometry":{"type":"Point","coordinates":[80.19649,13.030164]}},{"type":"Feature","properties":{},"geometry":{"type":"Point","coordinates":[80.198912,13.030581]}},{"type":"Feature","properties":{},"geometry":{"type":"Point","coordinates":[80.222253,13.017884]}},{"type":"Feature","properties":{},"geometry":{"type":"Point","coordinates":[80.22309,13.018348]}},{"type":"Feature","properties":{},"geometry":{"type":"Point","coordinates":[80.198177,13.077159]}},{"type":"Feature","properties":{},"geometry":{"type":"Point","coordinates":[80.213319,13.028162]}},{"type":"Feature","properties":{},"geometry":{"type":"Point","coordinates":[80.214447,13.022088]}},{"type":"Feature","properties":{},"geometry":{"type":"Point","coordinates":[80.212586,13.025789]}},{"type":"Feature","properties":{},"geometry":{"type":"Point","coordinates":[80.21099,13.025368]}},{"type":"Feature","properties":{},"geometry":{"type":"Point","coordinates":[80.211965,13.029268]}},{"type":"Feature","properties":{},"geometry":{"type":"Point","coordinates":[80.222895,13.017561]}},{"type":"Feature","properties":{},"geometry":{"type":"Point","coordinates":[80.230044,13.031629]}},{"type":"Feature","properties":{},"geometry":{"type":"Point","coordinates":[80.230082,13.030368]}},{"type":"Feature","properties":{},"geometry":{"type":"Point","coordinates":[80.192321,13.039702]}},{"type":"Feature","properties":{},"geometry":{"type":"Point","coordinates":[80.325058,13.222086]}},{"type":"Feature","properties":{},"geometry":{"type":"Point","coordinates":[80.321545,13.222611]}},{"type":"Feature","properties":{},"geometry":{"type":"Point","coordinates":[80.322148,13.224673]}},{"type":"Feature","properties":{},"geometry":{"type":"Point","coordinates":[80.3248,13.225676]}},{"type":"Feature","properties":{},"geometry":{"type":"Point","coordinates":[80.324475,13.223951]}},{"type":"Feature","properties":{},"geometry":{"type":"Point","coordinates":[80.32861,13.230611]}},{"type":"Feature","properties":{},"geometry":{"type":"Point","coordinates":[80.326755,13.228748]}},{"type":"Feature","properties":{},"geometry":{"type":"Point","coordinates":[80.325917,13.228694]}},{"type":"Feature","properties":{},"geometry":{"type":"Point","coordinates":[80.318343,13.21329]}},{"type":"Feature","properties":{},"geometry":{"type":"Point","coordinates":[80.319605,13.215909]}},{"type":"Feature","properties":{},"geometry":{"type":"Point","coordinates":[80.31901,13.217569]}},{"type":"Feature","properties":{},"geometry":{"type":"Point","coordinates":[80.319498,13.219097]}},{"type":"Feature","properties":{},"geometry":{"type":"Point","coordinates":[80.320215,13.220695]}},{"type":"Feature","properties":{},"geometry":{"type":"Point","coordinates":[80.320864,13.219208]}},{"type":"Feature","properties":{},"geometry":{"type":"Point","coordinates":[80.323692,13.211698]}},{"type":"Feature","properties":{},"geometry":{"type":"Point","coordinates":[80.322059,13.206787]}},{"type":"Feature","properties":{},"geometry":{"type":"Point","coordinates":[80.317736,13.197799]}},{"type":"Feature","properties":{},"geometry":{"type":"Point","coordinates":[80.314229,13.188684]}},{"type":"Feature","properties":{},"geometry":{"type":"Point","coordinates":[80.303503,13.180188]}},{"type":"Feature","properties":{},"geometry":{"type":"Point","coordinates":[80.305415,13.188033]}},{"type":"Feature","properties":{},"geometry":{"type":"Point","coordinates":[80.306352,13.187456]}},{"type":"Feature","properties":{},"geometry":{"type":"Point","coordinates":[80.309018,13.189923]}},{"type":"Feature","properties":{},"geometry":{"type":"Point","coordinates":[80.308987,13.190886]}},{"type":"Feature","properties":{},"geometry":{"type":"Point","coordinates":[80.305313,13.190092]}},{"type":"Feature","properties":{},"geometry":{"type":"Point","coordinates":[80.305516,13.189136]}},{"type":"Feature","properties":{},"geometry":{"type":"Point","coordinates":[80.30652,13.190655]}},{"type":"Feature","properties":{},"geometry":{"type":"Point","coordinates":[80.244413,12.976807]}},{"type":"Feature","properties":{},"geometry":{"type":"Point","coordinates":[80.252693,12.973604]}},{"type":"Feature","properties":{},"geometry":{"type":"Point","coordinates":[80.246128,12.964385]}},{"type":"Feature","properties":{},"geometry":{"type":"Point","coordinates":[80.264309,12.967695]}},{"type":"Feature","properties":{},"geometry":{"type":"Point","coordinates":[80.249503,12.978799]}},{"type":"Feature","properties":{},"geometry":{"type":"Point","coordinates":[80.234105,13.141893]}},{"type":"Feature","properties":{},"geometry":{"type":"Point","coordinates":[80.20561,13.158203]}},{"type":"Feature","properties":{},"geometry":{"type":"Point","coordinates":[80.206711,13.151883]}},{"type":"Feature","properties":{},"geometry":{"type":"Point","coordinates":[80.202714,13.155755]}},{"type":"Feature","properties":{},"geometry":{"type":"Point","coordinates":[80.202442,13.152309]}},{"type":"Feature","properties":{},"geometry":{"type":"Point","coordinates":[80.212973,13.157113]}},{"type":"Feature","properties":{},"geometry":{"type":"Point","coordinates":[80.20192,13.150935]}},{"type":"Feature","properties":{},"geometry":{"type":"Point","coordinates":[80.258606,13.154425]}},{"type":"Feature","properties":{},"geometry":{"type":"Point","coordinates":[80.201919,13.152322]}},{"type":"Feature","properties":{},"geometry":{"type":"Point","coordinates":[80.204678,13.142964]}},{"type":"Feature","properties":{},"geometry":{"type":"Point","coordinates":[80.259236,13.159043]}},{"type":"Feature","properties":{},"geometry":{"type":"Point","coordinates":[80.205294,13.148953]}},{"type":"Feature","properties":{},"geometry":{"type":"Point","coordinates":[80.260839,13.159316]}},{"type":"Feature","properties":{},"geometry":{"type":"Point","coordinates":[80.206321,13.14909]}},{"type":"Feature","properties":{},"geometry":{"type":"Point","coordinates":[80.205647,13.149936]}},{"type":"Feature","properties":{},"geometry":{"type":"Point","coordinates":[80.204774,13.148116]}},{"type":"Feature","properties":{},"geometry":{"type":"Point","coordinates":[80.202325,13.151655]}},{"type":"Feature","properties":{},"geometry":{"type":"Point","coordinates":[80.202911,13.151318]}},{"type":"Feature","properties":{},"geometry":{"type":"Point","coordinates":[80.202592,13.152695]}},{"type":"Feature","properties":{},"geometry":{"type":"Point","coordinates":[80.259702,13.151045]}},{"type":"Feature","properties":{},"geometry":{"type":"Point","coordinates":[80.202281,13.151402]}},{"type":"Feature","properties":{},"geometry":{"type":"Point","coordinates":[80.197936,13.170179]}},{"type":"Feature","properties":{},"geometry":{"type":"Point","coordinates":[80.211032,13.158758]}},{"type":"Feature","properties":{},"geometry":{"type":"Point","coordinates":[80.206899,13.150598]}},{"type":"Feature","properties":{},"geometry":{"type":"Point","coordinates":[80.211073,13.154216]}},{"type":"Feature","properties":{},"geometry":{"type":"Point","coordinates":[80.210111,13.156955]}},{"type":"Feature","properties":{},"geometry":{"type":"Point","coordinates":[80.235591,13.138997]}},{"type":"Feature","properties":{},"geometry":{"type":"Point","coordinates":[80.202236,13.151143]}},{"type":"Feature","properties":{},"geometry":{"type":"Point","coordinates":[80.203855,13.150985]}},{"type":"Feature","properties":{},"geometry":{"type":"Point","coordinates":[80.234144,13.13978]}},{"type":"Feature","properties":{},"geometry":{"type":"Point","coordinates":[80.197901,13.148648]}},{"type":"Feature","properties":{},"geometry":{"type":"Point","coordinates":[80.20956,13.160344]}},{"type":"Feature","properties":{},"geometry":{"type":"Point","coordinates":[80.202336,13.15193]}},{"type":"Feature","properties":{},"geometry":{"type":"Point","coordinates":[80.204756,13.150209]}},{"type":"Feature","properties":{},"geometry":{"type":"Point","coordinates":[80.205234,13.160199]}},{"type":"Feature","properties":{},"geometry":{"type":"Point","coordinates":[80.207585,13.151388]}},{"type":"Feature","properties":{},"geometry":{"type":"Point","coordinates":[80.233739,13.14136]}},{"type":"Feature","properties":{},"geometry":{"type":"Point","coordinates":[80.205285,13.159693]}},{"type":"Feature","properties":{},"geometry":{"type":"Point","coordinates":[80.205404,13.149463]}},{"type":"Feature","properties":{},"geometry":{"type":"Point","coordinates":[80.207077,13.151673]}},{"type":"Feature","properties":{},"geometry":{"type":"Point","coordinates":[80.252298,12.968567]}},{"type":"Feature","properties":{},"geometry":{"type":"Point","coordinates":[80.231866,12.969177]}},{"type":"Feature","properties":{},"geometry":{"type":"Point","coordinates":[80.235611,12.96918]}},{"type":"Feature","properties":{},"geometry":{"type":"Point","coordinates":[80.214926,12.937605]}},{"type":"Feature","properties":{},"geometry":{"type":"Point","coordinates":[80.202382,12.943825]}},{"type":"Feature","properties":{},"geometry":{"type":"Point","coordinates":[80.22944,12.968709]}},{"type":"Feature","properties":{},"geometry":{"type":"Point","coordinates":[80.21199,12.956406]}},{"type":"Feature","properties":{},"geometry":{"type":"Point","coordinates":[80.211529,12.955467]}},{"type":"Feature","properties":{},"geometry":{"type":"Point","coordinates":[80.210916,12.954429]}},{"type":"Feature","properties":{},"geometry":{"type":"Point","coordinates":[80.210721,12.953601]}},{"type":"Feature","properties":{},"geometry":{"type":"Point","coordinates":[80.197465,12.928892]}},{"type":"Feature","properties":{},"geometry":{"type":"Point","coordinates":[80.198373,12.928725]}},{"type":"Feature","properties":{},"geometry":{"type":"Point","coordinates":[80.233004,12.967631]}},{"type":"Feature","properties":{},"geometry":{"type":"Point","coordinates":[80.202498,12.930138]}},{"type":"Feature","properties":{},"geometry":{"type":"Point","coordinates":[80.241253,12.974627]}},{"type":"Feature","properties":{},"geometry":{"type":"Point","coordinates":[80.196304,12.926234]}},{"type":"Feature","properties":{},"geometry":{"type":"Point","coordinates":[80.229587,12.966324]}},{"type":"Feature","properties":{},"geometry":{"type":"Point","coordinates":[80.198548,12.964279]}},{"type":"Feature","properties":{},"geometry":{"type":"Point","coordinates":[80.201345,12.93053]}},{"type":"Feature","properties":{},"geometry":{"type":"Point","coordinates":[80.203833,12.9471]}},{"type":"Feature","properties":{},"geometry":{"type":"Point","coordinates":[80.232761,12.965146]}},{"type":"Feature","properties":{},"geometry":{"type":"Point","coordinates":[80.2583,12.969079]}},{"type":"Feature","properties":{},"geometry":{"type":"Point","coordinates":[80.198802,12.915796]}},{"type":"Feature","properties":{},"geometry":{"type":"Point","coordinates":[80.23512,12.969177]}},{"type":"Feature","properties":{},"geometry":{"type":"Point","coordinates":[80.210754,12.952379]}},{"type":"Feature","properties":{},"geometry":{"type":"Point","coordinates":[80.215531,12.965373]}},{"type":"Feature","properties":{},"geometry":{"type":"Point","coordinates":[80.214346,12.962368]}},{"type":"Feature","properties":{},"geometry":{"type":"Point","coordinates":[80.233452,12.977547]}},{"type":"Feature","properties":{},"geometry":{"type":"Point","coordinates":[80.302708,13.169119]}},{"type":"Feature","properties":{},"geometry":{"type":"Point","coordinates":[80.300397,13.148258]}},{"type":"Feature","properties":{},"geometry":{"type":"Point","coordinates":[80.304843,13.190737]}},{"type":"Feature","properties":{},"geometry":{"type":"Point","coordinates":[80.305247,13.174731]}},{"type":"Feature","properties":{},"geometry":{"type":"Point","coordinates":[80.301021,13.146921]}},{"type":"Feature","properties":{},"geometry":{"type":"Point","coordinates":[80.309412,13.184801]}},{"type":"Feature","properties":{},"geometry":{"type":"Point","coordinates":[80.306778,13.180121]}},{"type":"Feature","properties":{},"geometry":{"type":"Point","coordinates":[80.303058,13.152461]}},{"type":"Feature","properties":{},"geometry":{"type":"Point","coordinates":[80.310102,13.1917]}},{"type":"Feature","properties":{},"geometry":{"type":"Point","coordinates":[80.302085,13.149173]}},{"type":"Feature","properties":{},"geometry":{"type":"Point","coordinates":[80.307256,13.181284]}},{"type":"Feature","properties":{},"geometry":{"type":"Point","coordinates":[80.313287,13.177914]}},{"type":"Feature","properties":{},"geometry":{"type":"Point","coordinates":[80.301682,13.150723]}},{"type":"Feature","properties":{},"geometry":{"type":"Point","coordinates":[80.303578,13.154056]}},{"type":"Feature","properties":{},"geometry":{"type":"Point","coordinates":[80.303439,13.156488]}},{"type":"Feature","properties":{},"geometry":{"type":"Point","coordinates":[80.302535,13.15409]}},{"type":"Feature","properties":{},"geometry":{"type":"Point","coordinates":[80.293102,13.170584]}},{"type":"Feature","properties":{},"geometry":{"type":"Point","coordinates":[80.299393,13.167136]}},{"type":"Feature","properties":{},"geometry":{"type":"Point","coordinates":[80.302695,13.16972]}},{"type":"Feature","properties":{},"geometry":{"type":"Point","coordinates":[80.301567,13.169501]}},{"type":"Feature","properties":{},"geometry":{"type":"Point","coordinates":[80.303746,13.156627]}},{"type":"Feature","properties":{},"geometry":{"type":"Point","coordinates":[80.301247,13.176794]}},{"type":"Feature","properties":{},"geometry":{"type":"Point","coordinates":[80.300929,13.168207]}},{"type":"Feature","properties":{},"geometry":{"type":"Point","coordinates":[80.302168,13.149436]}},{"type":"Feature","properties":{},"geometry":{"type":"Point","coordinates":[80.306071,13.169351]}},{"type":"Feature","properties":{},"geometry":{"type":"Point","coordinates":[80.31003,13.178201]}},{"type":"Feature","properties":{},"geometry":{"type":"Point","coordinates":[80.299046,13.145866]}},{"type":"Feature","properties":{},"geometry":{"type":"Point","coordinates":[80.307057,13.180912]}},{"type":"Feature","properties":{},"geometry":{"type":"Point","coordinates":[80.251258,13.191733]}},{"type":"Feature","properties":{},"geometry":{"type":"Point","coordinates":[80.236716,13.170548]}},{"type":"Feature","properties":{},"geometry":{"type":"Point","coordinates":[80.253867,13.169123]}},{"type":"Feature","properties":{},"geometry":{"type":"Point","coordinates":[80.283915,13.183135]}},{"type":"Feature","properties":{},"geometry":{"type":"Point","coordinates":[80.228994,13.183342]}},{"type":"Feature","properties":{},"geometry":{"type":"Point","coordinates":[80.214284,13.175716]}},{"type":"Feature","properties":{},"geometry":{"type":"Point","coordinates":[80.25397,13.173758]}},{"type":"Feature","properties":{},"geometry":{"type":"Point","coordinates":[80.260287,13.171506]}},{"type":"Feature","properties":{},"geometry":{"type":"Point","coordinates":[80.260961,13.172838]}},{"type":"Feature","properties":{},"geometry":{"type":"Point","coordinates":[80.271126,13.18999]}},{"type":"Feature","properties":{},"geometry":{"type":"Point","coordinates":[80.228917,13.19708]}},{"type":"Feature","properties":{},"geometry":{"type":"Point","coordinates":[80.261995,13.17219]}},{"type":"Feature","properties":{},"geometry":{"type":"Point","coordinates":[80.253671,13.169866]}},{"type":"Feature","properties":{},"geometry":{"type":"Point","coordinates":[80.259621,13.200728]}},{"type":"Feature","properties":{},"geometry":{"type":"Point","coordinates":[80.257033,13.17296]}},{"type":"Feature","properties":{},"geometry":{"type":"Point","coordinates":[80.257429,13.194106]}},{"type":"Feature","properties":{},"geometry":{"type":"Point","coordinates":[80.254897,13.196345]}},{"type":"Feature","properties":{},"geometry":{"type":"Point","coordinates":[80.255336,13.194117]}},{"type":"Feature","properties":{},"geometry":{"type":"Point","coordinates":[80.235819,13.182298]}},{"type":"Feature","properties":{},"geometry":{"type":"Point","coordinates":[80.267848,13.202732]}},{"type":"Feature","properties":{},"geometry":{"type":"Point","coordinates":[80.231478,13.168231]}},{"type":"Feature","properties":{},"geometry":{"type":"Point","coordinates":[80.2413,13.166624]}},{"type":"Feature","properties":{},"geometry":{"type":"Point","coordinates":[80.252597,13.167281]}},{"type":"Feature","properties":{},"geometry":{"type":"Point","coordinates":[80.241045,13.168925]}},{"type":"Feature","properties":{},"geometry":{"type":"Point","coordinates":[80.243877,13.167872]}},{"type":"Feature","properties":{},"geometry":{"type":"Point","coordinates":[80.237811,13.192597]}},{"type":"Feature","properties":{},"geometry":{"type":"Point","coordinates":[80.291993,13.182833]}},{"type":"Feature","properties":{},"geometry":{"type":"Point","coordinates":[80.291761,13.183741]}},{"type":"Feature","properties":{},"geometry":{"type":"Point","coordinates":[80.263651,13.167514]}},{"type":"Feature","properties":{},"geometry":{"type":"Point","coordinates":[80.225462,13.16326]}},{"type":"Feature","properties":{},"geometry":{"type":"Point","coordinates":[80.235031,13.184414]}},{"type":"Feature","properties":{},"geometry":{"type":"Point","coordinates":[80.234099,13.181304]}},{"type":"Feature","properties":{},"geometry":{"type":"Point","coordinates":[80.23478,13.19497]}},{"type":"Feature","properties":{},"geometry":{"type":"Point","coordinates":[80.259617,12.941596]}},{"type":"Feature","properties":{},"geometry":{"type":"Point","coordinates":[80.242318,12.868935]}},{"type":"Feature","properties":{},"geometry":{"type":"Point","coordinates":[80.212664,12.863338]}},{"type":"Feature","properties":{},"geometry":{"type":"Point","coordinates":[80.233328,12.917307]}},{"type":"Feature","properties":{},"geometry":{"type":"Point","coordinates":[80.231195,12.911649]}},{"type":"Feature","properties":{},"geometry":{"type":"Point","coordinates":[80.233726,12.913244]}},{"type":"Feature","properties":{},"geometry":{"type":"Point","coordinates":[80.246204,12.932639]}},{"type":"Feature","properties":{},"geometry":{"type":"Point","coordinates":[80.244509,12.887568]}},{"type":"Feature","properties":{},"geometry":{"type":"Point","coordinates":[80.247892,12.940305]}},{"type":"Feature","properties":{},"geometry":{"type":"Point","coordinates":[80.247599,12.943805]}},{"type":"Feature","properties":{},"geometry":{"type":"Point","coordinates":[80.249534,12.942869]}},{"type":"Feature","properties":{},"geometry":{"type":"Point","coordinates":[80.232907,12.925987]}},{"type":"Feature","properties":{},"geometry":{"type":"Point","coordinates":[80.235055,12.92931]}},{"type":"Feature","properties":{},"geometry":{"type":"Point","coordinates":[80.251938,12.88819]}},{"type":"Feature","properties":{},"geometry":{"type":"Point","coordinates":[80.226103,12.865704]}},{"type":"Feature","properties":{},"geometry":{"type":"Point","coordinates":[80.244874,12.888625]}},{"type":"Feature","properties":{},"geometry":{"type":"Point","coordinates":[80.232805,12.904093]}},{"type":"Feature","properties":{},"geometry":{"type":"Point","coordinates":[80.23316,12.908012]}},{"type":"Feature","properties":{},"geometry":{"type":"Point","coordinates":[80.233448,12.909019]}},{"type":"Feature","properties":{},"geometry":{"type":"Point","coordinates":[80.230811,12.932148]}},{"type":"Feature","properties":{},"geometry":{"type":"Point","coordinates":[80.243649,12.878284]}},{"type":"Feature","properties":{},"geometry":{"type":"Point","coordinates":[80.234698,12.931741]}},{"type":"Feature","properties":{},"geometry":{"type":"Point","coordinates":[80.246638,12.943209]}},{"type":"Feature","properties":{},"geometry":{"type":"Point","coordinates":[80.181208,13.103085]}},{"type":"Feature","properties":{},"geometry":{"type":"Point","coordinates":[80.177159,13.10332]}},{"type":"Feature","properties":{},"geometry":{"type":"Point","coordinates":[80.309634,13.187607]}},{"type":"Feature","properties":{},"geometry":{"type":"Point","coordinates":[80.262841,13.066738]}},{"type":"Feature","properties":{},"geometry":{"type":"Point","coordinates":[80.157393,13.096002]}},{"type":"Feature","properties":{},"geometry":{"type":"Point","coordinates":[80.154748,13.140007]}},{"type":"Feature","properties":{},"geometry":{"type":"Point","coordinates":[80.22287,13.016644]}},{"type":"Feature","properties":{},"geometry":{"type":"Point","coordinates":[80.31923,13.21434]}},{"type":"Feature","properties":{},"geometry":{"type":"Point","coordinates":[80.30998,13.191374]}},{"type":"Feature","properties":{},"geometry":{"type":"Point","coordinates":[80.294159,13.165389]}},{"type":"Feature","properties":{},"geometry":{"type":"Point","coordinates":[80.315843,13.186143]}},{"type":"Feature","properties":{},"geometry":{"type":"Point","coordinates":[80.3065,13.165556]}},{"type":"Feature","properties":{},"geometry":{"type":"Point","coordinates":[80.301935,13.174101]}},{"type":"Feature","properties":{},"geometry":{"type":"Point","coordinates":[80.29209,13.16571]}},{"type":"Feature","properties":{},"geometry":{"type":"Point","coordinates":[80.289838,13.165725]}},{"type":"Feature","properties":{},"geometry":{"type":"Point","coordinates":[80.306663,13.165761]}},{"type":"Feature","properties":{},"geometry":{"type":"Point","coordinates":[80.305548,13.165399]}},{"type":"Feature","properties":{},"geometry":{"type":"Point","coordinates":[80.299665,13.163738]}},{"type":"Feature","properties":{},"geometry":{"type":"Point","coordinates":[80.30088,13.16508]}},{"type":"Feature","properties":{},"geometry":{"type":"Point","coordinates":[80.29975,13.146831]}},{"type":"Feature","properties":{},"geometry":{"type":"Point","coordinates":[80.296833,13.156188]}},{"type":"Feature","properties":{},"geometry":{"type":"Point","coordinates":[80.179211,13.142056]}},{"type":"Feature","properties":{},"geometry":{"type":"Point","coordinates":[80.186596,13.14634]}},{"type":"Feature","properties":{},"geometry":{"type":"Point","coordinates":[80.204718,13.148252]}},{"type":"Feature","properties":{},"geometry":{"type":"Point","coordinates":[80.253289,13.166617]}},{"type":"Feature","properties":{},"geometry":{"type":"Point","coordinates":[80.255202,13.172347]}},{"type":"Feature","properties":{},"geometry":{"type":"Point","coordinates":[80.219216,13.018509]}},{"type":"Feature","properties":{},"geometry":{"type":"Point","coordinates":[80.219056,13.017523]}},{"type":"Feature","properties":{},"geometry":{"type":"Point","coordinates":[80.213145,13.020077]}},{"type":"Feature","properties":{},"geometry":{"type":"Point","coordinates":[80.233725,13.018788]}},{"type":"Feature","properties":{},"geometry":{"type":"Point","coordinates":[80.229794,13.018053]}},{"type":"Feature","properties":{},"geometry":{"type":"Point","coordinates":[80.251137,13.018692]}},{"type":"Feature","properties":{},"geometry":{"type":"Point","coordinates":[80.240891,13.024097]}},{"type":"Feature","properties":{},"geometry":{"type":"Point","coordinates":[80.243739,13.118582]}},{"type":"Feature","properties":{},"geometry":{"type":"Point","coordinates":[80.196105,13.049218]}},{"type":"Feature","properties":{},"geometry":{"type":"Point","coordinates":[80.218581,13.019068]}},{"type":"Feature","properties":{},"geometry":{"type":"Point","coordinates":[80.261537,13.025521]}},{"type":"Feature","properties":{},"geometry":{"type":"Point","coordinates":[80.307996,13.183453]}},{"type":"Feature","properties":{},"geometry":{"type":"Point","coordinates":[80.26374,13.108897]}},{"type":"Feature","properties":{},"geometry":{"type":"Point","coordinates":[80.286327,13.072767]}},{"type":"Feature","properties":{},"geometry":{"type":"Point","coordinates":[80.251658,12.93696]}},{"type":"Feature","properties":{},"geometry":{"type":"Point","coordinates":[80.214023,12.862916]}},{"type":"Feature","properties":{},"geometry":{"type":"Point","coordinates":[80.296322,13.179535]}},{"type":"Feature","properties":{},"geometry":{"type":"Point","coordinates":[80.233735,13.143031]}},{"type":"Feature","properties":{},"geometry":{"type":"Point","coordinates":[80.264508,13.114276]}},{"type":"Feature","properties":{},"geometry":{"type":"Point","coordinates":[80.2829,13.118627]}},{"type":"Feature","properties":{},"geometry":{"type":"Point","coordinates":[80.252601,13.164561]}},{"type":"Feature","properties":{},"geometry":{"type":"Point","coordinates":[80.256849,13.162797]}},{"type":"Feature","properties":{},"geometry":{"type":"Point","coordinates":[80.264086,13.116748]}},{"type":"Feature","properties":{},"geometry":{"type":"Point","coordinates":[80.278924,13.125264]}},{"type":"Feature","properties":{},"geometry":{"type":"Point","coordinates":[80.283663,13.117485]}},{"type":"Feature","properties":{},"geometry":{"type":"Point","coordinates":[80.272071,13.127624]}},{"type":"Feature","properties":{},"geometry":{"type":"Point","coordinates":[80.168071,13.045514]}},{"type":"Feature","properties":{},"geometry":{"type":"Point","coordinates":[80.200925,12.999169]}},{"type":"Feature","properties":{},"geometry":{"type":"Point","coordinates":[80.215597,12.938324]}},{"type":"Feature","properties":{},"geometry":{"type":"Point","coordinates":[80.248903,12.950565]}},{"type":"Feature","properties":{},"geometry":{"type":"Point","coordinates":[80.175506,13.015675]}},{"type":"Feature","properties":{},"geometry":{"type":"Point","coordinates":[80.169177,13.015311]}},{"type":"Feature","properties":{},"geometry":{"type":"Point","coordinates":[80.204583,12.990447]}},{"type":"Feature","properties":{},"geometry":{"type":"Point","coordinates":[80.201685,12.997421]}},{"type":"Feature","properties":{},"geometry":{"type":"Point","coordinates":[80.195764,12.986056]}},{"type":"Feature","properties":{},"geometry":{"type":"Point","coordinates":[80.200906,13.000883]}},{"type":"Feature","properties":{},"geometry":{"type":"Point","coordinates":[80.207597,13.001881]}},{"type":"Feature","properties":{},"geometry":{"type":"Point","coordinates":[80.189341,12.988176]}},{"type":"Feature","properties":{},"geometry":{"type":"Point","coordinates":[80.182252,12.969089]}},{"type":"Feature","properties":{},"geometry":{"type":"Point","coordinates":[80.17366,13.028116]}},{"type":"Feature","properties":{},"geometry":{"type":"Point","coordinates":[80.149395,13.054112]}},{"type":"Feature","properties":{},"geometry":{"type":"Point","coordinates":[80.140093,13.044556]}},{"type":"Feature","properties":{},"geometry":{"type":"Point","coordinates":[80.13954,13.046584]}},{"type":"Feature","properties":{},"geometry":{"type":"Point","coordinates":[80.162505,13.062234]}},{"type":"Feature","properties":{},"geometry":{"type":"Point","coordinates":[80.162033,13.053494]}},{"type":"Feature","properties":{},"geometry":{"type":"Point","coordinates":[80.169652,13.065058]}},{"type":"Feature","properties":{},"geometry":{"type":"Point","coordinates":[80.16382,13.050093]}},{"type":"Feature","properties":{},"geometry":{"type":"Point","coordinates":[80.162195,13.057743]}},{"type":"Feature","properties":{},"geometry":{"type":"Point","coordinates":[80.163665,13.05147]}},{"type":"Feature","properties":{},"geometry":{"type":"Point","coordinates":[80.240301,13.03259]}},{"type":"Feature","properties":{},"geometry":{"type":"Point","coordinates":[80.234759,13.139494]}},{"type":"Feature","properties":{},"geometry":{"type":"Point","coordinates":[80.20978,13.11552]}},{"type":"Feature","properties":{},"geometry":{"type":"Point","coordinates":[80.2655,13.106569]}},{"type":"Feature","properties":{},"geometry":{"type":"Point","coordinates":[80.263812,13.094559]}},{"type":"Feature","properties":{},"geometry":{"type":"Point","coordinates":[80.188479,13.136299]}},{"type":"Feature","properties":{},"geometry":{"type":"Point","coordinates":[80.189433,13.134544]}},{"type":"Feature","properties":{},"geometry":{"type":"Point","coordinates":[80.186815,13.114063]}},{"type":"Feature","properties":{},"geometry":{"type":"Point","coordinates":[80.154326,13.110321]}},{"type":"Feature","properties":{},"geometry":{"type":"Point","coordinates":[80.208629,13.033059]}},{"type":"Feature","properties":{},"geometry":{"type":"Point","coordinates":[80.161887,13.050842]}},{"type":"Feature","properties":{},"geometry":{"type":"Point","coordinates":[80.20267,12.998397]}},{"type":"Feature","properties":{},"geometry":{"type":"Point","coordinates":[80.191548,12.995657]}},{"type":"Feature","properties":{},"geometry":{"type":"Point","coordinates":[80.193982,12.995886]}},{"type":"Feature","properties":{},"geometry":{"type":"Point","coordinates":[80.188277,12.992884]}},{"type":"Feature","properties":{},"geometry":{"type":"Point","coordinates":[80.195733,12.996212]}},{"type":"Feature","properties":{},"geometry":{"type":"Point","coordinates":[80.199038,12.913199]}},{"type":"Feature","properties":{},"geometry":{"type":"Point","coordinates":[80.206626,12.919249]}},{"type":"Feature","properties":{},"geometry":{"type":"Point","coordinates":[80.327327,13.227051]}},{"type":"Feature","properties":{},"geometry":{"type":"Point","coordinates":[80.317694,13.217159]}},{"type":"Feature","properties":{},"geometry":{"type":"Point","coordinates":[80.317945,13.217663]}},{"type":"Feature","properties":{},"geometry":{"type":"Point","coordinates":[80.320914,13.217408]}},{"type":"Feature","properties":{},"geometry":{"type":"Point","coordinates":[80.31518,13.20828]}},{"type":"Feature","properties":{},"geometry":{"type":"Point","coordinates":[80.314262,13.206941]}},{"type":"Feature","properties":{},"geometry":{"type":"Point","coordinates":[80.312748,13.191015]}},{"type":"Feature","properties":{},"geometry":{"type":"Point","coordinates":[80.312468,13.189701]}},{"type":"Feature","properties":{},"geometry":{"type":"Point","coordinates":[80.308482,13.18906]}},{"type":"Feature","properties":{},"geometry":{"type":"Point","coordinates":[80.305671,13.185575]}},{"type":"Feature","properties":{},"geometry":{"type":"Point","coordinates":[80.30777,13.189623]}},{"type":"Feature","properties":{},"geometry":{"type":"Point","coordinates":[80.304071,13.184891]}},{"type":"Feature","properties":{},"geometry":{"type":"Point","coordinates":[80.310939,13.179046]}},{"type":"Feature","properties":{},"geometry":{"type":"Point","coordinates":[80.307423,13.181829]}},{"type":"Feature","properties":{},"geometry":{"type":"Point","coordinates":[80.307293,13.176214]}},{"type":"Feature","properties":{},"geometry":{"type":"Point","coordinates":[80.315894,13.188536]}},{"type":"Feature","properties":{},"geometry":{"type":"Point","coordinates":[80.312291,13.175506]}},{"type":"Feature","properties":{},"geometry":{"type":"Point","coordinates":[80.314703,13.18516]}},{"type":"Feature","properties":{},"geometry":{"type":"Point","coordinates":[80.298358,13.178037]}},{"type":"Feature","properties":{},"geometry":{"type":"Point","coordinates":[80.295693,13.179125]}},{"type":"Feature","properties":{},"geometry":{"type":"Point","coordinates":[80.301463,13.183075]}},{"type":"Feature","properties":{},"geometry":{"type":"Point","coordinates":[80.293922,13.177289]}},{"type":"Feature","properties":{},"geometry":{"type":"Point","coordinates":[80.299215,13.178223]}},{"type":"Feature","properties":{},"geometry":{"type":"Point","coordinates":[80.293443,13.17649]}},{"type":"Feature","properties":{},"geometry":{"type":"Point","coordinates":[80.299993,13.170029]}},{"type":"Feature","properties":{},"geometry":{"type":"Point","coordinates":[80.270224,13.151084]}},{"type":"Feature","properties":{},"geometry":{"type":"Point","coordinates":[80.274383,13.155236]}},{"type":"Feature","properties":{},"geometry":{"type":"Point","coordinates":[80.298482,13.165302]}},{"type":"Feature","properties":{},"geometry":{"type":"Point","coordinates":[80.29523,13.157786]}},{"type":"Feature","properties":{},"geometry":{"type":"Point","coordinates":[80.294355,13.167089]}},{"type":"Feature","properties":{},"geometry":{"type":"Point","coordinates":[80.29094,13.163682]}},{"type":"Feature","properties":{},"geometry":{"type":"Point","coordinates":[80.292792,13.171765]}},{"type":"Feature","properties":{},"geometry":{"type":"Point","coordinates":[80.294266,13.172301]}},{"type":"Feature","properties":{},"geometry":{"type":"Point","coordinates":[80.304219,13.165891]}},{"type":"Feature","properties":{},"geometry":{"type":"Point","coordinates":[80.303883,13.170439]}},{"type":"Feature","properties":{},"geometry":{"type":"Point","coordinates":[80.302747,13.165564]}},{"type":"Feature","properties":{},"geometry":{"type":"Point","coordinates":[80.308317,13.167188]}},{"type":"Feature","properties":{},"geometry":{"type":"Point","coordinates":[80.307159,13.167064]}},{"type":"Feature","properties":{},"geometry":{"type":"Point","coordinates":[80.308141,13.163422]}},{"type":"Feature","properties":{},"geometry":{"type":"Point","coordinates":[80.305046,13.165789]}},{"type":"Feature","properties":{},"geometry":{"type":"Point","coordinates":[80.296311,13.158293]}},{"type":"Feature","properties":{},"geometry":{"type":"Point","coordinates":[80.298727,13.16036]}},{"type":"Feature","properties":{},"geometry":{"type":"Point","coordinates":[80.305324,13.158092]}},{"type":"Feature","properties":{},"geometry":{"type":"Point","coordinates":[80.299033,13.146479]}},{"type":"Feature","properties":{},"geometry":{"type":"Point","coordinates":[80.2994,13.147719]}},{"type":"Feature","properties":{},"geometry":{"type":"Point","coordinates":[80.300677,13.150025]}},{"type":"Feature","properties":{},"geometry":{"type":"Point","coordinates":[80.267477,13.059481]}},{"type":"Feature","properties":{},"geometry":{"type":"Point","coordinates":[80.193613,13.079697]}}]}