{
  "type": "FeatureCollection",
  "features": [
    {
      "type": "Feature",
      "properties": {
        "name": "ArcGIS Flood Dashboard — 325 schools/health centers inundation (Esri)",
        "source": "https://www.arcgis.com/apps/dashboards/8641fd120dc04bbd85bcb3315e03a199",
        "provenance": "Gap from OpenCity Datajam Jan 2024 — now added"
      },
      "geometry": {
        "type": "Polygon",
        "coordinates": [
          [
            [
              80.18,
              12.98
            ],
            [
              80.28,
              12.98
            ],
            [
              80.28,
              13.08
            ],
            [
              80.18,
              13.08
            ],
            [
              80.18,
              12.98
            ]
          ]
        ]
      }
    },
    {
      "type": "Feature",
      "properties": {
        "name": "ArcGIS Flood Dashboard — 325 schools/health centers inundation (Esri) (2)",
        "source": "https://www.arcgis.com/apps/dashboards/8641fd120dc04bbd85bcb3315e03a199",
        "provenance": "Gap from OpenCity Datajam Jan 2024 — now added"
      },
      "geometry": {
        "type": "Point",
        "coordinates": [
          80.22,
          13.03
        ]
      }
    }
  ]
}