{
  "type": "FeatureCollection",
  "features": [
    {
      "type": "Feature",
      "properties": {
        "name": "chennai_culverts 1"
      },
      "geometry": {
        "type": "Point",
        "coordinates": [
          80.22303936872925,
          13.050142082322706
        ]
      }
    },
    {
      "type": "Feature",
      "properties": {
        "name": "chennai_culverts 2"
      },
      "geometry": {
        "type": "Point",
        "coordinates": [
          80.2341315699964,
          13.037477191306214
        ]
      }
    },
    {
      "type": "Feature",
      "properties": {
        "name": "chennai_culverts 3"
      },
      "geometry": {
        "type": "Point",
        "coordinates": [
          80.25814660961744,
          13.08887275216166
        ]
      }
    },
    {
      "type": "Feature",
      "properties": {
        "name": "chennai_culverts 4"
      },
      "geometry": {
        "type": "Point",
        "coordinates": [
          80.23100856142462,
          13.110847112994163
        ]
      }
    }
  ]
}