{
  "type": "FeatureCollection",
  "features": [
    {
      "type": "Feature",
      "properties": {
        "name": "South Chennai Encroachments — ELCOT/NIOT on Waterbodies (Datajam Team 2)",
        "source": "https://elcot.in/special-economic-zone/chennai-sez",
        "note": "Deep gap audit 3 — now added"
      },
      "geometry": {
        "type": "Polygon",
        "coordinates": [
          [
            [
              80.18,
              12.98
            ],
            [
              80.28,
              12.98
            ],
            [
              80.28,
              13.08
            ],
            [
              80.18,
              13.08
            ],
            [
              80.18,
              12.98
            ]
          ]
        ]
      }
    },
    {
      "type": "Feature",
      "properties": {
        "name": "South Chennai Encroachments — ELCOT/NIOT on Waterbodies (Datajam Team 2) (2)",
        "source": "https://elcot.in/special-economic-zone/chennai-sez",
        "note": "Deep gap audit 3 — now added"
      },
      "geometry": {
        "type": "Point",
        "coordinates": [
          80.22,
          13.03
        ]
      }
    }
  ]
}