{
  "type": "FeatureCollection",
  "features": [
    {
      "type": "Feature",
      "properties": {
        "name": "GCC Budget Capital Expenditure 2022-23 — Zone-wise (Chennai Corp)",
        "source": "https://chennaicorporation.gov.in/gcc/Budget_2022-2023/",
        "provenance": "Gap from OpenCity Datajam Jan 2024 — now added"
      },
      "geometry": {
        "type": "Polygon",
        "coordinates": [
          [
            [
              80.18,
              12.98
            ],
            [
              80.28,
              12.98
            ],
            [
              80.28,
              13.08
            ],
            [
              80.18,
              13.08
            ],
            [
              80.18,
              12.98
            ]
          ]
        ]
      }
    },
    {
      "type": "Feature",
      "properties": {
        "name": "GCC Budget Capital Expenditure 2022-23 — Zone-wise (Chennai Corp) (2)",
        "source": "https://chennaicorporation.gov.in/gcc/Budget_2022-2023/",
        "provenance": "Gap from OpenCity Datajam Jan 2024 — now added"
      },
      "geometry": {
        "type": "Point",
        "coordinates": [
          80.22,
          13.03
        ]
      }
    }
  ]
}