{
  "type": "FeatureCollection",
  "features": [
    {
      "type": "Feature",
      "properties": {
        "name": "India Flood Inventory 1985-2016 — HydroSense IITD + IMD DWE + EM-DAT/DFO",
        "source": "https://github.com/hydrosenselab/India-Flood-Inventory",
        "note": "Missing gap — now added (KML->GeoJSON stub, replace with real download)"
      },
      "geometry": {
        "type": "Polygon",
        "coordinates": [
          [
            [
              80.18,
              12.98
            ],
            [
              80.28,
              12.98
            ],
            [
              80.28,
              13.08
            ],
            [
              80.18,
              13.08
            ],
            [
              80.18,
              12.98
            ]
          ]
        ]
      }
    },
    {
      "type": "Feature",
      "properties": {
        "name": "India Flood Inventory 1985-2016 — HydroSense IITD + IMD DWE + EM-DAT/DFO (2)",
        "source": "https://github.com/hydrosenselab/India-Flood-Inventory",
        "note": "Missing gap — now added (KML->GeoJSON stub, replace with real download)"
      },
      "geometry": {
        "type": "Point",
        "coordinates": [
          80.22,
          13.03
        ]
      }
    }
  ]
}