{
  "type": "FeatureCollection",
  "features": [
    {
      "type": "Feature",
      "properties": {
        "name": "LANDSAT 7 & 8 — Drainage direction & built-up 2000-2022 (NASA)",
        "source": "https://landsat.gsfc.nasa.gov/satellites/landsat-7/",
        "provenance": "Gap from OpenCity Datajam Jan 2024 — now added"
      },
      "geometry": {
        "type": "Polygon",
        "coordinates": [
          [
            [
              80.18,
              12.98
            ],
            [
              80.28,
              12.98
            ],
            [
              80.28,
              13.08
            ],
            [
              80.18,
              13.08
            ],
            [
              80.18,
              12.98
            ]
          ]
        ]
      }
    },
    {
      "type": "Feature",
      "properties": {
        "name": "LANDSAT 7 & 8 — Drainage direction & built-up 2000-2022 (NASA) (2)",
        "source": "https://landsat.gsfc.nasa.gov/satellites/landsat-7/",
        "provenance": "Gap from OpenCity Datajam Jan 2024 — now added"
      },
      "geometry": {
        "type": "Point",
        "coordinates": [
          80.22,
          13.03
        ]
      }
    }
  ]
}