{
  "type": "FeatureCollection",
  "features": [
    {
      "type": "Feature",
      "properties": {
        "name": "NRSC Bhuvan LULC Change 2000-2022 — Wetland Shrinkage (ISRO)",
        "source": "https://bhuvan.nrsc.gov.in",
        "note": "Deep gap audit 3 — now added"
      },
      "geometry": {
        "type": "Polygon",
        "coordinates": [
          [
            [
              80.18,
              12.98
            ],
            [
              80.28,
              12.98
            ],
            [
              80.28,
              13.08
            ],
            [
              80.18,
              13.08
            ],
            [
              80.18,
              12.98
            ]
          ]
        ]
      }
    },
    {
      "type": "Feature",
      "properties": {
        "name": "NRSC Bhuvan LULC Change 2000-2022 — Wetland Shrinkage (ISRO) (2)",
        "source": "https://bhuvan.nrsc.gov.in",
        "note": "Deep gap audit 3 — now added"
      },
      "geometry": {
        "type": "Point",
        "coordinates": [
          80.22,
          13.03
        ]
      }
    }
  ]
}