{
  "type": "FeatureCollection",
  "features": [
    {
      "type": "Feature",
      "properties": {
        "name": "Water Consumption vs Capacity — Zone deficit (CMWSSB)",
        "source": "https://data.opencity.in/dataset/chennai-flooding-data",
        "provenance": "Gap from OpenCity Datajam Jan 2024 — now added"
      },
      "geometry": {
        "type": "Polygon",
        "coordinates": [
          [
            [
              80.18,
              12.98
            ],
            [
              80.28,
              12.98
            ],
            [
              80.28,
              13.08
            ],
            [
              80.18,
              13.08
            ],
            [
              80.18,
              12.98
            ]
          ]
        ]
      }
    },
    {
      "type": "Feature",
      "properties": {
        "name": "Water Consumption vs Capacity — Zone deficit (CMWSSB) (2)",
        "source": "https://data.opencity.in/dataset/chennai-flooding-data",
        "provenance": "Gap from OpenCity Datajam Jan 2024 — now added"
      },
      "geometry": {
        "type": "Point",
        "coordinates": [
          80.22,
          13.03
        ]
      }
    }
  ]
}